num,address,lat,lon,tel,name,wilaya,code
"0","ADRAR,Boulevard Mohamed El Atchane,Adrar",28.0174403,-0.2642497,049 36 41 18  - 049 36 41 23  - 049 36 41 24  - 049 36 41 25  - 049 36 42 16  - 049 36 42 20  - 049 36 42 21  - 049 36 42 22  - 049 36 42 23  - 049 36 42 36  - 049 36 44 34  - 049 36 49 06  - 049 36 61 37  - 049 36 61 38,. IMPOTS Direction,Adrar,"1"
"1","ADRAR,Rue Taleb Mohamed,Adrar",27.8766599,-0.2707998,"49361062",. IMPOTS Direction,Adrar,"1"
"4","3,REGGANE,Cité El Kaous Labyad,Adrar",26.7242654,0.1657289,"49320202",. IMPOTS Direction,Adrar,"1"
"5","2,REGGANE,Cité El Kaous Labyad,Adrar",26.7242654,0.1657289,"49320320",. IMPOTS Direction,Adrar,"1"
"6","4,REGGANE,Cité El Kaous Labyad,Adrar",26.7242654,0.1657289,"49320207",. IMPOTS Direction,Adrar,"1"
"7","AOULEF,Cité Centre Ville,Adrar",26.9678212,1.0880079,049 32 71 96  - 049 32 78 27  - 049 32 78 53  - 049 32 78 58,. IMPOTS Direction,Adrar,"1"
"8","REGGANE,Brigade Darak El Watani,Adrar",26.7242654,0.1657289,"49970319",. IMPOTS Direction,Adrar,"1"
"9","TIMIMOUN,Cité Hassi Ghambou,Adrar",29.2616911,0.2415964,049 90 45 51  - 049 90 45 59,. IMPOTS Direction,Adrar,"1"
"11","ADRAR,Cité Aissat Idir,Adrar",27.8725274,-0.2673055,049 36 10 26  - 049 36 10 27  - 049 36 41 30,. IMPOTS Direction,Adrar,"1"
"12","REGGANE,Rue Amir Abdelkader,Adrar",26.7242654,0.1657289,049 36 42 27  - 049 36 44 52,. IMPOTS Direction,Adrar,"1"
"13","CHLEF,Boulevard Emir AEK,Chlef",36.1664031,1.3361486,027 79 85 43  - 027 79 85 45,Direction IMPOTS,Chlef,"2"
"14","EL KARIMIA,El Karimia,Chlef",36.111108,1.5535633,027 70 91 47  - 027 70 91 53,Direction IMPOTS,Chlef,"2"
"15","CHLEF,Cité 57 Logements OPGI,Chlef",36.1656697,1.334188,"27798801",Direction IMPOTS,Chlef,"2"
"16","TENES,Tenes,Chlef",36.5081163,1.3078225,027 76 61 72  - 027 76 71 66  - 027 76 71 94,Direction IMPOTS,Chlef,"2"
"17","BOUKADIR,Cité 30 Logements,Chlef",36.060248,1.1305809,"27749506",Direction IMPOTS,Chlef,"2"
"18","CHLEF,Boulevard Des Martyrs,Chlef",36.1664524,1.3326435,"27778107",Direction IMPOTS,Chlef,"2"
"19","BOUKADIR,Boukadir,Chlef",36.060248,1.1305809,"27749238",Direction IMPOTS,Chlef,"2"
"21","OUED FODDA,Chlef",36.1884187,1.5328078,027 44 70 18  - 027 44 74 31  - 027 44 74 32,Direction IMPOTS,Chlef,"2"
"22","OUED FODDA,Oued Fodda,Chlef",36.1884187,1.5328078,"27448428",Direction IMPOTS,Chlef,"2"
"23","OUM DROU,Centre Ville,Chlef",36.1977011,1.3903197,"27429442",Direction IMPOTS,Chlef,"2"
"24","BOUKADIR,Chlef",36.060248,1.1305809,027 74 93 20  - 027 74 93 23,Direction IMPOTS,Chlef,"2"
"25","EL KARIMIA,Rue Principale,Chlef",36.111108,1.5535633,"27709510",Direction IMPOTS,Chlef,"2"
"26","CHETTIA,Village Socialiste Agricole,Chlef",36.1944323,1.2568799,"27731707",Direction IMPOTS,Chlef,"2"
"27","BOUZGHAIA,Bouzeghaia,Chlef",36.3411119,1.2394432,"27720016",Direction IMPOTS,Chlef,"2"
"28","TENES,Rue Cousin Koubili,Chlef",36.5081163,1.3078225,"27767419",Direction IMPOTS,Chlef,"2"
"29","CHLEF,Rue Aspirant Dahmane,Chlef",36.1698926,1.3359044,"27772935",Direction IMPOTS,Chlef,"2"
"30","SIDI AKKACHA,Sidi Akacha,Chlef",36.4625212,1.3020848,"27760116",Direction IMPOTS,Chlef,"2"
"31","SIDI AKKACHA,Chlef",36.4625212,1.3020848,027 76 03 42  - 027 76 06 18,Direction IMPOTS,Chlef,"2"
"32","OULED FARES,Ouled Fares,Chlef",36.2309293,1.2341846,027 72 00 81  - 027 72 94 13  - 027 78 90 87,Direction IMPOTS,Chlef,"2"
"33","CHLEF,Rue Aspirant Dahmane,Chlef",36.1698926,1.3359044,027 77 78 30  - 027 79 08 09,Direction IMPOTS,Chlef,"2"
"34","CHLEF,Place de Solidarité,Chlef",36.1579664,1.3372823,"27775541",Direction IMPOTS,Chlef,"2"
"35","CHLEF,Cité 57 Logements OPGI,Chlef",36.1656697,1.334188,027 77 24 85  - 027 77 81 52  - 027 77 82 09  - 027 77 83 73,Direction IMPOTS,Chlef,"2"
"36","CHLEF,Hai Bensouna,Chlef",36.1609205,1.3155951,"27776175",Direction IMPOTS,Chlef,"2"
"37","CHLEF,Cité Olympique,Chlef",36.1609205,1.3155951,"27776302",Direction IMPOTS,Chlef,"2"
"38","CHLEF,Cité Benourane,Chlef",36.1464129,1.3131548,"27771149",Direction IMPOTS,Chlef,"2"
"40","CHLEF,Hai Ennasr,Chlef",36.1579664,1.3372823,"27773727",Direction IMPOTS,Chlef,"2"
"41","CHLEF,Boulevard Des Martyrs,Chlef",36.1664524,1.3326435,027 77 00 03  - 027 77 19 19  - 027 77 19 56  - 027 77 20 20  - 027 77 20 58  - 027 77 33 81  - 027 77 61 76  - 027 77 62 36  - 027 77 62 97  - 027 77 62 98  - 027 77 71 06  - 027 77 82 86  - 027 77 87 47  - 027 79 84 98,Direction IMPOTS,Chlef,"2"
"42","ILOT 128,AFLOU,Hai EL MOUSTAKBAL,Laghouat",34.1139518,2.0973854,029 17 60 76  - 029 17 60 77  - 029 17 60 78  - 029 17 60 80  - 029 17 60 85,. IMPOTS Direction,Laghouat,"3"
"43","HASSI R'MEL,Cité DAIRA,Laghouat",32.9276121,3.2712646,029 18 85 68  - 029 18 85 70,. IMPOTS Direction,Laghouat,"3"
"44","HASSI R'MEL,Cité 200 logements,Laghouat",32.9276121,3.2712646,029 18 25 76  - 029 18 25 77  - 029 18 25 78,. IMPOTS Direction,Laghouat,"3"
"45","LAGHOUAT,Route El Kheneg,Laghouat",33.800128,2.8563323,029 10 23 30  - 029 10 23 31,. IMPOTS Direction,Laghouat,"3"
"46","AFLOU,Cité Administrative,Laghouat",34.1139518,2.0973854,029 16 62 51  - 029 16 62 52,. IMPOTS Direction,Laghouat,"3"
"47","14,LAGHOUAT,Cité 200 logements Saci BOULAF,Laghouat",33.8078341,2.8628294,"29106665",impots direction des imots,Laghouat,"3"
"48","LAGHOUAT,Cité 200 logements Saci BOULAF,Laghouat",33.8078341,2.8628294,029 10 58 60  - 029 10 59 61,. IMPOTS Direction,Laghouat,"3"
"49","AIN MADHI,Lotissement DOUAYER,Laghouat",33.7986775,2.3074412,"29130482",. IMPOTS Direction,Laghouat,"3"
"50","LAGHOUAT,Boulevard BEN SALEM Hadj Ahmed,Laghouat",33.8078341,2.8628294,"29132541",. IMPOTS Direction,Laghouat,"3"
"51","TADJMOUT,Cité TADJMOUT,Laghouat",33.8806065,2.5261564,029 13 60 73  - 029 13 65 69  - 029 13 65 74,. IMPOTS Direction,Laghouat,"3"
"52","LAGHOUAT,Cité universitaire,Laghouat",33.8025084,2.8556728,029 14 53 36  - 029 14 53 38  - 029 14 53 39  - 029 14 53 41,. IMPOTS Direction,Laghouat,"3"
"53","ILOT 358,LAGHOUAT,Maamourah,Laghouat",33.7972499,2.8657376,"29132643",direction des impots direction des impots,Laghouat,"3"
"54","LAGHOUAT,Maamourah,Laghouat",33.8078341,2.8628294,029 13 23 36  - 029 13 23 38  - 029 13 23 39  - 029 13 23 40  - 029 13 25 48  - 029 13 25 51  - 029 13 25 59  - 029 14 65 26,. IMPOTS Direction,Laghouat,"3"
"55","KSAR EL HIRANE,KSAR EL HIRANE,Laghouat",33.7847662,3.1328011,029 12 25 59  - 029 12 25 60  - 029 12 25 61  - 029 12 27 29  - 029 12 27 30  - 029 12 27 31  - 029 12 27 32  - 029 12 27 63,. IMPOTS Direction,Laghouat,"3"
"56","LAGHOUAT,Boulevard de l'indépendance,Laghouat",33.8008903,2.8713477,029 13 25 49  - 029 13 25 50  - 029 13 25 52  - 029 13 25 53  - 029 13 25 54  - 029 13 25 55  - 029 13 25 56,. IMPOTS Direction,Laghouat,"3"
"57","OUM EL BOUAGHI,Direction Protection Civil,Oum El Bouaghi",35.8793349,7.0967446,"32563731",. IMPOTS,Oum El Bouaghi,"4"
"58","OUM EL BOUAGHI,Rte Constantine,Oum El Bouaghi",35.8688789,7.1108266,"32563454",. IMPOTS,Oum El Bouaghi,"4"
"59","OUM EL BOUAGHI,Rte Khenchela,Oum El Bouaghi",35.8688789,7.1108266,032 55 05 62  - 032 55 06 36  - 032 55 90 05  - 032 55 90 06  - 032 55 90 11,. IMPOTS,Oum El Bouaghi,"4"
"60","OUM EL BOUAGHI,Oum El Bouaghi,Oum El Bouaghi",35.8688789,7.1108266,032 55 12 76  - 032 55 12 78,. IMPOTS,Oum El Bouaghi,"4"
"61","AIN KERCHA,Rue Travalleurs,Oum El Bouaghi",35.8693177,7.1099466,"32511261",. DIRECTION DES IMPOTS,Oum El Bouaghi,"4"
"62","OUM EL BOUAGHI,Cite Essaada 1,Oum El Bouaghi",35.8688789,7.1108266,032 55 06 72  - 032 55 08 08,. IMPOTS,Oum El Bouaghi,"4"
"63","1,AIN FAKROUN,Route De Constantine,Oum El Bouaghi",35.9772098,6.8733714,032 57 56 91  - 032 57 57 06,. IMPOTS,Oum El Bouaghi,"4"
"64","334,AIN M'LILA,Cité Gouadjelia,Oum El Bouaghi",36.0343972,6.5737863,"32524471",. DIRECTION DES IMPOTS,Oum El Bouaghi,"4"
"65","10,AIN FAKROUN,Cite Essalem,Oum El Bouaghi",35.9772098,6.8733714,032 57 56 20  - 032 57 56 21,. IMPOTS,Oum El Bouaghi,"4"
"66","225,AIN FAKROUN,Rue Bouabellah Derradji,Oum El Bouaghi",35.9772098,6.8733714,"32574844",. IMPOTS,Oum El Bouaghi,"4"
"67","OUM EL BOUAGHI,Rue Houari Boumediene,Oum El Bouaghi",35.8678614,7.1040438,"32549324",. IMPOTS,Oum El Bouaghi,"4"
"68","AIN M'LILA,Cite HLM,Oum El Bouaghi",36.0343972,6.5737863,032 50 22 65  - 032 50 22 66  - 032 50 66 75,. DIRECTION DES IMPOTS,Oum El Bouaghi,"4"
"69","AIN M'LILA,Cité Gouadjelia,Oum El Bouaghi",36.0343972,6.5737863,032 52 47 74  - 032 52 47 77  - 032 52 47 78,. DIRECTION DES IMPOTS,Oum El Bouaghi,"4"
"70","OUM EL BOUAGHI,Ave H.Boumediene,Oum El Bouaghi",35.8669695,7.1152607,032 54 16 83  - 032 54 16 88  - 032 54 16 90  - 032 54 16 91  - 032 54 17 00  - 032 54 17 01  - 032 54 97 79  - 032 54 98 99  - 032 55 11 05  - 032 55 12 25  - 032 55 12 33  - 032 55 12 34  - 032 55 12 57  - 032 55 12 70  - 032 55 12 74  - 032 55 12 92  - 032 55 12 95,. IMPOTS,Oum El Bouaghi,"4"
"71","AIN FAKROUN,Route De Constantine,Oum El Bouaghi",35.9772098,6.8733714,032 57 58 63  - 032 57 58 70,. IMPOTS,Oum El Bouaghi,"4"
"72","OUM EL BOUAGHI,Siege D'impots Nouvelle Ville,Oum El Bouaghi",35.8716117,7.0966741,"32541692",. IMPOTS,Oum El Bouaghi,"4"
"73","243,AIN FAKROUN,Cite 300 Logts De La Gare,Oum El Bouaghi",35.9772098,6.8733714,"32575004",. IMPOTS,Oum El Bouaghi,"4"
"74","RAS EL AIOUN,Centre Ville,Batna",35.681438,5.6545312,"33372757",Batna DIRECTION DES IMPOTS,Batna,"5"
"75","TAZOULT,Cité 200 Logts,Batna",35.6320745,5.9131539,"33321408",Batna DIRECTION DES IMPOTS,Batna,"5"
"76","TENIET EL ABED,Cite Draa Taga,Batna",35.2835021,6.2507268,033 34 10 22  - 033 34 10 29  - 033 34 11 40,. RECETTE DES IMPOTS TENIET ELABED,Batna,"5"
"77","TENIET EL ABED,Cite 76 Logts,Batna",35.2835021,6.2507268,"33341153",Batna DIRECTION DES IMPOTS,Batna,"5"
"78","6,MEROUANA,Rue Du Lycee,Batna",35.6348418,5.909114,"33400733",Batna DIRECTION DES IMPOTS,Batna,"5"
"79","27,MEROUANA,Rue Du Lycee,Batna",35.6328904,5.9051916,"33400869",MEROUANA RECETTE DES IMPOTS,Batna,"5"
"80","4,AIN TOUTA,Rue 5 Juillet,Batna",35.3808071,5.9020128,"33353127",Batna DIRECTION DES IMPOTS,Batna,"5"
"81","6,EL MADHER,Rue Bahloul Khoudir,Batna",35.6274186,6.3733989,033 26 90 84  - 033 26 94 94,El Madher IMPOTS Recette Des Contributions Diverses,Batna,"5"
"82","OUED CHAABA,Cité HAMLA 3,Batna",35.5316642,6.0931652,033 31 66 86  - 033 31 66 87,Batna DIRECTION DES IMPOTS,Batna,"5"
"83","BARIKA,Avenue 8 Mai 45,Batna",35.3877747,5.3703633,033 39 19 71  - 033 39 19 72,. CENTRE DE PROXIMITE DES IMPOTS BARIKA,Batna,"5"
"84","ARRIS,Rue Ahmed Abderezzak,Batna",42.3770029,-71.1166601,033 34 31 21  - 033 34 31 23  - 033 34 31 67,. RECETTE DES IMPOTS ARRIS,Batna,"5"
"85","BATNA,Allée Benboulaid,Batna",35.5556579,6.1777899,033 80 30 09  - 033 80 68 83,Batna DIRECTION DES IMPOTS,Batna,"5"
"86","ARRIS,Rue Ben Boulaid,Batna",35.2585588,6.3490362,"33343119",Batna DIRECTION DES IMPOTS,Batna,"5"
"87","BATNA,Rue De La Verdure,Batna",35.5543632,6.1729601,"33316688",Batna DIRECTION DES IMPOTS,Batna,"5"
"88","BATNA,Cité Bordj El Ghola,Batna",35.5634192,6.1889996,033 80 34 43  - 033 80 66 28  - 033 80 73 85  - 033 81 30 77  - 033 81 44 11,Batna DIRECTION DES IMPOTS,Batna,"5"
"89","BATNA,Cité Administrative,Batna",35.5564045,6.1704259,033 80 23 41  - 033 80 27 25  - 033 80 37 08,Batna DIRECTION DES IMPOTS,Batna,"5"
"90","EL MADHER,Batna",35.6274186,6.3733989,033 26 91 04  - 033 26 91 89,El Madher IMPOTS Recette Des Contributions Diverses,Batna,"5"
"91","MEROUANA,Batna",35.6299464,5.9118713,"33400718",MEROUANA RECETTE DES IMPOTS,Batna,"5"
"92","MEROUANA,Cité 75 Logts,Batna",35.6260345,5.9130714,"33402541",MEROUANA RECETTE DES IMPOTS,Batna,"5"
"94","ILOT 104,TICHY,Route De Plage,Bejaia",36.6550461,5.1638936,"34815398",. IMPOTS Recette Contributions Divers,Bejaia,"6"
"95","ILOT 54,SEDDOUK,Place De La Mairie,Bejaia",36.5467873,4.6867022,"34893304",. IMPOTS Recette Contributions Divers,Bejaia,"6"
"96","ILOT 942,BEJAIA,Lotissement Daouadji,Bejaia",36.7515258,5.0556837,034 12 50 19  - 034 12 50 44,. IMPOTS Recette Contributions Divers,Bejaia,"6"
"97","KHERRATA,Cite Douasla,Bejaia",36.4936399,5.2770714,034 18 52 86  - 034 18 54 33,. IMPOTS Recette Contributions Divers,Bejaia,"6"
"98","KHERRATA,Kherrata (Centre ),Bejaia",36.4936399,5.2770714,"34392423",. IMPOTS Recette Contributions Divers,Bejaia,"6"
"99","ILOT 865,BEJAIA,Lotissement Sidi Ali L'Bhar,Bejaia",36.7266653,5.0715808,"34183525",. IMPOTS Recette Contributions Divers,Bejaia,"6"
"100","BEJAIA,Rue Aissat Idir,Bejaia",36.751971,5.0839193,034 16 61 92  - 034 16 62 53  - 034 16 62 54  - 034 16 62 57  - 034 16 62 60  - 034 16 62 64  - 034 17 47 49  - 034 18 33 11,. IMPOTS Recette Contributions Divers,Bejaia,"6"
"101","EL KSEUR,Cite Casorec,Bejaia",36.6775376,4.8492903,"34823698",. IMPOTS Recette Contributions Divers,Bejaia,"6"
"102","TAZMALT,Centre Ville Tazmalt,Bejaia",36.3903818,4.3954971,"34317154",. IMPOTS Recette Contributions Divers,Bejaia,"6"
"103","BEJAIA,Route Des Concessions,Bejaia",36.7404457,5.0600127,"34166258",. IMPOTS Recette Contributions Divers,Bejaia,"6"
"104","EL KSEUR,El Kseur (Centre ),Bejaia",36.6775376,4.8492903,034 13 54 21  - 034 13 54 22  - 034 13 54 23  - 034 13 54 24  - 034 13 54 25  - 034 13 54 26  - 034 13 54 27  - 034 13 54 28,. IMPOTS Recette Contributions Divers,Bejaia,"6"
"105","BEJAIA,Residence La montagne Tala Oua,Bejaia",36.8225012,4.9491209,"34189309",. IMPOTS Recette Contributions Divers,Bejaia,"6"
"106","KHERRATA,Route National N°9,Bejaia",36.4936399,5.2770714,034 18 52 80  - 034 18 52 81  - 034 18 52 83,. IMPOTS Recette Contributions Divers,Bejaia,"6"
"107","SOUK EL TENINE,Souk El Tenine ( Centre ),Bejaia",36.6279732,5.3351901,034 84 71 56  - 034 84 71 71,. IMPOTS Recette Contributions Divers,Bejaia,"6"
"108","ILOT 940,BEJAIA,Boulevard De L'ALN,Bejaia",36.7513597,5.0594982,"34125123",. IMPOTS Recette Contributions Divers,Bejaia,"6"
"109","AKBOU,Village Akbou,Bejaia",36.4556403,4.5365087,"34334443",. IMPOTS Recette Contributions Divers,Bejaia,"6"
"110","TAZMALT,Tazmalt,Bejaia",36.3903818,4.3954971,"34314324",. IMPOTS Recette Contributions Divers,Bejaia,"6"
"111","TAZMALT,Boulevard Mira Abderahmane,Bejaia",36.3903818,4.3954971,034 31 71 50  - 034 31 71 51,. IMPOTS Recette Contributions Divers,Bejaia,"6"
"112","TAZMALT,Bejaia",36.3903818,4.3954971,"34311353",. IMPOTS Recette Contributions Divers,Bejaia,"6"
"113","1,AKBOU,Gare Routiere,Bejaia",36.4640151,4.5298113,034 36 05 84  - 034 36 05 85  - 034 36 05 86  - 034 36 05 89  - 034 36 05 99,. IMPOTS Recette Contributions Divers,Bejaia,"6"
"114","40c,EL KSEUR,Place Du Marche,Bejaia",36.6775376,4.8492903,"34135376",. IMPOTS Recette Contributions Divers,Bejaia,"6"
"115","BEJAIA,Lotissement Sidi Ali L'Bhar,Bejaia",36.7290799,5.0745249,034 18 35 95  - 034 18 36 23  - 034 18 36 31  - 034 18 36 36  - 034 18 36 53,. IMPOTS Recette Contributions Divers,Bejaia,"6"
"116","SIDI AICH,Rue Hadjout Said,Bejaia",36.6097178,4.6901722,"34860388",. IMPOTS Recette Contributions Divers,Bejaia,"6"
"117","AMIZOUR,Residence Amizour Centre,Bejaia",36.6626637,4.9154069,"34824274",. IMPOTS Recette Contributions Divers,Bejaia,"6"
"118","LYCEE,BEJAIA,Boulevard De L'ALN,Bejaia",36.7608658,5.0680718,034 12 50 42  - 034 12 58 79  - 034 12 58 85,. IMPOTS Recette Contributions Divers,Bejaia,"6"
"120","BEJAIA,Bejaia (Centre ),Bejaia",36.754365,5.0499622,034 14 32 08  - 034 14 32 14  - 034 32 35 74  - 034 86 02 77  - 034 89 33 23  - 034 89 33 48  - 034 89 44 90,. IMPOTS Recette Contributions Divers,Bejaia,"6"
"121","TICHY,Boulevard Principal de Tichy,Bejaia",36.6550461,5.1638936,"34815276",. IMPOTS Recette Contributions Divers,Bejaia,"6"
"122","AMIZOUR,Cite 154 Logts,Bejaia",36.643932,4.9036584,034 24 00 43  - 034 24 01 36  - 034 82 42 77,. IMPOTS Recette Contributions Divers,Bejaia,"6"
"123","BISKRA,Boulevard Hammouda Ahmed,Biskra",34.8562557,5.7307637,033 51 52 03  - 033 51 52 05  - 033 51 52 12  - 033 51 52 23  - 033 51 52 26  - 033 51 52 27  - 033 51 52 43  - 033 51 52 46  - 033 51 52 50  - 033 51 52 54  - 033 53 08 30  - 033 53 08 44  - 033 53 63 36  - 033 53 63 37  - 033 61 96 66,. DIRECTION DES IMPOTS,Biskra,"7"
"124","BISKRA,Biskra",34.8449437,5.7248567,"33530829",. DIRECTION DES IMPOTS,Biskra,"7"
"125","BISKRA,CENTRE VILLE,Biskra",34.8449437,5.7248567,033 53 08 02  - 033 53 08 35  - 033 53 08 47  - 033 53 08 50  - 033 53 40 17  - 033 53 53 53  - 033 53 66 10  - 033 61 96 65,. DIRECTION DES IMPOTS,Biskra,"7"
"126","BISKRA,Cité 252 Logts,Biskra",34.8449437,5.7248567,"33530838",. DIRECTION DES IMPOTS,Biskra,"7"
"127","BISKRA,Cité Bilal,Biskra",34.8455368,5.7481969,033 53 08 57  - 033 53 66 04,. DIRECTION DES IMPOTS,Biskra,"7"
"128","OULED DJELLAL,Rue Laarbi Ben M'hidi,Biskra",34.8541642,5.715833,"33663262",. DIRECTION DES IMPOTS,Biskra,"7"
"129","EL KANTARA,Hai 05 juillet,Biskra",35.2180269,5.7102465,033 63 20 63  - 033 63 21 44  - 033 63 21 46  - 033 69 66 17,. DIRECTION DES IMPOTS,Biskra,"7"
"130","OURLAL,OURLAL,Biskra",34.655656,5.5128952,"33570304",. DIRECTION DES IMPOTS,Biskra,"7"
"131","PTT,SIDI OKBA,Route Nationale N°83,Biskra",34.7505874,5.9084077,"33646279",. DIRECTION DES IMPOTS,Biskra,"7"
"132","IMPOT,SIDI OKBA,Route Nationale N°83,Biskra",34.825376,5.7722184,033 64 62 72  - 033 64 62 73  - 033 64 62 74  - 033 64 62 75  - 033 64 62 76  - 033 64 62 77  - 033 64 62 78,. DIRECTION DES IMPOTS,Biskra,"7"
"133","BISKRA,Rue De La Gare,Biskra",34.8449437,5.7248567,"33530836",. DIRECTION DES IMPOTS,Biskra,"7"
"134","2,BISKRA,Hai SAADA 2 R11,Biskra",34.8615042,5.7424888,033 65 52 47  - 033 65 52 48  - 033 65 52 55  - 033 65 52 56  - 033 65 52 66  - 033 65 52 67  - 033 65 52 72,. DIRECTION DES IMPOTS,Biskra,"7"
"135","42,ZERIBET EL OUED,Rue des fr}res BENNADJI,Biskra",34.6856169,6.4934143,"33641533",. DIRECTION DES IMPOTS,Biskra,"7"
"136","SIDI OKBA,Cité 80 Logts,Biskra",34.7505874,5.9084077,"33640049",. DIRECTION DES IMPOTS,Biskra,"7"
"137","SIDI OKBA,Cité 134 logts,Biskra",34.7505874,5.9084077,"33510453",. DIRECTION DES IMPOTS,Biskra,"7"
"138","SIDI KHALED,Sidi Khaled,Biskra",34.397074,4.9970929,033 67 98 03  - 033 67 98 04  - 033 67 98 23  - 033 67 98 26  - 033 67 98 30,. DIRECTION DES IMPOTS,Biskra,"7"
"139","ZERIBET EL OUED,Rue des fr}res BENNADJI,Biskra",34.6856169,6.4934143,"33641516",. DIRECTION DES IMPOTS,Biskra,"7"
"140","SIDI KHALED,Rue Hani Mohamed,Biskra",34.397074,4.9970929,"33679805",. DIRECTION DES IMPOTS,Biskra,"7"
"141","OULED DJELLAL,Ouled Djellal,Biskra",34.4294289,5.0681159,033 66 01 95  - 033 66 32 63  - 033 66 32 64  - 033 66 32 66  - 033 66 32 67  - 033 66 32 68  - 033 66 32 69  - 033 66 32 70,. DIRECTION DES IMPOTS,Biskra,"7"
"142","1,BISKRA,Hai SAADA 2 R11,Biskra",34.8615042,5.7424888,"33655245",. DIRECTION DES IMPOTS,Biskra,"7"
"143","BISKRA,BISKRA,Biskra",34.8449437,5.7248567,033 53 08 39  - 033 53 08 45  - 033 61 96 67  - 033 61 96 68,. DIRECTION DES IMPOTS,Biskra,"7"
"144","BECHAR,Place 1er Novembre 1954,Bechar",31.6238098,-2.2162443,049 22 06 64  - 049 22 07 93  - 049 22 12 60,. IMPOTS,Bechar,"8"
"146","BENI ABBES,Residence Daira,Bechar",30.3997632,-2.2846889,049 28 40 68  - 049 28 44 15,. IMPOTS,Bechar,"8"
"147","BENI ABBES,Boulevard 20 Aout,Bechar",30.1312217,-2.1662258,"49284290",. IMPOTS,Bechar,"8"
"148","BECHAR,Rue Taleb Abdellah,Bechar",31.6238098,-2.2162443,"49221193",. IMPOTS,Bechar,"8"
"149","BECHAR,Rue Gasmi Houcine,Bechar",31.6238098,-2.2162443,"49221194",. IMPOTS,Bechar,"8"
"150","BECHAR,Clos DRT 3eme Reg Militaire,Bechar",31.6238098,-2.2162443,"49221257",. IMPOTS,Bechar,"8"
"151","BECHAR,Boulevard Colonel Chabou,Bechar",31.645279,-2.278066,049 23 06 39  - 049 23 06 55  - 049 23 06 56  - 049 23 06 57  - 049 23 06 58  - 049 23 06 59  - 049 23 06 73,. IMPOTS,Bechar,"8"
"152","BENI ABBES,Residence Sureté Daira,Bechar",30.1312217,-2.1662258,"49284564",. IMPOTS,Bechar,"8"
"153","BENI OUNIF,Rue Rahmani Ahmed,Bechar",31.2829035,-0.6932948,"49252245",. IMPOTS,Bechar,"8"
"154","3,BECHAR,Rue Zaoui Dieb,Bechar",31.6238098,-2.2162443,"49221162",. IMPOTS,Bechar,"8"
"155","KERZAZ,Village Megsem,Bechar",29.4534018,-1.4178261,"49298860",. IMPOTS,Bechar,"8"
"156","KENADSA,Place 1er Mai,Bechar",31.6198309,-2.2157115,"49241617",. IMPOTS,Bechar,"8"
"157","BECHAR,Avenue 1er Novembre Ex Sahara,Bechar",31.6238098,-2.2162443,"49221256",. IMPOTS,Bechar,"8"
"158","ABADLA,Cité 461 Logements,Bechar",31.0023101,-2.7458681,049 25 70 39  - 049 25 70 40  - 049 25 79 07  - 049 25 79 57,. IMPOTS,Bechar,"8"
"159","CHEBLI,Centre Chebli,Blida",36.5184672,3.0492822,"25486952",Recette Chebli IMPOTS Direction de Blida,Blida,"9"
"160","8,OULED YAICH,Cité 1er Mai (1000 Logts),Blida",36.4948974,2.8456414,025 26 27 96  - 025 26 29 32  - 025 26 29 33  - 025 26 29 34,Sous Direction des Moyens Bureau des moyens et de l'informatique DIRECTION DES IMPOTS W.BLIDA,Blida,"9"
"161","42,BENI MERED,Rue 1er Novembre,Blida",36.5260576,2.8642185,"25276189",Sous Direction des Moyens Bureau des moyens et de l'informatique DIRECTION DES IMPOTS W.BLIDA,Blida,"9"
"162","39,BLIDA,Clos Alexandri,Blida",36.4735715,2.8323153,"25208523",Direction IMPOTS,Blida,"9"
"163","BLIDA,Clos Alexandri,Blida",36.4803618,2.8328413,025 20 81 05  - 025 20 81 12  - 025 20 81 16  - 025 20 81 21  - 025 20 81 26  - 025 20 81 71  - 025 20 81 72,Direction IMPOTS,Blida,"9"
"164","1,OULED YAICH,Cité 1er Mai (1000 Logts),Blida",36.4948974,2.8456414,025 26 29 28  - 025 26 29 30  - 025 26 29 31  - 025 26 29 35,Sous Direction des Moyens Bureau des moyens et de l'informatique DIRECTION DES IMPOTS W.BLIDA,Blida,"9"
"165","OULED YAICH,Cité 400 Logements,Blida",36.4905826,2.8539519,"25436025",. IMPOTS Direction,Blida,"9"
"166","BLIDA,Cite Bounaama Djillali,Blida",36.4837822,2.8159605,025 22 04 77  - 025 22 04 79  - 025 22 04 80  - 025 22 04 81  - 025 22 04 82  - 025 22 04 83  - 025 22 04 84  - 025 22 04 85,Direction IMPOTS,Blida,"9"
"167","23,BLIDA,Cite Bounaama Djillali,Blida",36.4828883,2.8166118,"25229792",Direction IMPOTS,Blida,"9"
"168","BLIDA,Boulevard Mahdjoub Boualem,Blida",36.4696895,2.8272756,025 21 32 43  - 025 21 32 46  - 025 21 38 08,Direction IMPOTS,Blida,"9"
"169","EL AFFROUN,Ave 1er Novembre,Blida",36.4701592,2.625741,"25268460",. DIRECTION DES IMPOTS W.BLIDA,Blida,"9"
"170","OUED EL ALLEUG,Place Du 20 Aout,Blida",36.5558964,2.7896308,"25261810",. IMPOTS Direction,Blida,"9"
"171","BLIDA,Rue 11 Decembre,Blida",36.4887391,2.8213773,025 23 37 24  - 025 23 37 39  - 025 23 37 44  - 025 23 37 47  - 025 23 37 50  - 025 23 37 53  - 025 23 37 56  - 025 23 37 58  - 025 23 37 60  - 025 23 37 62  - 025 23 37 66  - 025 23 37 67  - 025 23 37 68  - 025 23 37 71  - 025 23 37 73  - 025 23 37 76  - 025 23 38 94  - 025 23 39 78  - 025 23 55 53,Direction IMPOTS,Blida,"9"
"172","OULED YAICH,Cite 1er Mai,Blida",36.4948974,2.8456414,"25204301",DES IMPOTS CENTRE,Blida,"9"
"173","OULED YAICH,Cité 1er Mai (1000 Logts),Blida",36.495724,2.846564,025 26 27 94  - 025 26 27 95,. IMPOTS Direction,Blida,"9"
"174","OUED EL ALLEUG,Oued El Alleug,Blida",36.5558964,2.7896308,"25261283",. IMPOTS Direction,Blida,"9"
"175","MOUZAIA,Rue Issaad mohamed,Blida",36.4669121,2.6898596,"25373675",. RECETTE DE MOUZAIA RECETTE DES IMPOTS INTERCOMMUNALE,Blida,"9"
"176","LARBAA (BLIDA),Blida",36.5651532,3.1539961,025 33 00 70  - 025 33 00 71  - 025 33 00 73  - 025 33 00 74  - 025 33 00 76  - 025 33 00 78  - 025 33 00 79  - 025 33 00 80,. IMPOTS,Blida,"9"
"177","14,OUED EL ALLEUG,Rue Salhi,Blida",36.5558964,2.7896308,"25438182",. IMPOTS Direction,Blida,"9"
"178","D.IMPOTS,MOUZAIA,Rue Mabsout Rabah,Blida",36.4669121,2.6898596,025 24 34 70  - 025 24 36 54  - 025 24 36 55  - 025 24 36 56  - 025 24 36 57  - 025 24 36 58  - 025 24 36 59  - 025 24 36 60  - 025 24 82 62,ORG DIRECTION DES IMPOTS W.BLIDA,Blida,"9"
"179","AIN BESSEM,Rue Aligui Makhlouf,Bouira",36.3337514,3.687402,"26875147",. IMPOT,Bouira,"10"
"180","DGSN,BOUIRA,Rue du 20 Aout,Bouira",36.3737479,3.8943757,"26727700",. IMPOT,Bouira,"10"
"181","ILOT 19,SOUR EL GHOZLANE,Rue Emir Abdelkader,Bouira",36.1508804,3.7074189,"26756973",. IMPOT,Bouira,"10"
"182","ILO 73,LAKHDARIA,Rue Larbi Ben M'hidi,Bouira",36.5660649,3.5960213,"26712170",. IMPOT,Bouira,"10"
"183","BOUIRA,Lotissement Draa El Bordj,Bouira",36.3697163,3.8862138,026 73 23 77  - 026 73 23 82  - 026 73 24 95,. IMPOT,Bouira,"10"
"184","BT 1,SOUR EL GHOZLANE,Technicum,Bouira",36.1508804,3.7074189,"26756940",. IMPOT,Bouira,"10"
"185","LAKHDARIA,Rue Larbi Ben M'hidi,Bouira",36.3950708,3.8858955,026 71 20 50  - 026 71 20 51  - 026 71 25 75,. IMPOT,Bouira,"10"
"186","BOUIRA,Cité Administrative,Bouira",36.3697131,3.8967178,026 73 21 95  - 026 73 24 87,. IMPOT,Bouira,"10"
"187","BOUIRA,Hotel des Finances,Bouira",36.3734276,3.8998286,026 73 24 45  - 026 73 24 78  - 026 73 24 94,. IMPOT,Bouira,"10"
"188","BT A1,BIR GHBALOU,Hai Faci Mahdi,Bouira",36.2635857,3.5870031,"26888764",. IMPOTS Recette Intercommunale,Bouira,"10"
"189","BOUIRA,Place des Martyrs,Bouira",36.3691846,3.9006194,026 73 24 46  - 026 73 24 93  - 026 74 84 98  - 026 74 88 83  - 026 74 88 84,. IMPOT,Bouira,"10"
"190","M'CHEDALLAH,Chem de Wilaya 98 Selim,Bouira",36.364496,4.2696806,026 79 34 92  - 026 79 34 93  - 026 79 38 89,. IMPOT,Bouira,"10"
"191","FINANCES,BOUIRA,Cité Administrative,Bouira",36.369395,3.8963175,"26732513",. IMPOT,Bouira,"10"
"192","M'CHEDALLAH,M'chedallah,Bouira",36.364496,4.2696806,"26794263",. IMPOT,Bouira,"10"
"193","AIN BESSEM,Hai Ben Ahmed El Hadj,Bouira",36.3337514,3.687402,"26876486",. IMPOT,Bouira,"10"
"194","9,AIN BESSEM,Rue Colonel Si M'hamed,Bouira",36.3337514,3.687402,"26879845",. IMPOT,Bouira,"10"
"195","27,BOUIRA,Rue Colonel Amirouche,Bouira",36.3778762,3.9015704,026 74 82 38  - 026 74 82 39,. IMPOT,Bouira,"10"
"196","09,BOUIRA,Rue El Intifadha,Bouira",36.3691846,3.9006194,"26749642",. IMPOT,Bouira,"10"
"197","BOUIRA,Cité Administrative,Bouira",36.3697131,3.8967178,026 73 24 47  - 026 73 24 50,. IMPOT,Bouira,"10"
"198","56,BOUIRA,Place des Martyrs,Bouira",36.3691846,3.9006194,"26749019",. IMPOT,Bouira,"10"
"199","SOUR EL GHOZLANE,Technicum,Bouira",36.374484,3.8837888,026 75 62 20  - 026 75 62 22  - 026 75 63 91,. IMPOT,Bouira,"10"
"200","9,BOUIRA,Rue Romita Mohamed,Bouira",36.3764664,3.9033995,"26748324",. IMPOT,Bouira,"10"
"201","INSPECTION,AIN BESSEM,Hai Ben Ahmed El Hadj,Bouira",36.3337514,3.687402,026 87 63 09  - 026 87 98 21,. IMPOT,Bouira,"10"
"202","LAKHDARIA,Lakhdaria,Bouira",36.5660649,3.5960213,"26704673",. IMPOT,Bouira,"10"
"203","SOUR EL GHOZLANE,Sour El Ghozlane,Bouira",36.1508804,3.7074189,"26756324",. IMPOT,Bouira,"10"
"205","DGSN,AIN SALAH,Cité FGUIGUIRA 02,Tamanrasset",27.2026311,2.4878487,"29365490",. IMPOTS Direction,Tamanrasset,"11"
"207","TAMANRASSET,Hai TAFSIT,Tamanrasset",23.0676952,6.2354407,"29326549",. IMPOTS Direction,Tamanrasset,"11"
"208","TAMANRASSET,Route IN GUEZZAM,Tamanrasset",19.5632255,5.7717952,029 31 27 12  - 029 32 61 65  - 029 32 61 66  - 029 32 61 67  - 029 32 61 69  - 029 32 61 70  - 029 32 61 71  - 029 32 61 72  - 029 32 61 73  - 029 32 61 75  - 029 32 61 76  - 029 32 61 77  - 029 32 61 78  - 029 32 61 80  - 029 32 65 50  - 029 32 65 52  - 029 32 65 53,. IMPOTS Direction,Tamanrasset,"11"
"209","TAMANRASSET,Route de IN GUEZZAM,Tamanrasset",19.5632255,5.7717952,"29326179",TAMANRASSET RECETTE DES IMPOTS,Tamanrasset,"11"
"210","INGHAR,K'SAR DJEDID,Tamanrasset",27.1030589,1.9041215,029 36 91 91  - 029 36 94 12,. IMPOTS Direction,Tamanrasset,"11"
"212","ILOT 2128,TAMANRASSET,Route IN GUEZZAM,Tamanrasset",19.5632255,5.7717952,"29326885",. IMPOTS Direction,Tamanrasset,"11"
"214","ILOT 85,AIN SALAH,Cité EL BACHIR ALIBRAHIMI,Tamanrasset",27.2026311,2.4878487,029 38 50 66  - 029 38 50 67  - 029 38 50 68,. IMPOTS Direction,Tamanrasset,"11"
"217","ILOT 1099,TAMANRASSET,Cité 175 logements DNC,Tamanrasset",22.7902972,5.5193268,"29301884",. IMPOTS Direction,Tamanrasset,"11"
"218","OUENZA,Ilot 118,Tebessa",35.9518347,8.1325283,"37678677",. IMPOTS DIRECTION TEBESSA,Tebessa,"12"
"220","BIR EL ATER,Ilot 680,Tebessa",34.749839,8.0577526,037 64 86 83  - 037 64 86 84  - 037 64 86 85  - 037 64 86 87  - 037 64 86 91,. IMPOTS DIRECTION TEBESSA,Tebessa,"12"
"222","BIR EL ATER,Cité Houari Boumedienne,Tebessa",35.4221893,8.0723927,"37645975",. IMPOTS DIRECTION TEBESSA,Tebessa,"12"
"223","BOULHAF DYR,Cite Boulhef Dyr,Tebessa",35.5569444,8.1294444,"37520366",. IMPOTS DIRECTION TEBESSA,Tebessa,"12"
"224","TEBESSA,Boulevard Emir Abdelkader,Tebessa",35.4073705,8.1133914,037 48 04 64  - 037 51 66 97  - 037 56 25 05  - 037 56 52 11  - 037 56 52 42  - 037 56 54 37  - 037 58 12 32,. IMPOTS DIRECTION TEBESSA,Tebessa,"12"
"225","CHERIA,Cite Thlidjane,Tebessa",35.2709501,7.7512926,037 62 20 53  - 037 62 20 74  - 037 62 26 93,. IMPOTS DIRECTION TEBESSA,Tebessa,"12"
"227","EL AOUINET,Cite 300 Logts,Tebessa",35.8680504,7.8861697,"37654198",. IMPOTS DIRECTION TEBESSA,Tebessa,"12"
"228","EL AOUINET,El Aouinet,Tebessa",35.8680504,7.8861697,"37652184",. IMPOTS DIRECTION TEBESSA,Tebessa,"12"
"231","TEBESSA,Hotel des Finances,Tebessa",35.425515,8.068632,037 51 60 76  - 037 51 66 88  - 037 56 54 32  - 037 56 54 41,. IMPOTS DIRECTION TEBESSA,Tebessa,"12"
"233","CHETOUANE,Hai Ancien Ain Defla,Tlemcen",34.9092277,-1.2916124,"43405844",. IMPOTS Direction,Tlemcen,"13"
"234","TLEMCEN,Rue Lieutenent Hadri Mansour,Tlemcen",34.8851181,-1.3149723,"43278787",. IMPOTS Direction,Tlemcen,"13"
"235","BAB EL ASSA,Rue 05,Tlemcen",34.9651957,-2.0312446,"43511363",. IMPOTS Direction,Tlemcen,"13"
"236","BAB EL ASSA,Rue APC,Tlemcen",34.9617325,-2.0337149,"43511297",. IMPOTS Direction,Tlemcen,"13"
"237","BAB EL ASSA,Rue De la Daira,Tlemcen",34.9651957,-2.0312446,"43511364",. IMPOTS Direction,Tlemcen,"13"
"238","CHETOUANE,Route De Chetouane,Tlemcen",34.9239124,-1.299604,"43404389",. IMPOTS Direction,Tlemcen,"13"
"239","HENNAYA,Rue Bellifa Abderrahmane,Tlemcen",34.9523096,-1.3723652,043 40 04 36  - 043 40 05 04,. IMPOTS Direction,Tlemcen,"13"
"240","TLEMCEN,Boulevard Ain Sebaa Ali,Tlemcen",34.8827754,-1.3264624,043 21 19 63  - 043 26 73 05  - 043 26 73 56  - 043 26 74 13  - 043 26 74 59  - 043 26 75 37  - 043 26 75 40  - 043 26 75 57  - 043 26 75 62  - 043 26 75 81  - 043 26 75 85  - 043 26 77 24  - 043 26 77 30  - 043 26 77 82  - 043 26 89 89  - 043 27 37 04  - 043 27 37 91  - 043 38 97 75  - 043 40 42 12  - 043 41 23 64  - 043 41 44 93  - 043 41 44 98  - 043 46 99 36  - 043 46 99 37  - 043 49 02 02  - 043 49 02 56  - 043 49 05 28  - 043 49 12 44  - 043 49 12 55  - 043 51 12 65  - 043 53 11 40  - 043 54 60 23  - 043 54 64 65,. IMPOTS Direction,Tlemcen,"13"
"241","NEDROMA,Boulevard De l'Independance,Tlemcen",34.8824938,-1.3044441,043 45 63 27  - 043 45 63 49,. IMPOTS Direction,Tlemcen,"13"
"242","REMCHI,Cité 335 Logements,Tlemcen",35.064069,-1.42638,043 43 01 84  - 043 43 02 13  - 043 43 02 24  - 043 43 02 29  - 043 43 02 84  - 043 43 03 04  - 043 43 03 07,. IMPOTS Direction,Tlemcen,"13"
"243","TLEMCEN,Rue Kacemi Abdelkrim,Tlemcen",34.8786559,-1.3083704,"43264463",. IMPOTS Direction,Tlemcen,"13"
"244","DAIRA,OULED MIMOUN,Route De Tlemcen,Tlemcen",34.9044116,-1.0342358,043 36 15 29  - 043 36 19 44,. IMPOTS Direction,Tlemcen,"13"
"245","MANSOURAH,Cité Administrative,Tlemcen",34.876702,-1.3567991,043 38 22 99  - 043 38 23 93  - 043 38 23 97  - 043 38 23 99  - 043 38 24 11  - 043 38 24 12  - 043 38 24 14  - 043 38 24 24  - 043 38 25 19,. IMPOTS Direction,Tlemcen,"13"
"246","TLEMCEN,Tlemcen",34.8828864,-1.3166815,043 26 23 58  - 043 26 23 80  - 043 26 23 94  - 043 26 24 10  - 043 26 24 43  - 043 26 24 92  - 043 26 25 05  - 043 26 27 07,. IMPOTS Direction,Tlemcen,"13"
"247","TIARET,Cité Cia La Wilaya,Tiaret",35.3603243,1.3370155,046 20 31 69  - 046 20 31 71  - 046 20 31 72  - 046 20 31 75  - 046 20 31 76  - 046 20 31 78,. IMPOTS Direction,Tiaret,"14"
"248","TIARET,Cité CIA La Colline Lotissemen,Tiaret",35.3708689,1.3217852,"46203170",. IMPOTS Direction,Tiaret,"14"
"249","TIARET,Cité Freres Guittoune,Tiaret",35.3603243,1.3370155,046 20 31 73  - 046 20 52 94,. IMPOTS Direction,Tiaret,"14"
"250","MAHDIA,Rue Abdelkrim,Tiaret",35.3603243,1.3370155,046 46 32 93  - 046 46 36 77,. IMPOTS Direction,Tiaret,"14"
"251","DAHMOUNI,Cité Dahmouni,Tiaret",35.416323,1.4265613,046 24 14 41  - 046 24 15 81,. IMPOTS Direction,Tiaret,"14"
"252","SOUGUEUR,Boulevard Si Abdelghani,Tiaret",35.1828846,1.4861369,"46431118",. IMPOTS Direction,Tiaret,"14"
"253","SOUGUEUR,Cité Derouiche AEK,Tiaret",35.1857422,1.4935025,046 28 90 59  - 046 28 90 62  - 046 28 96 09  - 046 28 96 38  - 046 28 96 42  - 046 28 96 94,. IMPOTS Direction,Tiaret,"14"
"254","TIARET,Place Des Martyrs,Tiaret",35.3603243,1.3370155,046 20 31 74  - 046 20 31 77,. IMPOTS Direction,Tiaret,"14"
"255","SOUGUEUR,Cité 50 Logts,Tiaret",35.1857422,1.4935025,046 28 92 98  - 046 28 93 13,. IMPOTS Direction,Tiaret,"14"
"256","KSAR CHELLALA,Hai El Moustakbal,Tiaret",35.3603243,1.3370155,"46363179",. IMPOTS Direction,Tiaret,"14"
"257","RAHOUIA,Rue Bensakhria,Tiaret",35.5370982,1.0264196,046 35 61 38  - 046 35 61 42,. IMPOTS Direction,Tiaret,"14"
"258","FRENDA,Cité Rabah Ben Messaoud,Tiaret",35.0638421,1.0572065,046 30 22 11  - 046 30 22 33  - 046 30 22 44  - 046 30 22 55,. IMPOTS Direction,Tiaret,"14"
"259","TIARET,Cité Sonatiba 2,Tiaret",35.3603243,1.3370155,046 22 55 41  - 046 22 55 42  - 046 22 55 49  - 046 22 55 50  - 046 22 55 52  - 046 22 55 54  - 046 22 55 82  - 046 22 60 74,. IMPOTS Direction,Tiaret,"14"
"260","DAHMOUNI,Rue Ibn Khaldoun,Tiaret",35.3603243,1.3370155,"46241444",. IMPOTS Direction,Tiaret,"14"
"261","TIARET,Boulevard 1er Novembre,Tiaret",35.3603243,1.3370155,046 20 31 79  - 213 471243418,. IMPOTS Direction,Tiaret,"14"
"262","TIARET,Route d'Alger,Tiaret",35.3603243,1.3370155,046 20 84 27  - 046 20 84 28  - 046 20 84 29  - 046 20 84 33  - 046 20 85 17  - 046 20 85 98,. IMPOTS Direction,Tiaret,"14"
"263","KSAR CHELLALA,Hai El Amel,Tiaret",35.2181066,2.3153581,"46363180",. IMPOTS Direction,Tiaret,"14"
"264","DAHMOUNI,Rue Ben Badis,Tiaret",35.3602237,1.3369821,"46241429",. IMPOTS Direction,Tiaret,"14"
"265","OUADHIAS,Ouadhia,Tizi Ouzou",36.5559997,4.0882933,026 32 46 19  - 026 32 53 30,. DIRECTION DES IMPOTS,Tizi Ouzou,"15"
"266","TIZI OUZOU,Cité Mohamed Boudiaf Tizi-ouzo,Tizi Ouzou",36.713548,4.0473075,026 18 23 29  - 026 20 21 55,. DIRECTION DES IMPOTS,Tizi Ouzou,"15"
"267","AIN EL HAMMAM,Cite des Fonctionnaires,Tizi Ouzou",36.5698193,4.3120324,"26488641",. DIRECTION DES IMPOTS,Tizi Ouzou,"15"
"268","AIN EL HAMMAM,Rue Colonel Amirouche,Tizi Ouzou",36.5723525,4.3085895,"26488643",. DIRECTION DES IMPOTS,Tizi Ouzou,"15"
"269","AIN EL HAMMAM,Cité 146 Logements,Tizi Ouzou",36.5698193,4.3120324,"26261132",. DIRECTION DES IMPOTS,Tizi Ouzou,"15"
"270","TIZI OUZOU,Gare Routiere,Tizi Ouzou",36.7096007,4.0342634,026 12 31 20  - 026 12 31 57,. DIRECTION DES IMPOTS,Tizi Ouzou,"15"
"271","TIZI OUZOU,Cité 60 Logements Tours Villas,Tizi Ouzou",36.7156028,4.0408071,"26123153",. DIRECTION DES IMPOTS,Tizi Ouzou,"15"
"272","TIZI OUZOU,Gare Routière,Tizi Ouzou",36.7096007,4.0342634,"26123152",. DIRECTION DES IMPOTS,Tizi Ouzou,"15"
"273","TIZI OUZOU,Avenue Abane Ramdane,Tizi Ouzou",36.7114351,4.0526247,026 12 31 47  - 026 12 31 64,. DIRECTION DES IMPOTS,Tizi Ouzou,"15"
"274","TIGZIRT,Centre Ville,Tizi Ouzou",36.8919195,4.129222,026 15 82 65  - 026 15 82 68,. DIRECTION DES IMPOTS,Tizi Ouzou,"15"
"276","OUAGUENOUN,Centre Tikobaine,Tizi Ouzou",36.7701747,4.1750149,"26440611",. DIRECTION DES IMPOTS,Tizi Ouzou,"15"
"277","TIZI OUZOU,Cite 60 Logts Tours Villa,Tizi Ouzou",36.715907,4.0442389,026 12 31 24  - 026 12 31 38  - 026 12 31 39  - 026 12 31 41  - 026 12 31 42  - 026 12 31 46  - 026 12 31 54  - 026 12 31 55  - 026 12 31 60  - 026 12 31 70  - 026 19 61 99,. DIRECTION DES IMPOTS,Tizi Ouzou,"15"
"278","OUADHIAS,Rue Bettouche,Tizi Ouzou",36.5559997,4.0882933,"26324245",. DIRECTION DES IMPOTS,Tizi Ouzou,"15"
"279","OUADHIAS,Route Nationale N°30,Tizi Ouzou",36.5559997,4.0882933,"26324118",. DIRECTION DES IMPOTS,Tizi Ouzou,"15"
"280","TIZI RACHED,Vlage Tizi Rached,Tizi Ouzou",36.678519,4.2080342,026 31 97 09  - 026 31 97 12,. DIRECTION DES IMPOTS,Tizi Ouzou,"15"
"281","TIZI OUZOU,Boulevard Krim Belkacem,Tizi Ouzou",36.702535,4.0598459,026 11 71 54  - 026 12 31 22  - 026 12 31 56,. DIRECTION DES IMPOTS,Tizi Ouzou,"15"
"282","DRAA EL MIZAN,Rue Abane Ramdane,Tizi Ouzou",36.7293241,3.6624823,"26135613",. DIRECTION DES IMPOTS,Tizi Ouzou,"15"
"283","DRAA BEN KHEDDA,Draa Ben Khadda,Tizi Ouzou",36.7292574,3.9669368,026 43 42 56  - 026 43 42 63,. DIRECTION DES IMPOTS,Tizi Ouzou,"15"
"284","OUACIFS,Rue D'en Haut,Tizi Ouzou",36.5202249,4.2039684,026 33 11 40  - 026 33 16 11  - 026 33 18 62  - 026 33 19 96,. DIRECTION DES IMPOTS,Tizi Ouzou,"15"
"285","BOGHNI,Boghni,Tizi Ouzou",36.5329303,3.9611136,"26283277",. DIRECTION DES IMPOTS,Tizi Ouzou,"15"
"286","MEKLA,Mekla,Tizi Ouzou",36.6871278,4.2669219,"26372129",. DIRECTION DES IMPOTS,Tizi Ouzou,"15"
"287","MAATKAS,Centre Ville,Tizi Ouzou",36.6047939,3.9843693,"26138446",. DIRECTION DES IMPOTS,Tizi Ouzou,"15"
"289","BENI DOUALA,Place de la Mairie,Tizi Ouzou",36.6208712,4.0817582,"26406306",. DIRECTION DES IMPOTS,Tizi Ouzou,"15"
"290","AZAZGA,Rue du 20 Aout,Tizi Ouzou",36.7452064,4.3706572,"26141461",. DIRECTION DES IMPOTS,Tizi Ouzou,"15"
"291","AZEFFOUN,Azeffoun,Tizi Ouzou",36.8889179,4.4221618,"26450525",. DIRECTION DES IMPOTS,Tizi Ouzou,"15"
"293","ILOT 1,AGHRIBS,Village Agouni Oucharki,Tizi Ouzou",36.8094545,4.3180155,"26452161",. DIRECTION DES IMPOTS,Tizi Ouzou,"15"
"294","ILOT 87,BOUZEGUENE,Cité 56 Logements,Tizi Ouzou",36.617695,4.4767763,026 14 64 55  - 026 14 64 56,. DIRECTION DES IMPOTS,Tizi Ouzou,"15"
"296","LARBAA NATH IRATHEN,Route Ledjnane,Tizi Ouzou",36.6393158,4.2043029,"26493121",. DIRECTION DES IMPOTS,Tizi Ouzou,"15"
"297","DRAA EL MIZAN,Cité Emir Abdelkader,Tizi Ouzou",36.53572,3.8364355,026 13 41 88  - 026 13 41 89,. DIRECTION DES IMPOTS,Tizi Ouzou,"15"
"298","TIZI OUZOU,Cite Mouloud Feraoun,Tizi Ouzou",36.717083,4.0525043,026 11 00 04  - 026 11 02 50  - 026 11 58 67  - 026 12 31 51,. DIRECTION DES IMPOTS,Tizi Ouzou,"15"
"299","EL MAGHARIA,Cite El Moustakbal,Alger",36.7356787,3.1108465,"21779260",. IMPOTS,Alger,"16"
"300","HUSSEIN DEY,Rue Tripoli,Alger",36.7406754,3.1041798,"21777016",Direction d'El Harrach IMPOTS,Alger,"16"
"301","KHRAISSIA,Khraissia,Alger",36.6679107,2.9982768,"23313255",. INSPECTION DES IMPOTS KHRAICIA,Alger,"16"
"302","EL HARRACH,Rue Sidi Okba,Alger",36.7273223,3.1358672,023 74 97 29  - 023 74 97 29,. IMPOTS Direction Générale,Alger,"16"
"303","AIN BENIAN,Cite 42 Logts,Alger",36.800402,2.9181427,"23225881",. Direction Des Impots D'alger Ouest,Alger,"16"
"304","HUSSEIN DEY,Rue Boudjemaa Moghni,Alger",36.7388579,3.1005586,023 77 84 91  - 023 77 84 91,. RECETTE DES IMPOTS D'EL-MAGHARIA,Alger,"16"
"305","HAMMAMET,Bd Hamid Kebladj,Alger",36.8137559,2.9733997,"23062450",. IMPOTS Direction Géneral Hammamet,Alger,"16"
"306","EL MOURADIA,Rue Aissa Laalem,Alger",36.7423081,3.0537512,021 69 05 37  - 021 69 75 33,. IMPOTS RECETTE,Alger,"16"
"307","LES EUCALYPTUS,Cite Ouled El Hadj,Alger",36.6598831,3.1602025,021 50 15 46  - 023 89 31 97,INSPECTION IMPOTS,Alger,"16"
"308","HYDRA,Rue Timgad (Ali Ouazane),Alger",36.7442702,3.0439102,"21607342",Recette HYDRA DIRECTION DES IMPOTS ALGER CENTRE,Alger,"16"
"309","EL HARRACH,Rue Freres Zeghnoun,Alger",36.7281297,3.1387624,"21530948",. IMPOTS Direction Générale,Alger,"16"
"310","DJASR KACENTINA,Ain Naadja,Alger",36.7044726,3.0826673,"23566695",. IMPOTS INSPECTION Org,Alger,"16"
"311","EL BIAR,Rue Des Ecoles,Alger",36.7715119,3.031841,"21923341",. DIRECTION DES IMPOTS D'ALGER OUEST,Alger,"16"
"312","EL ACHOUR,Alger",36.7381334,2.9868256,"23300277",Inspection IMPOTS,Alger,"16"
"313","DRARIA,Rue Kheniche,Alger",36.7125756,2.9978235,"23349086",. IMPOTS,Alger,"16"
"314","DOUERA,Rue Medas,Alger",36.6816061,2.9616215,"21417252",Inspection IMPOTS,Alger,"16"
"315","DOUERA,Rue Abziou,Alger",36.6703738,2.9414334,"23328521",Inspection IMPOTS,Alger,"16"
"316","DAR EL BEIDA,Rte Du Genie,Alger",36.7212376,3.2091787,021 50 78 71  - 021 50 89 25  - 023 80 12 65  - 023 80 12 65,. IMPOTS,Alger,"16"
"317","DAR EL BEIDA,Cite Freres Benrabah,Alger",36.7085589,3.2087271,023 81 04 96  - 023 81 04 96,. RECETTE DES IMPOTS DE DAR EL BEIDA,Alger,"16"
"318","KOUBA,Place Aichaoui Mohamed,Alger",36.728118,3.082133,023 77 79 37  - 023 77 79 37,Recette Kouba Ben Omar IMPOTS,Alger,"16"
"319","EL HARRACH,Alger",36.7209669,3.1376625,"21833777",. IMPOTS Direction Générale,Alger,"16"
"321","KOUBA,Place De La Mairie,Alger",36.7337403,3.0862838,023 78 62 06  - 023 78 62 06,Recette Kouba Garidi IMPOTS,Alger,"16"
"322","DJASR KACENTINA,Cite 1074 Logts,Alger",36.6972546,3.0747191,"21221818",. IMPOTS INSPECTION Org,Alger,"16"
"323","IMPOTS,BIR MOURAD RAIS,Cite Said Hamdine,Alger",36.7621838,3.047713,"23536635",. DIRECTION DES IMPOTS D'ALGER CENTRE,Alger,"16"
"324","BABA HASSEN,Rue Des Freres Kaci,Alger",36.6955179,2.9748092,"23353739",Inspection IMPOTS,Alger,"16"
"325","AIN TAYA,Rue Colonel Amirouche,Alger",36.7941454,3.2903027,"23954691",. IMPOTS,Alger,"16"
"326","SIDI M'HAMED,Rue Colonel Mohamed Chabani,Alger",36.7644669,3.051774,021 64 72 26  - 021 73 40 82,Sous Direction des Impots Directes DIRECTION DES IMPOTS,Alger,"16"
"327","SIDI M'HAMED,Place Du Perou,Alger",36.7697009,3.0570504,021 71 01 51  - 021 71 38 46  - 021 71 38 66  - 021 71 38 72  - 021 71 38 73  - 021 71 91 60  - 021 71 98 11  - 021 74 53 71,. DIRECTION DES IMPOTS D'ALGER OUEST,Alger,"16"
"328","ROUIBA,Lot Communal,Alger",36.7358928,3.2779879,"23862805",. La Direction des Impots d'Alger Est.,Alger,"16"
"329","ROUIBA,Lot Du Lycee,Alger",36.7348388,3.2659727,023 86 28 01  - 023 86 28 02  - 023 86 28 03  - 023 86 28 04  - 023 86 28 06  - 023 86 29 30  - 023 86 30 75,. La Direction des Impots d 'Alger Est,Alger,"16"
"330","ROUIBA,Rte de Ain Taya,Alger",36.7634342,3.2875382,023 71 61 07  - 023 71 61 08  - 023 71 61 09  - 023 71 61 10  - 023 71 61 12  - 023 71 61 13  - 023 71 61 14  - 023 71 61 24  - 023 71 61 53  - 023 71 61 53,La Direction des Impots d'Alger Est,Alger,"16"
"331","SAOULA,Rue du Stade,Alger",36.7047315,3.0214202,"21356575",Inspection IMPOTS,Alger,"16"
"332","ZERALDA,Centre des Affaires,Alger",36.7100015,2.8449903,"21326004",. IMPOTS INSPECTION,Alger,"16"
"333","CHERAGA,Rue Mohamed Boudiaf,Alger",36.7620342,2.9612284,"23363492",. DIRECTION DES IMPOTS D'ALGER OUEST,Alger,"16"
"334","SIDI M'HAMED,Rue Rabah Maidat,Alger",36.753768,3.0587561,"21647227",Sous Direction des Impots Directes DIRECTION DES IMPOTS,Alger,"16"
"335","OULED FAYET,Rue Kouchi Ahmed,Alger",36.7364441,2.9505409,023 28 03 02  - 023 28 03 04,. DIRECTION ET INSPECTION DES IMPOTS,Alger,"16"
"336","STAOUALI,Rue Hadjri Ahmed,Alger",36.7711625,3.0297249,"21393347",. DIRECTION DES IMPOTS,Alger,"16"
"337","HUSSEIN DEY,Cité Amirouche,Alger",36.7388254,3.0948826,023 77 25 08  - 023 77 25 08,. RECETTE DES IMPOTS DE FERNANE HANAFI,Alger,"16"
"338","BOUZAREAH,Place Ryabi,Alger",36.775758,3.003886,"23181874",D'ALGER OUEST DIRECTION DES IMPOTS,Alger,"16"
"339","MOHAMMADIA,Pins Maritimes,Alger",36.7373,3.15437,"21219661",. IMPOTS RECETTE,Alger,"16"
"340","OUED SMAR,Rue Habat Mohamed,Alger",36.7100479,3.1614046,"23926713",. IMPOTS Direction Générale,Alger,"16"
"341","OUED KORICHE,Avenue Askri Ahcene,Alger",36.787327,3.0491561,"23172249",. DIRECTION DES IMPÔTS D'ALGER OUEST,Alger,"16"
"342","MOHAMMADIA,Cite 632 Logts,Alger",36.7303904,3.1472242,023 82 51 53  - 023 82 51 53,. IMPOTS RECETTE,Alger,"16"
"343","MOHAMED BELOUIZDAD,Rue Mohamed Belouizdad,Alger",36.7487881,3.0686633,021 67 01 00  - 021 67 01 15,. IMPOTS,Alger,"16"
"344","LES EUCALYPTUS,Cite Cherarba,Alger",36.6562422,3.1754557,"23890287",. IMPOTS Direction Générale,Alger,"16"
"345","CHERAGA,Rue Arbadji Salah,Alger",36.7669485,2.9557608,"21367737",. Direction Des Impots D'alger Ouest,Alger,"16"
"346","DELY IBRAHIM,Cité Ain Allah,Alger",36.7526005,2.990057,023 24 12 47  - 023 24 12 48  - 023 24 12 49  - 023 24 12 50  - 023 24 14 11  - 023 24 14 28  - 023 24 14 29  - 023 24 14 30,. DIRECTION DES IMPOTS D'ALGER OUEST,Alger,"16"
"347","CHERAGA,Rte Nale,Alger",36.7579123,2.9532202,"23363509",. Direction Des Impots D'alger Ouest,Alger,"16"
"348","ALGER CENTRE,Bd Mohamed V,Alger",36.7674952,3.0503852,021 78 12 53  - 021 78 13 57,. IMPOTS,Alger,"16"
"349","AIN TAYA,Rue Emir Abdelkader,Alger",36.792946,3.2882452,"23954201",. IMPOTS,Alger,"16"
"350","SIDI MOUSSA,Place Centre Ville,Alger",36.6165787,3.1032114,"23909534",. IMPOTS Direction Générale,Alger,"16"
"351","AIN BENIAN,Rue Aissat Idir,Alger",36.8010809,2.9123732,023 10 35 12  - 023 10 35 13,. Direction Des Impots D'alger Ouest,Alger,"16"
"352","ALGER CENTRE,Rue Mustapha Bouhired,Alger",36.7709858,3.0576861,023 49 26 55  - 023 49 26 57  - 023 49 26 60  - 023 49 26 63,Inspection IMPOTS,Alger,"16"
"353","91,BIRTOUTA,Rue Ali Bouhadja,Alger",36.6475086,3.0055118,023 58 42 06  - 023 58 42 10,. Inspection et Recettes des impots de Birtouta,Alger,"16"
"354","8,EL HARRACH,Rue Sidi Okba,Alger",36.7209669,3.1376625,023 74 97 31  - 023 74 97 31,. IMPOTS Direction Générale,Alger,"16"
"355","CASBAH,Boulevard Ernesto Che-Guevara,Alger",36.7830153,3.0624954,021 43 71 00  - 021 43 71 06  - 021 43 71 37,. DIRECTION DES IMPOTS D'ALGER OUEST,Alger,"16"
"356","68,HUSSEIN DEY,Rue Tripoli,Alger",36.7437278,3.0958078,023 77 50 36  - 023 77 50 38  - 023 77 50 39  - 023 77 50 40  - 023 77 50 36  - 023 77 50 38  - 023 77 50 39  - 023 77 50 40,Inspection IMPOTS,Alger,"16"
"357","63,ALGER CENTRE,Rue Didouche Mourad,Alger",36.767093,3.051068,"21716265",Sous Direction des Impots et Perception DIRECTION DES IMPOTS,Alger,"16"
"358","4,DELY IBRAHIM,Cité Ain Allah,Alger",36.755029,2.992138,023 24 10 55  - 023 24 12 43  - 023 24 13 81  - 023 24 16 60  - 023 31 21 99,. Direction Des Impots D'alger Ouest,Alger,"16"
"359","37,RAIS HAMIDOU,Ave Hamid Kebladj,Alger",36.8174562,3.0114423,021 70 80 81  - 021 70 88 83,. DIRECTION DES IMPÔTS D'ALGER OUEST,Alger,"16"
"360","3,ZERALDA,Cite Bellal,Alger",36.7137456,2.8449957,"21395313",. IMPOTS DIRECTION,Alger,"16"
"361","2,EL BIAR,Rue Des Freres Khaloum,Alger",36.7694847,3.0309897,021 92 18 90  - 023 37 75 60,. DIRECTION DES IMPOTS D'ALGER OUEST,Alger,"16"
"362","2,EL BIAR,Ave Taleb Messaoud,Alger",36.7702891,3.0269479,"21924689",. DIRECTION DES IMPOTS D'ALGER OUEST,Alger,"16"
"363","2,DAR EL BEIDA,Rte Du Genie,Alger",36.7156377,3.1987946,023 80 12 61  - 023 80 12 61,. Direction des Impots d'Ager Est,Alger,"16"
"364","19,ALGER CENTRE,Rue De La Liberté,Alger",36.7789879,3.0600447,"21717117",Direction d'Alger Centre IMPOTS,Alger,"16"
"365","ALGER CENTRE,Boulevard Colonel Amirouche,Alger",36.7710322,3.0586084,021 73 34 31  - 021 73 34 80  - 021 73 35 27  - 021 73 38 77  - 021 73 40 34  - 021 73 45 03,Direction Générale des Impots MINISTERE DE L'ECONOMIE,Alger,"16"
"366","16,EL HARRACH,Rue 5 Juillet,Alger",36.7466241,3.1825569,"21831990",. IMPOTS Direction Générale,Alger,"16"
"367","12,ALGER CENTRE,Rue Asselah Hocine,Alger",36.7767055,3.0594319,"21738140",. DIRECTION DES IMPOTS DE SIDI MHAMED,Alger,"16"
"368","ALGER CENTRE,Place De Pirou,Alger",36.7712246,3.0612244,021 71 52 58  - 021 71 52 60  - 021 71 69 13  - 021 73 13 09  - 021 73 13 28  - 021 73 13 31  - 021 73 13 34  - 021 73 13 59  - 021 73 13 63  - 021 73 13 66  - 021 73 13 75  - 021 73 13 96  - 021 73 13 97  - 021 73 53 23  - 021 73 53 27  - 021 74 82 26  - 021 74 82 41,. DIRECTION DES IMPOTS D'ALGER OUEST,Alger,"16"
"369","ALGER CENTRE,Boulevard Frantz Fanon,Alger",36.7758018,3.0544784,"21724087",Direction d'Alger Centre IMPOTS,Alger,"16"
"370","236,MOHAMMADIA,Lot Les Mandarines,Alger",36.7295732,3.1571563,023 75 06 77  - 023 75 06 77,AMIRA FOOD IMPOT EXPOT SARL,Alger,"16"
"371","ROUIBA,Ave 1er Novembre,Alger",36.7869313,3.063122,023 86 27 99  - 023 86 28 00,. La Direction des Impots d'Alger Est..,Alger,"16"
"372","12,ALGER CENTRE,Rue Mulhouse,Alger",36.7834349,3.0620357,"21782971",Direction d'Alger Centre IMPOTS,Alger,"16"
"373","12,CASBAH,Rue Bab Azzoun,Alger",36.7813883,3.061114,021 43 77 30  - 021 43 81 30,Sous Direction des Impots Directes DIRECTION DES IMPOTS,Alger,"16"
"374","14,ALGER CENTRE,Rue Abane Ramdane,Alger",36.7788907,3.0593267,021 71 68 50  - 021 71 71 25  - 021 73 71 55,Direction d'Alger Centre IMPOTS,Alger,"16"
"375","14,CASBAH,Avenue Du 1er Novembre,Alger",36.7869313,3.063122,021 43 08 59  - 021 43 71 34,. DIRECTION DES IMPOTS D'ALGER OUEST,Alger,"16"
"376","5,HUSSEIN DEY,Cité Mer et Soleil,Alger",36.7336049,3.1009984,023 77 71 42  - 023 77 71 42,. RECETTE DES IMPOTS DE CAROUBIER,Alger,"16"
"377","17,ALGER CENTRE,Rue Hamani Arezki,Alger",36.7706623,3.056956,023 49 20 04  - 023 49 20 29  - 023 49 20 42  - 023 49 20 74  - 023 49 20 75  - 023 49 20 76  - 023 49 20 77  - 023 49 20 78  - 023 49 20 80  - 023 49 20 81  - 023 49 20 84  - 023 49 20 85  - 023 49 22 20  - 023 49 27 42,. Direction Générale des Impots,Alger,"16"
"378","ALGER CENTRE,Immeuble Mauritania,Alger",36.7697009,3.0570504,"21549591",. DIRECTION DES IMPOTS ALGER CENTRE,Alger,"16"
"379","CHERAGA,Rue Ait Boudjemaa,Alger",36.7688702,2.9586613,"21361023",. Direction Des Impots D'alger Ouest,Alger,"16"
"380","BOUZAREAH,Ave Ali Remli,Alger",36.7807995,3.0108434,023 27 02 98  - 023 27 02 99  - 023 27 03 00,. DIRECTION DES IMPOTS D'ALGER OUEST,Alger,"16"
"381","ALGER CENTRE,Rue Franklin Roosvelt,Alger",36.760968,3.0461504,021 74 02 71  - 021 74 79 06  - 021 74 79 13  - 021 74 79 42,Sous Direction des Impots Directes DIRECTION DES IMPOTS,Alger,"16"
"382","BOUROUBA,Cité Oumakhlouf Mahmoud,Alger",36.717114,3.113103,023 76 50 70  - 023 76 51 11  - 023 76 50 70  - 023 76 51 11,. IMPOTS Direction Générale,Alger,"16"
"383","BORDJ EL KIFFAN,Ave 1er Novembre,Alger",36.7869313,3.063122,023 80 12 66  - 023 80 12 66,. Direction Des Impots D'Alger Est,Alger,"16"
"384","BORDJ EL KIFFAN,Alger",36.7611607,3.2322593,"23877826",. Direction des Impots D'Alger Est,Alger,"16"
"385","BIRKHADEM,Rue Arab Si Ahmed,Alger",36.7149133,3.0530847,021 40 44 31  - 021 55 58 64,. RECETTE DES IMPOTS,Alger,"16"
"386","BIR MOURAD RAIS,Cite Sidi Yahia,Alger",36.7387329,3.0337886,021 54 93 82  - 021 54 93 83,. DIRECTION DES IMPOTS ALGER CENTRE,Alger,"16"
"387","BENI MESSOUS,Avenue Brahim Hadjres,Alger",36.7812352,2.986396,"23136112",D'ALGER OUEST DIRECTION DES IMPOTS,Alger,"16"
"388","BEN AKNOUN,Rte National N°36,Alger",36.7597697,3.0138343,023 25 59 37  - 023 37 52 10,. Direction des impots AlgerOouest,Alger,"16"
"389","BARAKI,Cite Touileb,Alger",36.6656042,3.1054573,"23910783",. IMPOTS Direction Générale,Alger,"16"
"390","CASBAH,Avenue Du 1er Novembre,Alger",36.7869313,3.063122,021 43 04 31  - 021 43 04 58  - 021 43 06 36  - 021 43 08 37  - 021 43 08 43  - 021 43 70 06  - 021 43 70 11  - 021 43 70 15  - 021 43 71 11  - 021 43 71 27  - 021 43 71 44,Direction d'Alger Centre IMPOTS,Alger,"16"
"391","ALGER CENTRE,Rue Hamani Arezki,Alger",36.7706623,3.056956,"23492183",Direction d'Alger Centre IMPOTS,Alger,"16"
"392","BARAKI,Cite Merdja 1,Alger",36.6685704,3.1025581,021 53 16 26  - 021 53 16 33,. IMPOTS RECETTE CHERRARBA,Alger,"16"
"393","BAB EL OUED,Ave Gharafa Brahim,Alger",36.7914891,3.0541008,"23178090",. DIRECTION DES IMPÔTS D'ALGER OUEST,Alger,"16"
"394","9,CHERAGA,Rue De La Palestine,Alger",36.7668544,2.9602011,"23264869",. Direction Des Impots D'alger Ouest,Alger,"16"
"395","BACHDJARAH,Cité Badjarah 1,Alger",36.7227572,3.1182661,"21262890",. IMPOTS Recette,Alger,"16"
"396","BOUZAREAH,Rte De Beni Messous,Alger",36.7794364,2.9773961,"23377558",. DIRECTION DES IMPOTS D'ALGER OUEST,Alger,"16"
"397","ALGER CENTRE,Rue Docteur Saadane Cherif,Alger",36.7736041,3.0568673,"21719870",. Direction Générale des Impots,Alger,"16"
"398","BAB EZZOUAR,Cite El Djorf,Alger",36.7176103,3.1751454,"21247663",. DIRECTION DES IMPOTS ALGER EST,Alger,"16"
"399","OUED SMAR,Alger",36.7071277,3.1650558,021 52 41 64  - 021 52 46 27  - 023 91 93 35,. IMPOTS Direction Générale,Alger,"16"
"400","BAB EL OUED,Cite Diar El Kef,Alger",36.7437419,3.0738992,"21963269",. IMPOTS INSPECTION,Alger,"16"
"401","ALGER CENTRE,Rue Frères Merouane,Alger",36.7712246,3.0612244,023 49 26 09  - 023 49 26 14,Direction d'Alger Centre IMPOTS,Alger,"16"
"402","BAB EL OUED,Ave Colonel Lotfi,Alger",36.790592,3.0510435,"21976169",. DIRECTION DES IMPÔTS D'ALGER OUEST,Alger,"16"
"403","APC,DJASR KACENTINA,Gué de Constantine,Alger",36.703822,3.0813063,"21284454",RECETTE DE GUE DE CONSTANTINE Direction des impots alger centre,Alger,"16"
"404","BAB EZZOUAR,Cite 2068 Logts,Alger",36.7189157,3.1825447,023 93 88 91  - 023 94 47 73  - 023 94 47 74  - 023 94 47 75  - 023 94 47 76  - 023 94 47 77  - 023 94 47 78  - 023 94 47 80,. CENTRE DES IMPOTS D'EL HARRACH,Alger,"16"
"405","DJELFA,Cité 05 Juillet,Djelfa",34.659875,3.2721941,027 93 66 35  - 027 93 66 38,. IMPOTS,Djelfa,"17"
"407","AIN OUSSERA,Cité Ali Ammar,Djelfa",35.4571077,2.9045497,"27801736",. IMPOTS,Djelfa,"17"
"408","AIN OUSSERA,Hai Mohamed Saifi,Djelfa",35.4487155,2.9073552,027 80 70 40  - 027 80 70 42  - 027 80 70 43  - 027 80 70 44,. IMPOTS,Djelfa,"17"
"410","BLOC 201,EL IDRISSIA,Cité Belhout,Djelfa",34.4531021,2.5307193,027 88 90 61  - 027 88 94 06  - 027 88 94 41,. IMPOTS,Djelfa,"17"
"411","DJELFA,Cité Chaabane Mohammed,Djelfa",34.661434,3.2650158,"27936627",. IMPOTS,Djelfa,"17"
"414","HASSI BAHBAH,Djelfa",35.0762544,3.0267229,027 96 40 50  - 027 96 40 58,. IMPOTS,Djelfa,"17"
"415","HOTEL TRESOR,DJELFA,Cité Guenani,Djelfa",34.665569,3.255687,"27937731",. IMPOTS,Djelfa,"17"
"417","MESSAAD,Route Boussaada,Djelfa",35.2163516,4.181463,"27989388",. IMPOTS,Djelfa,"17"
"418","EL IDRISSIA,El Idrissia Centre,Djelfa",34.4531021,2.5307193,"27889041",. IMPOTS,Djelfa,"17"
"421","EL ANCER,El Ancer,Jijel",36.8000519,6.1567041,"34532121",. IMPOTS Direction,Jijel,"18"
"423","EL ANCER,Place Des Martyrs,Jijel",36.7531205,6.2676726,"34532216",. IMPOTS Direction,Jijel,"18"
"424","EL MILIA,Rue De La PALESTINE,Jijel",36.7531205,6.2676726,"34526624",. IMPOTS Direction,Jijel,"18"
"426","JIJEL,Cite 450 Logts HLM,Jijel",36.8210144,5.7634126,"34497760",. IMPOTS Direction,Jijel,"18"
"427","4,JIJEL,Route 3 Eme KM Rte Constantine,Jijel",36.8210144,5.7634126,"34596218",. IMPOTS Direction,Jijel,"18"
"431","EL MILIA,Cité Casorec,Jijel",36.7504856,6.2764752,034 52 11 14  - 034 52 67 64,. IMPOTS Direction,Jijel,"18"
"432","JIJEL,Rue Mohamed Boubzari,Jijel",36.8234129,5.7649037,034 47 12 87  - 034 47 79 40,. IMPOTS Direction,Jijel,"18"
"433","EL MILIA,Boulevard de L'ALN,Jijel",36.7507274,6.2853999,034 52 66 23  - 034 52 66 25,. IMPOTS Direction,Jijel,"18"
"435","KAOUS,Village kaous,Jijel",36.771323,5.8113221,"34554393",. IMPOTS Direction,Jijel,"18"
"437","CHEKFA,Rue Dekhli Mokhtar,Jijel",36.7786069,5.899073,"34563223",. IMPOTS Direction,Jijel,"18"
"438","TAHER,Cite 160 Logts,Jijel",36.7700786,5.8978148,034 54 02 44  - 034 54 03 99,. IMPOTS Direction,Jijel,"18"
"439","TEXENNA,Village Texenna,Jijel",36.659857,5.7887042,034 55 11 70  - 034 55 11 92,. IMPOTS Direction,Jijel,"18"
"441","TAHER,Rue Gare Routiere,Jijel",36.7770842,5.8964863,"34553978",. IMPOTS Direction,Jijel,"18"
"442","TAHER,Cité Boucherka,Jijel",36.7843567,5.9009836,"34546206",. IMPOTS Direction,Jijel,"18"
"443","CHEKFA,Cite Centre Ville,Jijel",36.7705677,5.9621633,"34563188",. IMPOTS Direction,Jijel,"18"
"444","AIN AZEL,Cite 188 Lots,Setif",35.8201747,5.5105515,"36554252",. IMPOTS DIRECTION Org,Setif,"19"
"445","AIN ARNAT,Rue 8 Mai 45 o,Setif",36.1755107,5.330304,036 54 13 95  - 036 54 15 30,. IMPOTS DIRECTION Org,Setif,"19"
"446","EL EULMA,Rue Said Bourefref,Setif",36.145471,5.6773396,036 47 61 61  - 036 47 64 39  - 036 47 64 40  - 036 47 64 41  - 036 47 64 42  - 036 47 64 43,Inspection IMPOTS Org,Setif,"19"
"447","DAIRA,AIN OULMENE,Rue De La Republique (El Djemh,Setif",36.1897593,5.4107984,036 56 41 98  - 036 56 44 54  - 036 56 44 64,. IMPOTS DIRECTION Org,Setif,"19"
"448","BOUANDAS,Centre Ville (Bouandas),Setif",36.5109283,5.1119407,036 49 00 23  - 036 49 00 24  - 036 49 00 45,. IMPOTS DIRECTION Org,Setif,"19"
"449","BOUGAA,Rue Des Martyrs,Setif",36.3319114,5.0881783,036 40 05 27  - 036 40 36 41,. IMPOTS DIRECTION Org,Setif,"19"
"450","BENI OURTILANE,Beni Ourtilane,Setif",36.441325,4.8505566,036 49 35 30  - 036 49 35 37,. IMPOTS DIRECTION Org,Setif,"19"
"451","BENI AZIZ,Rue Riache Mahmoud,Setif",36.4659114,5.6478967,"36768027",. IMPOTS DIRECTION Org,Setif,"19"
"452","AIN AZEL,Rue De la Republique,Setif",35.8201747,5.5105515,"36680100",. IMPOTS DIRECTION Org,Setif,"19"
"454","SETIF,Rue Tergou Foudil,Setif",36.1927482,5.4110374,036 82 68 95  - 036 82 68 96,. IMPOTS DIRECTION Org,Setif,"19"
"455","SETIF,Cite 140 Logts,Setif",36.1897593,5.4107984,"36825363",. IMPOTS DIRECTION Org,Setif,"19"
"456","35,AIN EL KEBIRA,Rue Hadjadji Cherif,Setif",36.3695684,5.5075105,036 59 44 65  - 036 59 45 48  - 036 59 47 18,. IMPOTS DIRECTION Org,Setif,"19"
"457","SETIF,Cite El Hidhab,Setif",36.2092047,5.4319238,036 45 30 07  - 036 63 52 39  - 036 63 52 42  - 036 63 52 43  - 036 63 52 60  - 036 63 52 61  - 036 63 52 62  - 036 63 52 63  - 036 63 52 64  - 036 63 52 65,. IMPOTS DIRECTION Org,Setif,"19"
"458","SETIF,Lotissement Ain El Mousse,Setif",36.1893743,5.4049596,036 54 71 16  - 036 54 78 36  - 036 54 78 37  - 036 54 78 38  - 036 54 78 39  - 036 54 78 77,. IMPOTS DIRECTION Org,Setif,"19"
"459","SETIF,Rue Mokrani El Hadj,Setif",36.1922119,5.4267626,036 63 52 40  - 036 82 60 20  - 036 82 68 87  - 036 82 68 94  - 036 82 69 01  - 036 82 69 02,. IMPOTS DIRECTION Org,Setif,"19"
"460","SETIF,Rue Ben Touhami,Setif",36.1931401,5.4313948,036 82 68 88  - 036 82 68 97  - 036 82 73 64,. IMPOTS DIRECTION Org,Setif,"19"
"461","SETIF,Rue Cherraga Laid,Setif",36.1879831,5.4127364,"36827470",. IMPOTS DIRECTION Org,Setif,"19"
"462","SAIDA,Cité El Badr,Saida",34.8415207,0.1456055,048 42 91 12  - 048 42 91 30,. IMPOTS DE SAIDA,Saida,"20"
"463","SAIDA,Rue Freres Benacef,Saida",36.7411053,3.2825615,"48405196",. IMPOTS DE SAIDA,Saida,"20"
"464","SAIDA,Rue Allel Medeghri,Saida",34.8541331,0.1526663,048 43 02 38  - 048 51 17 93,. IMPOTS DE SAIDA,Saida,"20"
"465","SAIDA,Cité Administrative,Saida",34.8523916,0.1528438,"48410463",. IMPOTS DE SAIDA,Saida,"20"
"466","SAIDA,Cité Nasr,Saida",34.8523916,0.1528438,048 37 72 06  - 048 37 72 09  - 048 37 72 10  - 048 37 72 11  - 048 37 72 12  - 048 37 72 13  - 048 37 72 14,. IMPOTS DE SAIDA,Saida,"20"
"468","1,SAIDA,Rue Allel Medeghri,Saida",34.8415207,0.1456055,"48373127",. IMPOTS DE SAIDA,Saida,"20"
"469","SAIDA,Lotissement En Nasr,Saida",34.8415207,0.1456055,048 37 31 04  - 048 37 31 05,. IMPOTS DE SAIDA,Saida,"20"
"470","SAIDA,Surete De Wilaya,Saida",34.8415207,0.1456055,"48419251",. IMPOTS DE SAIDA,Saida,"20"
"471","EL HASASNA,El Hasasna,Saida",34.8258283,0.320849,048 31 11 91  - 048 31 11 92,. IMPOTS DE SAIDA,Saida,"20"
"472","SKIKDA,Cite Merdj Eddib(Freres Bouhad,Skikda",36.8633237,6.9271912,038 72 45 49  - 038 72 45 51  - 038 72 45 52  - 038 72 45 53  - 038 72 45 54  - 038 72 45 56  - 038 72 45 58,. CENTRE DES IMPOTS,Skikda,"21"
"473","HAMADI KROUMA,Village H Krouma Ex Dam Remon,Skikda",36.8463287,6.9289642,"38935691",. IMPOTS,Skikda,"21"
"474","SKIKDA,Place Des Zouaves,Skikda",36.8662658,6.9062556,"38753611",. IMPOTS,Skikda,"21"
"475","COLLO,Rue Rouibah Tahar,Skikda",36.9981614,6.5557168,"38905752",. DIRECTION DES IMPOTS,Skikda,"21"
"476","RAMDANE DJAMEL,Rue Bachir Boukadoum,Skikda",36.8717207,6.908597,038 94 11 29  - 038 94 12 02,. IMPOTS,Skikda,"21"
"477","CENTRE,TAMALOUS,Cite Djemella,Skikda",36.8384561,6.6427365,038 94 95 00  - 038 94 95 01  - 038 94 95 02  - 038 94 95 03  - 038 94 95 04,. DIRECTION DES IMPOTS,Skikda,"21"
"478","SKIKDA,Place 24 Fevrier Ex Zouaves,Skikda",36.8662658,6.9062556,"38755540",. IMPOTS,Skikda,"21"
"479","EL HARROUCH,Skikda",36.6545563,6.8329628,"38957538",. IMPOTS,Skikda,"21"
"480","COLLO,Cite Boussebhane,Skikda",36.9981614,6.5557168,038 90 57 11  - 038 90 57 13  - 038 90 57 14  - 038 90 57 16,. DIRECTION DES IMPOTS,Skikda,"21"
"481","EL HARROUCH,Cite 130 Logts A Cote De La Mo,Skikda",36.6545563,6.8329628,"38790084",. IMPOTS,Skikda,"21"
"482","6,SKIKDA,Rue Mahmoud Bouzabra,Skikda",36.8796509,6.9147479,"38756795",. IMPOTS,Skikda,"21"
"483","16,SKIKDA,Avenue Zighoud Youcef Ex Resid,Skikda",36.8841896,6.903949,"38761161",. IMPOTS,Skikda,"21"
"484","AZZABA,Rue De La Gare,Skikda",36.7411032,7.1116629,038 96 91 41  - 038 96 97 94  - 038 96 98 07  - 038 96 98 08  - 038 96 98 15  - 038 96 98 16,. IMPOTS,Skikda,"21"
"485","SKIKDA,Cite Freres Saadi EX 1000 Logt,Skikda",36.8707344,6.9159129,038 75 20 43  - 038 75 49 77  - 038 75 61 47  - 038 75 65 35  - 038 76 36 81  - 038 76 39 78  - 038 76 56 53  - 038 76 59 80  - 038 95 15 71  - 038 95 15 72  - 038 95 15 73  - 038 95 15 74  - 038 95 15 75,. IMPOTS,Skikda,"21"
"486","SKIKDA,Cite Aissa Boukarma Ex Sicel,Skikda",36.8591495,6.9039013,"38747339",. CENTRE DE PROXIMITE DES IMPOTS,Skikda,"21"
"487","3,AZZABA,Cite Police,Skikda",36.7411032,7.1116629,"38950240",. IMPOTS,Skikda,"21"
"488","SKIKDA,Allee Du 20 Aout,Skikda",36.8713246,6.9124453,038 76 36 60  - 038 76 36 76  - 038 76 36 77  - 038 76 36 82,. IMPOTS,Skikda,"21"
"489","SKIKDA,Rue Mahmoud Bouzabra,Skikda",36.8796509,6.9147479,"38752964",. IMPOTS,Skikda,"21"
"490","15,AZZABA,Rue De La Gare,Skikda",36.7411032,7.1116629,"38969380",. IMPOTS,Skikda,"21"
"491","SKIKDA,Avenue Houari Boumediene,Skikda",36.8611789,6.9188158,038 74 70 17  - 038 74 70 18  - 038 74 70 19  - 038 74 70 21  - 038 74 70 22  - 038 74 70 23,. CENTRE DE PROXIMITE DES IMPOTS,Skikda,"21"
"492","BEN BADIS,Cité Aissat Idir,Sidi Bel Abbes",35.1995643,-0.5984749,"48739964",. TLP DIRECTION DES IMPOTS,Sidi Bel Abbes,"22"
"493","BEN BADIS,Boulevard Colonel Lotfi,Sidi Bel Abbes",35.2171238,-0.6143178,048 73 61 76  - 048 73 61 79,. TLP DIRECTION DES IMPOTS,Sidi Bel Abbes,"22"
"494","SIDI BEL ABBES,Rue Cheikh Larbi Tebessi,Sidi Bel Abbes",35.1882619,-0.6336665,048 74 11 23  - 048 74 20 44  - 048 74 22 20  - 048 74 22 32  - 048 74 22 35  - 048 74 22 55  - 048 74 28 07  - 048 74 28 30,. TLP DIRECTION DES IMPOTS,Sidi Bel Abbes,"22"
"495","TELAGH,Cité 5 Juillet,Sidi Bel Abbes",34.7826774,-0.5737307,048 78 13 71  - 048 78 14 78  - 048 78 15 14  - 048 78 17 70,. TLP DIRECTION DES IMPOTS,Sidi Bel Abbes,"22"
"496","TELAGH,Boulevard Mohamed Khemisti,Sidi Bel Abbes",35.1911213,-0.635501,"48787279",. TLP DIRECTION DES IMPOTS,Sidi Bel Abbes,"22"
"497","SIDI BEL ABBES,Rue Benfriha Abdelkader,Sidi Bel Abbes",35.1911213,-0.635501,048 74 10 12  - 213 471220486  - 213 471258736,. TLP DIRECTION DES IMPOTS,Sidi Bel Abbes,"22"
"498","RAS EL MA,Auto Construction,Sidi Bel Abbes",34.4962491,-0.8153463,048 78 53 38  - 048 78 89 22,. TLP DIRECTION DES IMPOTS,Sidi Bel Abbes,"22"
"499","SIDI BEL ABBES,Boulevard 8 Mai 1945,Sidi Bel Abbes",35.2171238,-0.6143178,"48741938",. TLP DIRECTION DES IMPOTS,Sidi Bel Abbes,"22"
"500","SIDI BEL ABBES,Boulevard Didouche Mourad,Sidi Bel Abbes",35.1932904,-0.6310058,048 74 15 35  - 048 74 16 07  - 048 74 27 23,. TLP DIRECTION DES IMPOTS,Sidi Bel Abbes,"22"
"501","RAS EL MA,Rue Gasmi Lakhdar,Sidi Bel Abbes",34.4991716,-0.8119444,048 78 87 89  - 048 78 89 81,. TLP DIRECTION DES IMPOTS,Sidi Bel Abbes,"22"
"502","BEN BADIS,Rue Moualid Benkhalifa,Sidi Bel Abbes",35.1995643,-0.5984749,"48736319",. TLP DIRECTION DES IMPOTS,Sidi Bel Abbes,"22"
"503","RAS EL MA,Sidi Bel Abbes",34.4964676,-0.8423933,048 78 86 29  - 213 471331169,RAS EL MA IMPOTS RECETTE DES CONTRIBUTIONS DIVERSES,Sidi Bel Abbes,"22"
"504","SFISEF,Bd Larbi Ben M'hidi,Sidi Bel Abbes",35.2351049,-0.242702,048 79 85 13  - 048 79 88 72  - 048 79 88 73,. TLP DIRECTION DES IMPOTS,Sidi Bel Abbes,"22"
"505","SFISEF,Cite 506 Logts,Sidi Bel Abbes",35.2351049,-0.242702,"48794634",. TLP DIRECTION DES IMPOTS,Sidi Bel Abbes,"22"
"506","IMPOTS,SIDI BEL ABBES,Cité 300 Logements Sociaux,Sidi Bel Abbes",35.2105876,-0.629983,048 76 60 88  - 048 76 61 02  - 048 76 61 16  - 048 76 61 18,. DIRECTION DES IMPOTS,Sidi Bel Abbes,"22"
"507","H FINANCE,SIDI BEL ABBES,Boulevard Didouche Mourad,Sidi Bel Abbes",35.1902626,-0.6326731,"48742972",. TLP DIRECTION DES IMPOTS,Sidi Bel Abbes,"22"
"508","SIDI BEL ABBES,Avenue Lt Houabria Abdelkader,Sidi Bel Abbes",35.2171238,-0.6143178,048 74 58 35  - 048 74 58 37,. TLP DIRECTION DES IMPOTS,Sidi Bel Abbes,"22"
"509","CENTRE C,SIDI BEL ABBES,Route Tlemcen,Sidi Bel Abbes",35.2171238,-0.6143178,"48745687",. TLP DIRECTION DES IMPOTS,Sidi Bel Abbes,"22"
"510","AIN BERDA,Ain El Berda,Annaba",36.6460139,7.5886388,"38490416",. RECETTE DES IMPOTS,Annaba,"23"
"511","EL HADJAR,Rue Didouche Mourad,Annaba",36.9012291,7.7431358,"38892076",. RECETTE DES IMPOTS,Annaba,"23"
"512","TRESOR,EL HADJAR,Rue Zighout Youcef,Annaba",36.9142081,7.7426673,"38893422",. RECETTE DES IMPOTS,Annaba,"23"
"513","EL BOUNI,Universite El Bouni,Annaba",36.8535764,7.7431524,038 56 33 33  - 038 56 33 44  - 038 56 34 04  - 038 56 34 05  - 038 56 34 06  - 038 56 34 07  - 038 56 34 08  - 038 56 34 10,. IMPOTS EL BOUNI,Annaba,"23"
"514","EL BOUNI,El Bouni,Annaba",36.8548216,7.741302,038 56 94 84  - 038 56 95 71,. IMPOTS Sous Direction,Annaba,"23"
"515","EL HADJAR,El Hadjar,Annaba",36.8074707,7.7389134,038 59 19 50  - 038 89 21 03  - 038 89 35 34,. RECETTE DES IMPOTS,Annaba,"23"
"516","EL BOUNI,Cite 850 Logts,Annaba",36.8548216,7.741302,"38569505",. RECETTE DES IMPOTS,Annaba,"23"
"517","ANNABA,Cité 24 Logts Wilaya,Annaba",36.9142081,7.7426673,"38491392",. IMPOTS Sous Direction,Annaba,"23"
"518","ANNABA,Bd Seddik Ben Yahia,Annaba",36.9186215,7.7531248,038 45 63 33  - 038 45 63 34,. IMPOTS Sous Direction,Annaba,"23"
"519","ANNABA,Bd 1er Novembre 1954,Annaba",36.9082213,7.7608703,038 43 12 73  - 038 44 57 11  - 038 44 76 84  - 038 44 82 65  - 038 44 91 04  - 038 45 11 03  - 038 45 11 07  - 038 45 11 09  - 038 45 11 10  - 038 45 11 13  - 038 45 11 14  - 038 45 11 15  - 038 45 11 17  - 038 45 11 23  - 038 45 11 25  - 038 45 11 27  - 038 45 11 28  - 038 45 11 52  - 038 86 38 94  - 038 86 94 11,. IMPOTS Direction,Annaba,"23"
"520","EL BOUNI,Boulevard 1 er Novembre,Annaba",36.9082213,7.7608703,"38569506",. RECETTE DES IMPOTS,Annaba,"23"
"521","BERRAHAL,Bd 1er Novembre 54,Annaba",36.8346382,7.4559518,038 45 70 44  - 038 87 83 92,. IMPOTS Recette,Annaba,"23"
"522","GUELMA,Rue Seridi Med Taher,Guelma",36.4590732,7.4344916,037 26 72 97  - 037 26 73 98  - 037 26 74 71  - 037 26 74 73  - 037 26 74 81  - 037 26 76 02  - 037 26 76 59,. IMPOTS Direction,Guelma,"24"
"523","20,HELIOPOLIS,Rue 17 Octobre,Guelma",36.5083803,7.4361944,037 13 53 86  - 037 13 53 95  - 037 13 54 29  - 037 13 54 76,GUELMA CENTRE DES IMPOTS,Guelma,"24"
"524","GUELMA,Cite Amel,Guelma",36.4619755,7.423051,037 26 00 27  - 037 26 06 43  - 037 26 06 44  - 037 26 06 65,. IMPOTS Direction,Guelma,"24"
"525","GUELMA,Cite 672 Logts(Ch. Manoeuvre),Guelma",36.4627444,7.4330833,037 26 71 44  - 037 26 72 08  - 037 26 72 19  - 037 26 72 40  - 037 26 72 44  - 037 26 72 53  - 037 26 72 57  - 037 26 72 59  - 037 26 72 60  - 037 26 72 93,GUELMA CENTRE DES IMPOTS,Guelma,"24"
"526","GUELMA,Cite 80 Bureaux,Guelma",36.4549533,7.4409199,037 11 16 16  - 037 11 16 72  - 037 11 16 74  - 037 11 16 76  - 037 11 16 79  - 037 11 16 80  - 037 11 16 85  - 037 26 00 28  - 037 26 74 75  - 037 26 74 78  - 037 26 74 80,GUELMA CENTRE DES IMPOTS,Guelma,"24"
"527","GUELMA,Cite Guehdour Tahar,Guelma",36.4515674,7.4188961,"37260500",GUELMA CENTRE DES IMPOTS,Guelma,"24"
"528","GUELMA,Route de Sedrata,Guelma",36.4554843,7.4414875,"37161471",GUELMA CENTRE DES IMPOTS,Guelma,"24"
"529","GUELMA,Cite Bara Lakhdar,Guelma",36.4557211,7.4392706,037 11 17 33  - 037 16 11 84  - 037 16 14 67,. IMPOTS Direction,Guelma,"24"
"530","HAMMAM DEBAGH,Hammam Debbagh,Guelma",36.460787,7.2659236,"37148185",HAMMAM DEBAGH RECETTE INTERCOMMUNALE DES IMPOTS,Guelma,"24"
"531","HELIOPOLIS,Rue 17 Octobre,Guelma",36.5083803,7.4361944,037 13 44 90  - 037 13 45 41  - 037 13 49 52  - 037 13 51 91,GUELMA CENTRE DES IMPOTS,Guelma,"24"
"532","OUED ZENATI,Rue 20 Aout 1955,Guelma",36.3100347,7.1657362,037 18 62 28  - 037 18 81 52  - 037 18 81 53  - 037 18 81 54  - 037 18 81 55,OUED ZENATI IMPOTS Recette,Guelma,"24"
"533","GUELMA,Cite 672 Logts(Ch. Manoeuvre),Guelma",36.4627444,7.4330833,"37267107",. IMPOTS Direction,Guelma,"24"
"534","GUELMA,Cite 80 Bureaux,Guelma",36.4549533,7.4409199,"37161208",GUELMA CENTRE DES IMPOTS,Guelma,"24"
"535","BOUCHEGOUF,Rue 24 Fev (seghane Zidane),Guelma",36.4717047,7.7276038,037 12 52 50  - 037 12 52 51  - 037 12 52 53  - 037 12 52 54  - 037 12 53 32  - 037 12 53 81  - 037 12 53 82  - 037 12 53 98,. IMPOTS Direction,Guelma,"24"
"536","GUELMA,Hotel des Finances,Guelma",36.4624479,7.432249,"37111732",. IMPOTS Direction,Guelma,"24"
"537","HELIOPOLIS,Rue Ben Brouk Hocine,Guelma",36.5083803,7.4361944,"37134974",. IMPOTS Direction,Guelma,"24"
"538","DIDOUCHE MOURAD,Rue Didouche Mourad,Constantine",36.7659162,3.0512509,031 90 23 95  - 031 90 23 96  - 031 90 23 97,Ispection Divisionnaires IMPOTS,Constantine,"25"
"539","POLYCLINIQUE,CONSTANTINE,Polyclinique,Constantine",36.3572319,6.5982821,031 62 31 22  - 031 62 77 78,Ispection Divisionnaires IMPOTS,Constantine,"25"
"540","IMPOTS,CONSTANTINE,Siege APC DAKSI,Constantine",36.3656254,6.609126,"31639685",. IMPOTS Direction,Constantine,"25"
"541","IMPOT ADE,CONSTANTINE,Cite Des Muriers,Constantine",36.3496292,6.6320592,"31687746",. IMPOTS Direction,Constantine,"25"
"542","DGSN,CONSTANTINE,Cite Des Muriers 8 eme Arrondi,Constantine",36.3496292,6.6320592,"31687731",Ispection Divisionnaires IMPOTS,Constantine,"25"
"543","EL KHROUB,Cite 1600 Logts,Constantine",36.2576827,6.701911,031 76 83 10  - 031 76 83 16,Direction IMPOTS,Constantine,"25"
"544","DIDOUCHE MOURAD,Rue Larbi Ben M'hidi,Constantine",36.3668765,6.6146453,"31902394",Ispection Divisionnaires IMPOTS,Constantine,"25"
"545","CONSTANTINE,Zone Indus Rhumel,Constantine",36.3416729,6.6105222,031 60 68 72  - 031 60 68 73  - 031 60 68 74  - 031 60 68 76  - 031 60 68 77  - 031 60 68 78  - 031 60 68 79  - 031 60 68 80  - 031 60 68 81  - 031 60 68 82,. CENTRE DES IMPOTS,Constantine,"25"
"546","CONSTANTINE,Cite Sidi Mabrouk,Constantine",36.3553434,6.6367298,"31613822",. IMPOTS Direction,Constantine,"25"
"547","10,CONSTANTINE,Boulevard Zighoud Youcef,Constantine",36.3722339,6.6124233,"31874294",Ispection Divisionnaires IMPOTS,Constantine,"25"
"549","APC,CONSTANTINE,APC Cite Des Muriers,Constantine",36.3748092,6.6275669,"31687749",. IMPOTS Direction,Constantine,"25"
"550","DIDOUCHE MOURAD,Cite Oued Lahdjar,Constantine",36.4451611,6.6447705,031 90 10 40  - 031 90 82 12,Ispection Divisionnaires IMPOTS,Constantine,"25"
"551","EL KHROUB,Cite Chihani Bachir,Constantine",36.2554305,6.6957298,"31768317",Direction IMPOTS,Constantine,"25"
"552","CONSTANTINE,Boulevard Zighoud Youcef,Constantine",36.3722339,6.6124233,031 87 28 33  - 031 87 32 35,Ispection Divisionnaires IMPOTS,Constantine,"25"
"553","DIRECTION,CONSTANTINE,Boulevard De La Liberté,Constantine",36.3607894,6.6063664,031 91 23 93  - 031 92 40 23  - 031 92 66 83  - 031 92 75 93  - 031 92 76 81  - 031 92 78 09,Ispection Divisionnaires IMPOTS,Constantine,"25"
"554","CONSTANTINE,Cite Mentouri Ex Bosquet,Constantine",36.3593882,6.6389031,"31611871",. IMPOTS Direction,Constantine,"25"
"555","CONSTANTINE,Cite 600 Logements,Constantine",36.3133974,6.6291852,"31703269",Ispection Divisionnaires IMPOTS,Constantine,"25"
"556","BT 13,AIN ABID,46 Logts,Constantine",36.2337159,6.9431806,"31812664",Direction IMPOTS,Constantine,"25"
"557","CONSTANTINE,Boulevard De L'indpendance,Constantine",36.362245,6.6055661,"31911559",Ispection Divisionnaires IMPOTS,Constantine,"25"
"558","CONSTANTINE,Cite Emir Abdelkader,Constantine",36.3800655,6.6237322,"31846675",Ispection Divisionnaires IMPOTS,Constantine,"25"
"559","7,EL KHROUB,Cite 1600 Logts ORVE,Constantine",36.2576827,6.701911,"31761687",Ispection Divisionnaires IMPOTS,Constantine,"25"
"560","CONSTANTINE,Bd de la Liberte,Constantine",36.3621355,6.6074745,"31912276",Ispection Divisionnaires IMPOTS,Constantine,"25"
"561","TABLAT,Centre Ville,Medea",36.4131818,3.3110706,025 72 55 48  - 025 72 55 71,. IMPOTS Direction,Medea,"26"
"562","TABLAT,Rue Mohamed Boukhalfa,Medea",36.4125063,3.3106774,"25711237",. IMPOTS Direction,Medea,"26"
"563","MEDEA,Bd du 05 Juillet,Medea",36.2637078,2.7587857,025 78 10 75  - 025 78 17 08  - 025 78 21 25  - 025 78 26 12  - 025 78 26 48  - 025 78 26 49  - 025 78 26 51  - 025 78 27 61  - 025 78 36 52  - 025 78 37 61  - 025 78 39 61  - 025 78 39 95,. IMPOTS Direction,Medea,"26"
"564","KSAR EL BOUKHARI,Rue CPT Benayad,Medea",35.8763773,2.7488447,"25750338",. IMPOTS Direction,Medea,"26"
"565","KSAR EL BOUKHARI,Cité 140 Logts LSP nouveau pôl,Medea",35.8763773,2.7488447,025 70 46 70  - 025 70 47 15  - 025 70 47 67  - 025 70 49 77,. IMPOTS Direction,Medea,"26"
"566","ILOT 38 D 14,EL OMARIA,Rue Bouregaa Rabah,Medea",36.2685724,3.0262719,"25763470",. IMPOTS Direction,Medea,"26"
"567","ILOT 1978,AIN BOUCIF,Centre Ville,Medea",35.8896757,3.1549616,"25702281",. IMPOTS Direction,Medea,"26"
"568","EL AZIZIA,El Azizia,Medea",36.2851874,3.4958167,"25710253",. IMPOTS Direction,Medea,"26"
"569","OUZERA,Centre Ville,Medea",36.2535149,2.8450098,025 79 71 75  - 025 79 72 59  - 025 79 77 34  - 025 79 77 45,. IMPOTS Direction,Medea,"26"
"570","CHELLALET EL ADHAOURA,Centre Commercial,Medea",35.939255,3.416082,"25752121",. IMPOTS Direction,Medea,"26"
"571","EL AZIZIA,Centre Ville,Medea",36.2851874,3.4958167,"25710132",. IMPOTS RECETTE DES CONTRIBUTIONS DIVERSES,Medea,"26"
"572","AIN BOUCIF,Centre Ville,Medea",35.8896757,3.1549616,"25702284",. IMPOTS Direction,Medea,"26"
"573","AIN BOUCIF,Rue Cherfi Halima,Medea",35.8896757,3.1549616,025 70 20 46  - 025 70 21 07,. IMPOTS Direction,Medea,"26"
"574","BENI SLIMANE,Beni Slimane,Medea",36.2272319,3.3071806,025 71 42 31  - 025 71 52 02,. IMPOTS Direction,Medea,"26"
"575","BERROUAGHIA,Cite Chorfa,Medea",36.1469804,2.9029292,"25777058",. IMPOTS Direction,Medea,"26"
"576","BERROUAGHIA,Rue de la Gare,Medea",36.1397978,2.9189942,"25778021",. IMPOTS Direction,Medea,"26"
"577","BT 1,BERROUAGHIA,Cité LSP 116 Logements,Medea",36.1397978,2.9189942,025 72 11 08  - 025 72 11 09  - 025 72 11 10  - 025 72 11 12  - 025 72 11 13,. IMPOTS Direction,Medea,"26"
"578","TABLAT,Rue de la Palestine,Medea",36.4131818,3.3110706,025 71 11 45  - 025 71 12 10  - 025 71 12 50,. IMPOTS Direction,Medea,"26"
"579","SOUAGUI,Centre Ville,Medea",36.1257527,3.2661273,"25750104",. IMPOTS Recette des Contributions Diverses,Medea,"26"
"580","MESRA,Mesra Centre,Mostaganem",35.8379912,0.1674749,045 48 20 31  - 045 48 23 14  - 045 48 36 71,. IMPOTS Direction,Mostaganem,"27"
"581","KHEIR EDDINE,Route Ain Tedles,Mostaganem",35.9813982,0.1681744,"45428222",. IMPOTS Direction,Mostaganem,"27"
"582","BOUGUIRAT,Bouguirat,Mostaganem",35.7473216,0.2690322,"45484416",. IMPOTS Direction,Mostaganem,"27"
"583","BOUGUIRAT,Avenue Mohamed Khemisti,Mostaganem",35.9257653,0.085659,045 48 42 47  - 045 48 42 48  - 045 48 44 15,. IMPOTS Direction,Mostaganem,"27"
"584","MOSTAGANEM,Cite 300 Logements,Mostaganem",35.9492093,0.0968743,045 41 93 12  - 045 41 93 13  - 045 41 93 14  - 045 41 93 15  - 045 41 93 16  - 045 41 93 17  - 045 41 93 18  - 045 41 93 19  - 045 41 93 21,. IMPOTS Direction,Mostaganem,"27"
"585","HASSI MAMECHE,Boulevard Commandant Zaghloul,Mostaganem",35.9148345,0.0884027,045 38 02 36  - 045 38 05 07  - 045 38 95 15,. IMPOTS Direction,Mostaganem,"27"
"586","AIN TEDELES,Cité 52 Logements LSP ADEN,Mostaganem",35.9949008,0.2996927,045 43 61 41  - 045 43 61 42  - 045 43 61 43  - 045 43 61 44  - 045 43 61 45  - 045 43 61 46  - 045 43 62 70  - 045 43 62 71  - 045 43 62 73,. IMPOTS Direction,Mostaganem,"27"
"587","MOSTAGANEM,Avenue Khettab Abdelkader,Mostaganem",35.9313254,0.0993866,"45202570",. IMPOTS Direction,Mostaganem,"27"
"588","AIN NOUISSY,Ain Nouisy Centre,Mostaganem",35.8040506,0.0454885,"45374075",. IMPOTS Direction,Mostaganem,"27"
"589","SIDI ALI,Cité Cheikh Djillali,Mostaganem",36.1008532,0.4220044,045 45 10 62  - 045 45 10 63  - 045 45 10 65  - 045 45 10 70  - 045 45 10 71  - 045 45 10 72  - 045 45 10 73  - 045 45 10 74  - 045 45 10 75,. IMPOTS Direction,Mostaganem,"27"
"590","MOSTAGANEM,Route d'Oran,Mostaganem",35.9177459,0.0751591,045 30 76 39  - 045 30 77 54  - 045 30 77 56  - 045 30 77 57  - 045 30 77 61  - 045 30 77 64  - 045 30 77 65  - 045 30 77 66  - 045 30 77 67,. IMPOTS Direction,Mostaganem,"27"
"591","MESRA,Mesra Centre,Mostaganem",35.8379912,0.1674749,045 48 20 58  - 045 48 20 92  - 045 48 21 45  - 045 48 21 66  - 045 48 23 21  - 045 48 23 39  - 045 48 23 80  - 045 48 24 39,. IMPOTS Direction,Mostaganem,"27"
"592","AIN NOUISSY,Ain Nouicy,Mostaganem",35.8040506,0.0454885,045 37 42 71  - 045 37 42 72  - 045 37 44 96,. IMPOTS Direction,Mostaganem,"27"
"593","MESRA,Avenue Boudraf Mohamed,Mostaganem",35.8379912,0.1674749,"45483531",. IMPOTS Direction,Mostaganem,"27"
"594","MOSTAGANEM,Cité Zaghloul,Mostaganem",35.9148345,0.0884027,"45202032",. IMPOTS Direction,Mostaganem,"27"
"595","11,MOSTAGANEM,Hai Bousmat,Mostaganem",35.9311454,0.0909414,"45201209",. IMPOTS Direction,Mostaganem,"27"
"596","HASSI MAMECHE,Route Nationale,Mostaganem",35.8590847,0.0727366,045 43 05 32  - 045 43 06 06  - 045 43 06 16  - 045 43 06 20  - 045 43 06 83  - 045 43 07 41  - 045 43 07 43  - 045 43 08 76,. IMPOTS Direction,Mostaganem,"27"
"597","ACHAACHA,Achaacha centre,Mostaganem",36.2469858,0.6349818,045 45 05 37  - 045 45 05 40  - 045 45 05 50  - 045 45 05 66  - 045 45 05 68  - 045 45 05 72  - 045 45 05 74  - 045 45 05 75,. IMPOTS Direction,Mostaganem,"27"
"598","STIDIA,Rue Si Merouane,Mostaganem",35.8292399,-0.0043672,"45432160",. IMPOTS Direction,Mostaganem,"27"
"599","MOSTAGANEM,Rue Freres Mahieddine,Mostaganem",35.9311454,0.0909414,"45201090",. IMPOTS Direction,Mostaganem,"27"
"600","MOSTAGANEM,Cité Zaghloul,Mostaganem",35.9148345,0.0884027,045 20 11 53  - 045 20 12 01  - 045 20 12 87  - 045 20 16 31  - 045 20 24 55,. IMPOTS Direction,Mostaganem,"27"
"601","M'SILA,Cite Administrative,MSila",35.6998197,4.5376177,035 33 05 82  - 035 33 85 09  - 035 33 85 15  - 035 33 85 21  - 035 33 85 81  - 035 33 86 06  - 035 33 86 12  - 035 33 86 51  - 035 33 88 25  - 035 33 88 29  - 035 33 89 14  - 035 33 89 58  - 035 37 02 22  - 035 37 02 23  - 035 39 20 57  - 035 39 21 40  - 035 42 71 16  - 035 42 71 17,. IMPOTS Direction,MSila,"28"
"602","BANQUE,M'SILA,Cite Administrative,MSila",35.7081339,4.534427,"35338721",. IMPOTS Direction,MSila,"28"
"603","AIN EL MELH,Ain El Melh,MSila",34.8467202,4.1618039,"35478195",Bou saada IMPOTS RECETTE DES CONTRIBUTION DIVERSES,MSila,"28"
"604","M'SILA,Avenue Abdelkader Sahnouni,MSila",35.7056818,4.5415539,"35336246",. IMPOTS Direction,MSila,"28"
"605","BEN SROUR,Village Ben Srour,MSila",35.0406949,4.5642364,"35436593",Bou saada IMPOTS RECETTE DES CONTRIBUTION DIVERSES,MSila,"28"
"606","OULED DERRADJ,Rue Selmane1,MSila",35.6892688,4.7764157,035 57 72 52  - 035 57 73 00,. IMPOTS Direction,MSila,"28"
"607","M'SILA,Place Des Martyres,MSila",35.7186646,4.5233423,035 33 05 05  - 035 33 05 87  - 035 33 06 17,. IMPOTS Direction,MSila,"28"
"608","SIDI AISSA,Boulevard De L'Independance,MSila",35.885157,3.774373,"35406801",. IMPOTS RECETTE DES CONTRIBUTION DIVERSES,MSila,"28"
"609","SIDI AISSA,Route Nal N° 8,MSila",35.885157,3.774373,"35406800",. IMPOTS RECETTE DES CONTRIBUTION DIVERSES,MSila,"28"
"610","M'SILA,M'Sila,MSila",35.7186646,4.5233423,035 46 81 07  - 035 46 81 12  - 035 47 81 94,Bou saada IMPOTS RECETTE DES CONTRIBUTION DIVERSES,MSila,"28"
"611","TIGHENNIF,Boulevard Des Martyrs,Mascara",35.39528,0.1434378,045 97 23 79  - 045 97 23 83,INSPECTION TIGHENNIF IMPOTS Direction,Mascara,"29"
"612","MASCARA,Cite Bekhlouf Adda,Mascara",35.4144226,0.1290252,"45715483",IMPOTS Direction HOTEL DES FINANCE,Mascara,"29"
"613","SIG,Cité Administratif(Pole 1),Mascara",35.5313614,-0.1894458,045 64 77 48  - 045 64 77 65  - 045 64 77 70  - 045 64 79 36,C.P.I .SIG CENTRE DE PROXIMITE DES IMPOTTS,Mascara,"29"
"614","GHRISS,Rue Abed Mohamed,Mascara",35.3928494,0.1423193,045 73 85 06  - 045 73 88 30  - 045 73 89 05  - 045 73 89 45,C.P.I GHRISS CENTRE DE PROXIMITE DES IMPOTS,Mascara,"29"
"615","MASCARA,Cite Administrative,Mascara",35.4104146,0.143191,045 72 40 09  - 045 72 40 10  - 045 72 40 12  - 045 72 40 14,C.P.I MASCARA CENTRE DE PROXIMITE DES IMPOTS,Mascara,"29"
"616","MASCARA,Avenue Colonel Amirouche,Mascara",35.3954522,0.1308542,045 71 50 90  - 045 71 54 62  - 045 71 54 63  - 045 71 58 03,IMPOTS Direction HOTEL DES FINANCES,Mascara,"29"
"617","MOHAMMADIA MASCARA,Rue Emir AEK Prolonger,Mascara",35.4020988,0.1400257,045 94 14 30  - 045 94 14 31  - 045 94 14 32  - 045 94 14 33,C.P.I MOHAMMADIA CENTRE DE PROXIMITE DES IMPOTS,Mascara,"29"
"618","MASCARA,Rue Hadria Abdelkader,Mascara",35.3927548,0.1431006,"45718085",. CENTRE DES IMPOTS DELA WILAYA DE MASCARA,Mascara,"29"
"619","MASCARA,Cité Hammou Boutlelis,Mascara",35.4020988,0.1400257,"45715099",IMPOTS Direction HOTEL DES FINANCES,Mascara,"29"
"620","MASCARA,Rue Boucif Mokhtar,Mascara",35.6807731,-0.6175364,045 71 54 32  - 045 71 54 61  - 045 71 54 64  - 045 71 54 67,IMPOTS Direction HOTEL DES FINANCES,Mascara,"29"
"621","TIGHENNIF,Rue 1er Novembre 1954,Mascara",35.3963609,0.1405267,"45972406",Recette des impots EL BORDJ IMPOTS Direction,Mascara,"29"
"622","TIZI,Tizi,Mascara",35.4078466,0.1395875,"45758963",Recette DIRECTION DES IMPOTS,Mascara,"29"
"623","TIGHENNIF,Rue Charef Belkacem,Mascara",35.4078466,0.1395875,"45972408",Inspection des impots EL BORDJ. IMPOTS Direction,Mascara,"29"
"624","4B,OUARGLA,Avenue SI EL HAOUES,Ouargla",31.9527411,5.3335348,"29702628",. DIRECTION DES IMPOTS,Ouargla,"30"
"625","TOUGGOURT,Hai NAKHIL 1,Ouargla",33.1049642,6.0662834,029 66 20 16  - 029 66 20 17  - 029 69 45 53,. IMPOTS,Ouargla,"30"
"626","HASSI MESSAOUD,Base SHDP,Ouargla",31.6619359,6.1456704,"29745893",. IMPOTS Direction,Ouargla,"30"
"627","AIN BEIDA (OUARGLA),Chem de wilaya n°206,Ouargla",31.93,5.39,"29777342",. DIRECTION DES IMPOTS,Ouargla,"30"
"628","TOUGGOURT,Rue Docteur Franz FANON,Ouargla",33.1049642,6.0662834,029 66 17 34  - 029 66 20 15  - 029 66 20 18  - 029 66 20 96  - 029 66 25 59,. IMPOTS,Ouargla,"30"
"629","AIN BEIDA (OUARGLA),Residence 4°region militaire,Ouargla",31.93,5.39,029 77 73 41  - 029 77 73 45  - 029 77 73 46,. DIRECTION DES IMPOTS,Ouargla,"30"
"630","EPIC,SIDI KHOUILED,SIDI KHOUILED,Ouargla",32.0397215,5.4272101,029 77 15 55  - 029 77 15 56,. DIRECTION DES IMPOTS,Ouargla,"30"
"631","EL HADJIRA,Hai EL DJADID,Ouargla",32.617022,5.5131826,"29613525",. IMPOTS,Ouargla,"30"
"633","NEZLA,Cité BOUMERDES NOUVEAU,Ouargla",33.1055688,6.0670753,"29695105",. IMPOTS,Ouargla,"30"
"634","OUARGLA,Avenue SI EL HAOUES,Ouargla",31.9416083,5.3068146,029 70 30 21  - 029 70 32 22  - 029 70 38 88  - 029 70 52 09  - 029 70 52 66  - 029 70 52 68  - 029 70 53 15  - 029 70 94 40  - 029 71 33 68,. DIRECTION DES IMPOTS,Ouargla,"30"
"635","OUARGLA,Place SOUK ESSEBT,Ouargla",31.9482852,5.3299417,"29700961",. DIRECTION DES IMPOTS,Ouargla,"30"
"636","OUARGLA,Rue ROUABAH Abderrahmane,Ouargla",31.957442,5.3319257,029 70 13 42  - 029 70 47 27,. DIRECTION DES IMPOTS,Ouargla,"30"
"637","18A,OUARGLA,Avenue SI EL HAOUES,Ouargla",31.9527411,5.3335348,"29703223",. DIRECTION DES IMPOTS,Ouargla,"30"
"638","TAIBET,Cité 50 logements,Ouargla",33.100756,6.4134658,"29611785",. IMPOTS,Ouargla,"30"
"639","HASSI MESSAOUD,Cité EMIR ABDELKADER,Ouargla",31.6888647,6.0670388,029 74 58 90  - 029 74 58 92,. IMPOTS Direction,Ouargla,"30"
"640","AIN TURK (ORAN),Boulevard Pasteur,Oran",35.7454229,-0.7681562,"41100497",. IMPOTS Direction Ouest,Oran,"31"
"641","ARZEW,Rue Aissat Idir,Oran",35.7266341,-0.5823025,"41771045",Direction Wilaya D'oran IMPOTS,Oran,"31"
"642","BETHIOUA,Boulevard de l'Aln,Oran",35.704492,-0.6169124,"41769009",Direction Wilaya D'oran IMPOTS,Oran,"31"
"643","BIR EL DJIR,Coopérative Wilaya,Oran",35.7101901,-0.5958314,"41626478",Direction Wilaya D'oran IMPOTS,Oran,"31"
"644","BETHIOUA,Bethioua,Oran",35.7589762,-0.2382187,"41769617",Direction Wilaya D'oran IMPOTS,Oran,"31"
"645","GDYEL,Rue Mohamed Khemisti,Oran",35.7790992,-0.4305806,041 68 12 27  - 041 78 46 67,Direction Wilaya D'oran IMPOTS,Oran,"31"
"646","ORAN,Boulevard de l'ALN,Oran",35.7058109,-0.6380355,"41415296",Direction Wilaya D'oran IMPOTS,Oran,"31"
"647","9,ORAN,Boulevard Tripoli,Oran",35.7084103,-0.6464637,"41331368",Direction Wilaya D'oran IMPOTS,Oran,"31"
"648","5,ORAN,Rue Benahmed El Houari,Oran",35.6987388,-0.6349319,"41296213",Direction Wilaya D'oran IMPOTS,Oran,"31"
"649","6,ORAN,Rue des Soeurs Benslimane,Oran",35.703424,-0.6447494,041 29 20 42  - 041 29 20 43  - 041 29 20 68  - 041 29 20 85  - 041 29 25 49  - 041 29 25 69  - 041 29 25 70  - 041 29 26 75  - 041 29 26 93  - 041 29 32 01  - 041 29 35 58  - 041 29 39 38  - 041 29 42 40  - 041 29 57 79  - 041 29 58 82  - 041 29 62 24,Direction Wilaya D'oran IMPOTS,Oran,"31"
"650","ORAN,Rue des Soeurs Benslimane,Oran",35.7043181,-0.6455611,041 10 93 72  - 041 15 33 85  - 041 15 35 07  - 041 18 48 64  - 041 18 48 69  - 041 19 64 13  - 041 19 65 71  - 041 29 12 31  - 041 29 18 84  - 041 29 37 79  - 041 29 41 65  - 041 29 42 17  - 041 29 45 49  - 041 29 47 07  - 041 33 24 30  - 041 33 24 84  - 041 56 34 87  - 041 56 36 09,. IMPOTS Direction Ouest,Oran,"31"
"651","2,ORAN,Rue Maitre Abed,Oran",35.6902133,-0.6563508,"41301951",Direction Wilaya D'oran IMPOTS,Oran,"31"
"652","BIR EL DJIR,Bir El Djir,Oran",35.7176707,-0.5653648,"41715978",Direction Wilaya D'oran IMPOTS,Oran,"31"
"653","2,ORAN,Boulevard Abane Ramdane,Oran",35.705307,-0.639774,041 33 02 64  - 041 33 10 51,. IMPOTS Direction Ouest,Oran,"31"
"654","ORAN,Boulevard Tripoli,Oran",35.7033043,-0.6358403,"41292395",Direction Wilaya D'oran IMPOTS,Oran,"31"
"655","SIDI CHAMI,Sidi Chahmi,Oran",35.6570607,-0.5214197,"41279130",. IMPOTS Direction Ouest,Oran,"31"
"656","GDYEL,Gdyel,Oran",35.7823787,-0.4236196,041 68 15 87  - 041 78 47 17,Direction Wilaya D'oran IMPOTS,Oran,"31"
"657","8,ORAN,Rue Adda Gharbi,Oran",35.7027683,-0.6481759,"41362601",Direction Wilaya D'oran IMPOTS,Oran,"31"
"658","11,ORAN,Boulevard Abane Ramdane,Oran",35.7038765,-0.639546,041 33 09 79  - 041 33 09 80,. RECETTE DES IMPOTS D'ORAN-KHALDIA,Oran,"31"
"659","15,ORAN,Boulevard Kheddim Mustapha,Oran",35.6987388,-0.6349319,041 15 30 75  - 041 15 30 78,. IMPOTS Direction Ouest,Oran,"31"
"660","BIR EL DJIR,Hai Khemiste,Oran",35.7311507,-0.5707055,"41715636",Direction Wilaya D'oran IMPOTS,Oran,"31"
"661","LABIODH SID CHEIKH,Avenue 1er Novombre,El Bayadh",32.8970651,0.5457605,049 63 67 33  - 049 63 67 77,. IMPOTS DIRECTION,El Bayadh,"32"
"662","LABIODH SID CHEIKH,Allée Algerie Poste,El Bayadh",32.8974414,0.5445374,"49636233",. IMPOTS DIRECTION,El Bayadh,"32"
"664","EL BAYADH,Cité Seddikia,El Bayadh",33.6907124,1.0187121,049 67 13 59  - 049 67 13 62  - 049 67 16 99  - 049 67 31 64  - 049 67 32 95  - 049 67 34 34  - 049 67 34 44  - 049 67 34 45,. IMPOTS DIRECTION,El Bayadh,"32"
"665","ILOT 54,BOUGTOB,Rue Trois Martyres,El Bayadh",34.0456709,0.0851185,"49623312",HOT LIGNE IMPOTS DIRECTION,El Bayadh,"32"
"666","EL BAYADH,Rue Abdelli Belkacem,El Bayadh",33.6854149,1.0303543,"49613561",. IMPOTS DIRECTION,El Bayadh,"32"
"669","EL BAYADH,Cité Nasr,El Bayadh",33.6854149,1.0303543,049 61 37 54  - 049 67 13 31,. IMPOTS DIRECTION,El Bayadh,"32"
"670","ILOT617,LABIODH SID CHEIKH,Cité Logements Surete,El Bayadh",32.8970651,0.5457605,"49643718",. IMPOTS DIRECTION,El Bayadh,"32"
"671","EL BAYADH,Allée Bureau Poste Ait Amiri,El Bayadh",33.6854149,1.0303543,"49613676",. IMPOTS DIRECTION,El Bayadh,"32"
"672","BOUALEM,Rue Belmaati Abdelkader,El Bayadh",33.6534854,1.4821482,049 65 40 97  - 049 65 41 11  - 049 65 43 65  - 049 65 43 67  - 049 65 43 70,. IMPOTS DIRECTION,El Bayadh,"32"
"673","EL BAYADH,Cité Administrative,El Bayadh",33.6854149,1.0303543,049 61 35 29  - 049 61 36 92,. IMPOTS DIRECTION,El Bayadh,"32"
"674","LABIODH SID CHEIKH,El Bayadh",32.8970651,0.5457605,049 63 62 19  - 213 471642955,. IMPOTS DIRECTION,El Bayadh,"32"
"675","BOUALEM,Rue boughamouma bouzid,El Bayadh",33.6805117,1.0142271,"49654368",. IMPOTS DIRECTION,El Bayadh,"32"
"677","EL BAYADH,Route D'Aflou,El Bayadh",33.6854149,1.0303543,"49671730",. IMPOTS DIRECTION,El Bayadh,"32"
"678","BOUGTOB,Rue Colonel Lotfi,El Bayadh",33.2782855,-0.3083656,"49623764",. IMPOTS DIRECTION,El Bayadh,"32"
"679","BOUGTOB,Rue Mohamedi Abd Naceur,El Bayadh",33.677824,1.0177046,"49623302",. IMPOTS DIRECTION,El Bayadh,"32"
"680","BOUGTOB,El Bayadh",34.0464502,0.0850069,049 62 33 00  - 049 62 33 01,. IMPOTS DIRECTION,El Bayadh,"32"
"681","ILOT 15,IN AMENAS,Hai ESSOUK,Illizi",28.0383517,9.5646259,029 45 70 95  - 029 45 70 96,IN AMENAS DIRECTION DES IMPOTS,Illizi,"33"
"682","ORG,ILLIZI,DIRECTION DES IMPOS,Illizi",26.4775863,8.4776326,029 40 30 25  - 029 40 30 26  - 029 40 30 27  - 029 40 30 28  - 029 40 30 29,. DIRECTION DES IMPOTS,Illizi,"33"
"683","BORDJ OMAR DRISS,Cité 14 logements,Illizi",28.1449927,6.8236371,"29460758",. DIRECTION DES IMPOTS,Illizi,"33"
"684","IN AMENAS,Rue 1er novembre 1954,Illizi",28.0383517,9.5646259,029 45 75 34  - 029 45 75 43,. DIRECTION DES IMPOTS,Illizi,"33"
"685","IN AMENAS,Hai ESSOUK,Illizi",28.0383517,9.5646259,029 45 70 88  - 029 45 73 09  - 029 46 06 31  - 029 46 06 60,. DIRECTION DES IMPOTS,Illizi,"33"
"686","DJANET,Centre ville,Illizi",24.554151,9.485429,"29480597",. DIRECTION DES IMPOTS,Illizi,"33"
"688","ILLIZI,Rue EMIR ABDELKADER,Illizi",26.5000301,8.471065,029 41 13 25  - 029 41 13 27  - 029 41 14 36,. DIRECTION DES IMPOTS,Illizi,"33"
"689","81,DJANET,Hai TIN OUDADE,Illizi",24.554151,9.485429,029 48 03 09  - 029 48 04 31  - 029 48 04 68  - 029 48 04 77  - 029 48 09 73,. DIRECTION DES IMPOTS,Illizi,"33"
"690","BORDJ OMAR DRISS,Cité des 20 logements,Illizi",28.1449927,6.8236371,029 46 06 28  - 029 46 06 81,. DIRECTION DES IMPOTS,Illizi,"33"
"692","BORDJ BOU ARRERIDJ,Rue 24 Avril,Bordj Bou Arreridj",36.0706583,4.7682996,035 72 96 70  - 035 72 96 71,. DIRECTION DES IMPOTS,Bordj Bou Arreridj,"34"
"693","BORDJ BOU ARRERIDJ,Rue Zioui Abdelhamid,Bordj Bou Arreridj",36.0708908,4.7607224,"35735154",. DIRECTION DES IMPOTS,Bordj Bou Arreridj,"34"
"694","BORDJ BOU ARRERIDJ,P-Immob Hedna,Bordj Bou Arreridj",36.0470328,4.8013693,035 70 31 35  - 035 71 01 72  - 035 71 01 74  - 035 72 96 52  - 035 72 96 53  - 035 72 96 54  - 035 72 96 58  - 035 72 96 60  - 035 72 96 68  - 035 72 97 51  - 035 73 30 28  - 035 73 30 29  - 035 73 30 32  - 035 73 30 33  - 035 73 94 81  - 035 85 03 89  - 035 85 03 94  - 035 87 91 71  - 035 87 92 89,. DIRECTION DES IMPOTS,Bordj Bou Arreridj,"34"
"695","BORDJ BOU ARRERIDJ,Rue Tabet Salah,Bordj Bou Arreridj",36.0688926,4.7681799,035 72 96 56  - 035 72 96 72,. DIRECTION DES IMPOTS,Bordj Bou Arreridj,"34"
"696","HASNAOUA (CHERCHAR),Village Hasnaoua (Cherchar) --,Bordj Bou Arreridj",36.1520377,4.79508,"35703101",. DIRECTION DES IMPOTS,Bordj Bou Arreridj,"34"
"697","BORDJ BOU ARRERIDJ,Cite 111 Logts,Bordj Bou Arreridj",36.0739925,4.7630271,"35733031",. DIRECTION DES IMPOTS,Bordj Bou Arreridj,"34"
"698","IMPOT,BORDJ BOU ARRERIDJ,Cite 08 Mai 45,Bordj Bou Arreridj",36.0739925,4.7630271,035 69 22 11  - 035 69 22 65  - 035 69 25 15  - 035 69 25 16  - 035 69 25 17  - 035 69 25 18  - 035 69 25 19  - 035 69 25 20  - 035 69 25 22,. DIRECTION DES IMPOTS,Bordj Bou Arreridj,"34"
"699","BORDJ BOU ARRERIDJ,Bordj Bou Arreridj,Bordj Bou Arreridj",36.0739925,4.7630271,035 74 83 27  - 035 74 83 28,. DIRECTION DES IMPOTS,Bordj Bou Arreridj,"34"
"700","RAS EL OUED,Cite Des Jardins,Bordj Bou Arreridj",35.9402582,5.0283213,035 63 42 03  - 035 63 42 21  - 035 63 43 03  - 035 63 43 14  - 035 63 43 41,. DIRECTION DES IMPOTS,Bordj Bou Arreridj,"34"
"701","BORDJ GHEDIR,Cite Abdelhamid Ben Badis,Bordj Bou Arreridj",36.0676371,4.7623038,035 86 16 75  - 035 86 16 89,. DIRECTION DES IMPOTS,Bordj Bou Arreridj,"34"
"702","7,THENIA,Rue Benhamadache Said,Boumerdes",36.7250779,3.5566369,"24966090",. IMPOTS Direction,Boumerdes,"35"
"703","BOUDOUAOU,Rue Freres Mahfouf,Boumerdes",36.7278126,3.4090696,024 74 21 32  - 024 74 21 64,. IMPOTS Direction,Boumerdes,"35"
"704","2,BORDJ MENAIEL,Rue Colonel Amirouche,Boumerdes",36.7450878,3.7192567,"24886738",. IMPOTS Direction,Boumerdes,"35"
"705","54,BORDJ MENAIEL,Rue Colonel Amirouche,Boumerdes",36.7450878,3.7192567,"24885322",. IMPOTS Direction,Boumerdes,"35"
"706","BAGHLIA,Rue Principale,Boumerdes",36.8180081,3.8592419,024 76 03 48  - 024 76 03 53,. IMPOTS Direction,Boumerdes,"35"
"707","SURETE DAIRA,BORDJ MENAIEL,Rue Ziane Lounes,Boumerdes",36.7478935,3.7193006,"24785015",. IMPOTS Direction,Boumerdes,"35"
"708","BORDJ MENAIEL,Cité 250 Lgts Bousbaa,Boumerdes",36.7454791,3.7340693,"24788108",. IMPOTS Direction,Boumerdes,"35"
"709","THENIA,Rue Benhamadache Said,Boumerdes",36.7250779,3.5566369,024 96 60 99  - 024 96 61 01,. IMPOTS Direction,Boumerdes,"35"
"710","BOUMERDES,Cité 1200 Logements,Boumerdes",36.7561594,3.4648266,024 74 25 61  - 024 76 03 50  - 024 76 03 51  - 024 79 11 71  - 024 79 12 11  - 024 79 12 12  - 024 79 12 13  - 024 79 12 14  - 024 79 12 17  - 024 79 12 18  - 024 79 12 19  - 024 79 12 24  - 024 79 12 28  - 024 79 12 42  - 024 79 12 80  - 024 79 12 84  - 024 79 12 85  - 024 79 13 34  - 024 79 14 53  - 024 96 60 98,. IMPOTS Direction,Boumerdes,"35"
"711","DELLYS,Rue Ouslama,Boumerdes",36.9126574,3.9124569,"24763468",. IMPOTS Direction,Boumerdes,"35"
"712","BOUMERDES,Boulevard Med Bouguera,Boumerdes",36.7510697,3.4788905,"24791698",. IMPOTS Direction,Boumerdes,"35"
"713","ILOT 16,DELLYS,Rue Amirouche,Boumerdes",36.9126574,3.9124569,"24763180",. IMPOTS Direction,Boumerdes,"35"
"714","DELLYS,Place Des Martyres,Boumerdes",36.9126574,3.9124569,024 76 31 76  - 024 76 36 65,. IMPOTS Direction,Boumerdes,"35"
"715","BOUDOUAOU,Avenue Des Ecoles,Boumerdes",36.7204759,3.396615,"24742554",. IMPOTS Direction,Boumerdes,"35"
"716","OULED MOUSSA,Rue Moussaoui Dahmane,Boumerdes",36.6835061,3.3672988,"24937749",. IMPOTS Direction,Boumerdes,"35"
"717","KHEMIS EL KHECHNA,Rue Sayad Salah,Boumerdes",36.7353009,3.2828765,024 97 02 00  - 024 97 02 01,. IMPOTS Direction,Boumerdes,"35"
"718","BOUDOUAOU,Cité Bouyahiaoui,Boumerdes",36.7270758,3.3966197,"24741140",. IMPOTS Direction,Boumerdes,"35"
"719","KHEMIS EL KHECHNA,Centre Ville,Boumerdes",36.6505125,3.3316893,"24973529",. IMPOTS Direction,Boumerdes,"35"
"720","ISSER,Rue Colonel Amirouche,Boumerdes",36.7243966,3.6682202,024 71 35 36  - 024 71 36 97  - 024 71 36 99,. IMPOTS Direction,Boumerdes,"35"
"721","ISSER,Rue Chateau D'eau,Boumerdes",36.721957,3.6688439,"24716169",. IMPOTS Direction,Boumerdes,"35"
"722","KHEMIS EL KHECHNA,Rue Freres Boumia,Boumerdes",36.6505125,3.3316893,"24970191",. IMPOTS Direction,Boumerdes,"35"
"723","EL TARF,Cite SNLB,El Tarf",36.7619589,8.3211257,"38303241",Direction IMPOTS,El Tarf,"36"
"724","BESBES (EL TARF),Besbas,El Tarf",36.7020841,7.8464395,"38398357",. IMPOTS DIRECTION,El Tarf,"36"
"725","BEN M'HIDI,Rte Nationnale 44,El Tarf",36.7666372,7.9055824,038 34 71 66  - 038 34 71 82  - 038 34 79 23,. IMPOTS DIRECTION,El Tarf,"36"
"726","BESBES (EL TARF),Rte Nationale,El Tarf",36.7020841,7.8464395,038 39 46 23  - 038 39 80 49,. IMPOTS DIRECTION,El Tarf,"36"
"727","EL TARF,Rue Messaoud Keddache,El Tarf",36.7633518,8.3102708,038 30 01 41  - 038 30 02 46  - 038 30 08 79  - 038 30 09 35  - 038 30 14 72  - 038 30 16 23  - 038 30 20 70  - 038 30 21 56  - 038 30 25 00  - 038 30 35 85  - 038 34 25 14  - 038 36 19 09  - 038 39 32 81,. IMPOTS DIRECTION,El Tarf,"36"
"728","EL TARF,Rue Labidi Ramdane,El Tarf",36.7178584,8.2839576,038 30 02 65  - 038 30 19 69  - 038 30 20 33  - 038 30 20 39  - 038 30 20 53,. IMPOTS DIRECTION,El Tarf,"36"
"729","EL TARF,Route Nationale N°44,El Tarf",36.7576678,8.3076343,038 30 19 79  - 038 30 20 65,. IMPOTS DIRECTION,El Tarf,"36"
"730","DREAN,Rue Fedaoui Messaoud,El Tarf",36.6865627,7.7208062,"38380573",. IMPOTS DIRECTION,El Tarf,"36"
"732","EL TARF,Route Trésorerie,El Tarf",36.768521,8.3162282,"38301978",. IMPOTS DIRECTION,El Tarf,"36"
"733","DREAN,Cite Administrative,El Tarf",36.7558581,8.2212979,038 38 05 72  - 038 38 84 22  - 038 38 89 33,. IMPOTS DIRECTION,El Tarf,"36"
"734","BOUHADJAR,Rue 1er Novembre 54,El Tarf",36.5075732,8.1058446,"38326419",. IMPOTS DIRECTION,El Tarf,"36"
"735","BOUHADJAR,Cite 8 Mai 45,El Tarf",36.5075732,8.1058446,038 32 74 19  - 038 32 74 30  - 038 32 74 88,. IMPOTS DIRECTION,El Tarf,"36"
"736","BESBES (EL TARF),Cite Oued Besbas,El Tarf",36.7020841,7.8464395,"38394312",. IMPOTS DIRECTION,El Tarf,"36"
"737","EL KALA,Lot Gelas Sud,El Tarf",36.8856754,8.4408187,038 36 06 48  - 038 36 18 70  - 038 36 33 12,. IMPOTS DIRECTION,El Tarf,"36"
"738","TINDOUF , Cité 08 Mai (32 Logts) , Tindouf , Tindouf",27.6719159,-8.1398003,"49370743",Impots Direction,Tindouf,"37"
"739","TINDOUF , Tindouf , Tindouf",27.6719159,-8.1398003,"49370751",Impots Direction,Tindouf,"37"
"741","TINDOUF , Rue 1er Mai , Tindouf , Tindouf",27.6719159,-8.1398003,049 37 07 65 - 049 37 07 77 - 049 37 07 78 - 049 37 05 12,Impots Direction,Tindouf,"37"
"742","TISSEMSILT,Cité 300 Logements,Tissemsilt",35.6053781,1.813098,046 56 91 70  - 046 56 91 75  - 046 56 91 78,. IMPOTS Direction,Tissemsilt,"38"
"743","BORDJ BOUNAAMA,Cité 110 Lotissements,Tissemsilt",35.85039,1.6149139,"46503261",. IMPOTS Direction,Tissemsilt,"38"
"744","TISSEMSILT,Cité 320 Logements,Tissemsilt",35.6053781,1.813098,046 57 08 61  - 046 57 08 63  - 046 57 08 66,. IMPOTS Direction,Tissemsilt,"38"
"745","THENIET EL HAD,Hai Oued El Kram,Tissemsilt",35.8564476,1.9703856,046 58 20 62  - 046 58 20 64  - 046 58 21 92,. IMPOTS Direction,Tissemsilt,"38"
"746","TISSEMSILT,60 Bureaux Wilaya,Tissemsilt",35.6053781,1.813098,046 50 33 48  - 046 57 01 23  - 046 57 01 35  - 046 57 01 45  - 046 57 01 68  - 046 57 07 72,. IMPOTS Direction,Tissemsilt,"38"
"747","LARDJEM,Cité Centre Ville,Tissemsilt",35.6053781,1.813098,046 53 45 76  - 046 53 45 78  - 046 53 45 79,. IMPOTS Direction,Tissemsilt,"38"
"748","KHEMISTI,Hai Boudouissa,Tissemsilt",35.6673024,1.9633351,046 56 36 42  - 046 56 36 43,. IMPOTS Direction,Tissemsilt,"38"
"749","ILOT 1462,EL OUED,Rue des moudjahidine,El Oued",33.367811,6.8516511,"32134122",. DIRECTION DES IMPOTS,El Oued,"39"
"750","EL OUED,Rue Hôtel Des Finances,El Oued",33.367811,6.8516511,032 13 40 22  - 032 13 40 25  - 032 13 40 26  - 032 13 40 27  - 032 13 40 29  - 032 13 40 31  - 032 13 40 62,. DIRECTION DES IMPOTS,El Oued,"39"
"751","EL MEGHAIER,Boulevard Zighoud Youcef,El Oued",33.950285,5.9244238,032 18 60 30  - 032 18 60 31,. DIRECTION DES IMPOTS,El Oued,"39"
"752","EL OUED,Avenue Mohamed Khemisti,El Oued",33.3619536,6.8626338,032 13 40 23  - 032 13 40 28  - 032 13 40 32,. DIRECTION DES IMPOTS,El Oued,"39"
"753","EL OUED,Hai EL MOUDJAHIDINE,El Oued",34.8848449,-1.3387177,032 13 40 10  - 032 13 40 24  - 032 13 40 63  - 032 13 40 65,. DIRECTION DES IMPOTS,El Oued,"39"
"754","ILOT 184,DEBILA,Cité 18 fevrier,El Oued",33.5058203,6.9378981,032 26 96 93  - 032 26 96 94  - 032 26 96 95  - 032 26 96 97  - 032 26 96 98  - 032 26 96 99,. DIRECTION DES IMPOTS,El Oued,"39"
"755","ILOT 396,DEBILA,Cité 70 logements,El Oued",33.5017684,6.930934,"32268820",POLICE DIRECTION DES IMPOTS,El Oued,"39"
"756","EL OUED,Zone d'activite,El Oued",33.367811,6.8516511,"32126883",. DIRECTION DES IMPOTS,El Oued,"39"
"757","ILOT 349,DJAMAA,Hai ESSALEM,El Oued",33.5376374,5.9899763,032 16 27 58  - 032 16 27 59,. DIRECTION DES IMPOTS,El Oued,"39"
"758","ORG,EL OUED,Rue des MOUDJAHIDINE,El Oued",36.7885379,3.0544463,"32134019",. DIRECTION DES IMPOTS,El Oued,"39"
"759","ROBBAH,Robbah,El Oued",33.2912663,6.9084817,032 10 51 73  - 032 10 54 05,. DIRECTION DES IMPOTS,El Oued,"39"
"760","DJAMAA,BARRAGE FIXE N°2(SURETE DAIRA),El Oued",33.5376374,5.9899763,032 16 22 94  - 032 16 22 95,. DIRECTION DES IMPOTS,El Oued,"39"
"761","BLOC B47,EL OUED,Cité 462 Logements,El Oued",33.367811,6.8516511,032 12 69 02  - 032 12 69 03  - 032 12 69 04  - 032 12 69 05  - 032 12 69 06  - 032 12 69 07  - 032 12 69 08  - 032 12 69 09  - 032 12 69 10  - 032 12 69 11  - 032 12 69 13  - 032 12 69 14,. DIRECTION DES IMPOTS,El Oued,"39"
"762","ILOT 784,GUEMAR,Cité NOUAR,El Oued",33.4882993,6.7966739,032 23 42 23  - 032 23 42 45  - 032 23 42 46  - 032 23 42 47  - 032 23 42 48  - 032 23 42 51  - 032 23 42 52,. DIRECTION DES IMPOTS,El Oued,"39"
"764","EL-HAMMA,El Hamma,Khenchela",35.4658603,7.0582644,032 73 82 09  - 032 73 83 95,. IMPOTS,Khenchela,"40"
"765","IMPOTS,KHENCHELA,Hotel Des Finances,Khenchela",35.4072676,7.1365172,032 72 52 15  - 032 72 56 68  - 032 72 56 82,. IMPOTS,Khenchela,"40"
"766","KAIS,Cité 17 Juin,Khenchela",35.497753,6.9122241,"32774553",. IMPOTS,Khenchela,"40"
"768","KAIS,Rue Amar Achi,Khenchela",35.4328741,7.1435396,032 77 36 36  - 032 77 36 39,. IMPOTS,Khenchela,"40"
"769","CHECHAR,Rue Bouguerra Elammri,Khenchela",34.8786128,7.0498442,032 75 35 73  - 032 75 35 78  - 032 75 35 89,. IMPOTS,Khenchela,"40"
"770","KHENCHELA,Hotel Des Finances,Khenchela",35.427666,7.1439305,032 70 05 70  - 032 70 05 78  - 032 71 85 22  - 032 72 14 98  - 032 72 19 43  - 032 72 56 10  - 032 72 56 13  - 032 72 56 14  - 032 72 56 15  - 032 72 56 17  - 032 72 56 18  - 032 72 56 19  - 032 72 56 20  - 032 72 56 21  - 032 72 56 22  - 032 72 56 26  - 032 72 73 38  - 032 73 03 61  - 032 73 82 02  - 032 73 82 10  - 032 77 35 93,. IMPOTS,Khenchela,"40"
"772","AIN TOUILA,Ain Touila,Khenchela",35.4359455,7.3813708,"32780857",. IMPOTS,Khenchela,"40"
"773","2,CHECHAR,Rue Zerouali Lamneouar,Khenchela",34.8786128,7.0498442,"32753513",. IMPOTS,Khenchela,"40"
"774","DOMILEK,AIN TOUILA,Cite 50 logts,Khenchela",35.4359455,7.3813708,"32780852",. IMPOTS,Khenchela,"40"
"775","EL MAHMEL,Route De Zoui,Khenchela",35.4229897,7.1576117,"32700588",. IMPOTS,Khenchela,"40"
"776","AIN TOUILA,Rue Handaoui Med Tahar,Khenchela",35.4253596,7.1422601,"32780855",. IMPOTS,Khenchela,"40"
"777","TAOURA,Taoura,Souk Ahras",36.16667,8.0357365,"37781405",. IMPOTS Direction,Souk Ahras,"41"
"778","SONALGAZ,SEDRATA,Cite Salah Soufi,Souk Ahras",36.1345249,7.5297476,"37872592",. IMPOTS Direction,Souk Ahras,"41"
"780","MERAHNA,Merahna,Souk Ahras",36.1973791,8.1551838,037 80 47 86  - 037 80 47 91  - 037 80 47 92  - 037 80 47 94,. IMPOTS Direction,Souk Ahras,"41"
"781","SURETE,TAOURA,Nouveau Pole Administratif,Souk Ahras",36.16667,8.0357365,"37781379",. IMPOTS Direction,Souk Ahras,"41"
"782","TAOURA,Souk Ahras",36.16667,8.0357365,"37781039",. IMPOTS Direction,Souk Ahras,"41"
"783","SEDRATA,Rue 1er Novembre,Souk Ahras",36.1345249,7.5297476,"37776744",. IMPOTS Direction,Souk Ahras,"41"
"784","SOUK AHRAS,Cite Zac,Souk Ahras",36.2720917,7.942443,037 71 54 83  - 037 71 55 59,. IMPOTS Direction,Souk Ahras,"41"
"785","SEDRATA,Route Ain El Baida,Souk Ahras",36.1345249,7.5297476,037 87 67 54  - 037 87 67 56  - 037 87 67 57  - 037 87 67 60,. IMPOTS Direction,Souk Ahras,"41"
"790","SEDRATA,Cite 80 Logts,Souk Ahras",36.1345249,7.5297476,"37872136",. IMPOTS Direction,Souk Ahras,"41"
"791","M'DAOUROUCH,Cite Abdelbaki,Souk Ahras",36.0747842,7.8056958,037 83 55 15  - 037 83 55 16,. IMPOTS Direction,Souk Ahras,"41"
"792","179,SEDRATA,Rue 08 Mai 45,Souk Ahras",36.1298015,7.5330607,"37777059",. IMPOTS Direction,Souk Ahras,"41"
"793","22,MERAHNA,Rue Lacheguar Amor,Souk Ahras",36.1973791,8.1551838,"37804931",. CENTRE DES IMPOTS MERAHNA,Souk Ahras,"41"
"794","10,MERAHNA,Cite Betaitia Athmane,Souk Ahras",36.1973791,8.1551838,"37804553",. CENTRE DES IMPOTS,Souk Ahras,"41"
"795","KOLEA,Lotissement Zouaoui Benaouda,Tipaza",36.6431489,2.7782025,"24360173",. IMPOTS Ecole Nationale,Tipaza,"42"
"796","KOLEA,Route de Bou Ismail,Tipaza",36.6404942,2.7046882,024 38 45 40  - 024 38 45 41  - 024 38 45 51  - 024 38 45 79  - 024 38 45 80  - 024 38 46 07  - 024 38 46 28  - 024 38 46 30  - 024 38 46 35  - 024 38 46 37  - 024 38 46 41  - 024 38 46 43  - 024 38 49 11,. IMPOTS Ecole Nationale,Tipaza,"42"
"797","KOLEA,Route De Bou Ismail RN n°69,Tipaza",36.6404942,2.7046882,024 38 44 37  - 024 38 44 39  - 024 38 49 07  - 024 38 49 08  - 024 38 49 09,TIPAZA INSPECTION DES IMPOTS,Tipaza,"42"
"798","BOUHAROUNE,Tipaza",36.6237048,2.6554544,024 30 37 37  - 024 30 49 55,Tresorerie Intercommunale IMPOTS,Tipaza,"42"
"799","ILOT 2,BOUHAROUNE,Rue Kadem Djelloul,Tipaza",36.6237048,2.6554544,"24303483",Tresorerie Intercommunale IMPOTS,Tipaza,"42"
"800","ILOT 127,BOU ISMAIL,Katiba Amaria,Tipaza",36.6392852,2.6962722,"24318520",TIPAZA RECETTE DES IMPOTS,Tipaza,"42"
"801","HADJOUT,Rue Attafia Aek,Tipaza",36.5115617,2.4143855,"24391071",TIPAZA RECETTE DES IMPOTS,Tipaza,"42"
"802","KOLEA,Rue Souidani Boudjemaa,Tipaza",36.6361689,2.7680156,"24380781",. IMPOTS Ecole Nationale,Tipaza,"42"
"803","KOLEA,Rue 20 Aout 1955,Tipaza",36.6381616,2.7669757,"24363719",. IMPOTS Ecole Nationale,Tipaza,"42"
"804","CHERCHELL,Dom Habbouchi,Tipaza",36.6083238,2.1911657,024 33 05 27  - 024 33 05 28,TIPAZA RECETTE DES IMPOTS,Tipaza,"42"
"806","DOUAOUDA,Dom Yacoubi,Tipaza",36.6770431,2.7955922,"24308062",TIPAZA RECETTE DES IMPOTS,Tipaza,"42"
"807","HADJOUT,Rte de Merad,Tipaza",36.5121841,2.4142994,"24391070",TIPAZA INSPECTION DES IMPOTS,Tipaza,"42"
"808","CHAIBA (TIPAZA),Cite 50 Logts,Tipaza",36.6030352,2.7364209,"24389631",TIPAZA INSPECTION DES IMPOTS,Tipaza,"42"
"809","10,TIPAZA,Rue du Stade,Tipaza",36.5869018,2.4382553,"24378623",DIRECTION IMPOTS,Tipaza,"42"
"810","BOU ISMAIL,Katiba Amaria,Tipaza",36.6427152,2.6962524,"24316699",TIPAZA RECETTE DES IMPOTS,Tipaza,"42"
"811","DOUAOUDA,Cite 50 Logts,Tipaza",36.6770431,2.7955922,"24308061",TIPAZA INSPECTION DES IMPOTS,Tipaza,"42"
"812","FOUKA,Rue Bouloufa Med,Tipaza",36.6615192,2.7423497,"24311443",Tresorerie Intercommunale IMPOTS,Tipaza,"42"
"813","TIPAZA,Route De La Wilaya,Tipaza",36.546265,2.1843285,024 37 67 03  - 024 37 67 04  - 024 37 67 06,DIRECTION IMPOTS,Tipaza,"42"
"814","TIPAZA,Cité Administrative,Tipaza",36.5899026,2.4563657,024 37 64 72  - 024 37 64 74  - 024 37 64 98  - 024 37 66 63  - 024 37 66 70  - 024 37 66 71  - 024 37 67 02,. IMPOTS DIRECTION DE TIPAZA,Tipaza,"42"
"815","HADJOUT,Bd Fettaka Ali,Tipaza",36.5116114,2.4169907,024 39 10 69  - 024 39 10 74,TIPAZA INSPECTION DES IMPOTS,Tipaza,"42"
"817","MILA,Rue 1er Novembre,Mila",36.4519049,6.2584338,031 47 35 02  - 031 47 84 26  - 031 47 84 33  - 031 47 84 34  - 031 47 84 35  - 031 47 84 37  - 031 47 84 39  - 031 47 84 44  - 031 47 84 46  - 031 47 86 07  - 031 49 64 49,. IMPOTS Direction,Mila,"43"
"818","TRESORERIE,MILA,Hotel Des Finances,Mila",36.4427606,6.257675,031 47 82 55  - 031 47 82 61  - 031 47 83 37,. IMPOTS Direction,Mila,"43"
"819","TELERGHMA,Cite 111 Logts,Mila",36.1166268,6.355588,031 40 50 52  - 031 40 50 53,. IMPOTS Direction,Mila,"43"
"820","CHELGHOUM LAID,Route National N5 Face Comeca,Mila",36.1635318,6.183766,"31458150",. IMPOTS Direction,Mila,"43"
"822","FERDJIOUA,Cite Boughouas,Mila",36.4051142,5.94196,031 49 64 47  - 031 49 64 51,. IMPOTS Direction,Mila,"43"
"824","OUED ATHMENIA,Cite Belghimouze Salima,Mila",36.2470012,6.2864318,"31421376",. IMPOTS Direction,Mila,"43"
"825","GRAREM GOUGA,Cite Bachir Mimouni,Mila",36.5131541,6.3300041,031 44 56 31  - 031 45 40 73,. IMPOTS Direction,Mila,"43"
"827","8,FERDJIOUA,Sureté Nationale,Mila",36.4051142,5.94196,"31495111",. IMPOTS Direction,Mila,"43"
"828","91,TADJENANET,Cite Dalia,Mila",36.1218328,5.9852421,"31403839",. IMPOTS Direction,Mila,"43"
"829","CHELGHOUM LAID,Cite Ouskourt Abdelkrim,Mila",36.1654992,6.1632725,031 41 06 40  - 031 41 06 41  - 031 41 06 42,. IMPOTS Direction,Mila,"43"
"830","FERDJIOUA,Rue 1 Er Nouvembre,Mila",36.4051142,5.94196,"31495897",. IMPOTS Direction,Mila,"43"
"832","MILA,Hotel Des Finances,Mila",45.5660963,5.9207186,031 47 84 24  - 031 47 84 27,. IMPOTS Direction,Mila,"43"
"833","TADJENANET,Route National N° 5,Mila",36.1218328,5.9852421,"31403737",. IMPOTS Direction,Mila,"43"
"834","AIN DEFLA,Cité Administrative,Ain Defla",36.2605395,1.9548499,"27504345",. SALEM'S IMPOT EXPORT,Ain Defla,"44"
"835","ILOT 3,ROUINA,Rue De L'independance,Ain Defla",36.2436971,1.8076477,027 60 56 81  - 027 60 56 85,. IMPOTS,Ain Defla,"44"
"836","INSPECTION,AIN DEFLA,Rue 1er Novembre,Ain Defla",36.2638291,1.9628141,"27504506",. IMPOTS,Ain Defla,"44"
"837","EL ATTAF,Cité Administrative,Ain Defla",36.2234936,1.6749178,027 62 19 27  - 027 62 19 28,. IMPOTS,Ain Defla,"44"
"838","AIN DEFLA,Centre Ville,Ain Defla",36.2509429,1.9393815,027 50 45 08  - 027 50 45 10  - 027 50 45 11,Hotel Des Finances DIRECTION DES IMPOTS,Ain Defla,"44"
"839","KHEMIS MILIANA,Rue Belsaadi Abdelkader,Ain Defla",36.2609095,2.2241107,027 55 25 35  - 027 55 29 60  - 027 55 29 61  - 027 55 29 62  - 027 55 29 63,. IMPOTS,Ain Defla,"44"
"840","MILIANA,Centre,Ain Defla",36.3080267,2.228407,"27649035",. IMPOTS,Ain Defla,"44"
"841","MILIANA,Hotel des Finances,Ain Defla",36.3063656,2.2253962,"27640014",. IMPOTS,Ain Defla,"44"
"842","ILOT 316,AIN DEFLA,Cité 300 Logements,Ain Defla",36.2509429,1.9393815,027 50 54 01  - 027 50 54 02  - 027 50 54 03  - 027 50 54 04  - 027 50 54 05  - 027 50 54 06  - 027 50 54 07  - 027 50 54 08  - 027 50 54 09  - 027 50 54 10  - 027 50 54 11  - 027 50 54 12  - 027 50 54 13  - 027 50 54 14,. IMPOTS,Ain Defla,"44"
"843","DJELIDA,Centre,Ain Defla",36.2038415,2.0800579,"27522168",. IMPOTS,Ain Defla,"44"
"844","BOUMEDFAA,centre,Ain Defla",36.3695877,2.4727937,027 54 40 55  - 027 54 48 49,. IMPOTS,Ain Defla,"44"
"845","AIN DEFLA,Hotel Des Finances,Ain Defla",36.2553394,1.9540755,027 50 44 97  - 027 50 44 98  - 027 50 44 99  - 027 50 45 00  - 027 50 45 01  - 027 50 45 02  - 027 50 45 03  - 027 50 45 04  - 027 50 45 05  - 027 50 50 21  - 027 50 94 00,. IMPOTS,Ain Defla,"44"
"846","EL ABADIA,Rue Principale,Ain Defla",36.2720385,1.6853912,"27629500",. IMPOTS,Ain Defla,"44"
"848","DJENDEL,Rue Benzina,Ain Defla",36.2205342,2.4149379,"27541823",. IMPOTS,Ain Defla,"44"
"849","DJENDEL,Centre,Ain Defla",36.2205342,2.4149379,"27541822",. IMPOTS,Ain Defla,"44"
"850","EL AMRA,Rue 19 Juin,Ain Defla",36.3081443,1.8481843,"27520462",. IMPOTS,Ain Defla,"44"
"851","BT 20,MECHERIA,Cité 12 Logements OPGI,Naama",33.5428376,-0.2751123,049 51 42 32  - 049 51 42 33  - 049 51 42 34  - 049 51 42 35  - 049 51 42 36,. IMPOTS DIRECTION,Naama,"45"
"852","NAAMA,Cité 12 Logements,Naama",33.2667317,-0.3128659,"49595283",. IMPOTS Direction,Naama,"45"
"853","NAAMA,Cité Centre De Finances,Naama",33.2782855,-0.3083656,049 59 50 65  - 049 59 56 48  - 049 59 56 49,. IMPOTS Direction,Naama,"45"
"854","NAAMA,Cité Administrative,Naama",33.2673218,-0.3091943,049 59 82 52  - 049 59 82 53,. IMPOTS Direction,Naama,"45"
"855","NAAMA,Cité 80 Logements,Naama",33.2667317,-0.3128659,049 59 83 16  - 049 59 83 17  - 049 59 83 18  - 049 59 83 19  - 049 59 83 20  - 049 59 83 21,. IMPOTS Direction,Naama,"45"
"856","NAAMA,Cité 70 Logements Incessibles,Naama",33.2667317,-0.3128659,049 59 37 89  - 049 59 37 90  - 049 59 37 91  - 049 59 37 92  - 049 59 37 93  - 049 59 37 94  - 049 59 37 95  - 049 59 37 96,. IMPOTS Direction,Naama,"45"
"857","27,MECHERIA,Cité Badr,Naama",33.5428376,-0.2751123,"49514126",. IMPOTS DIRECTION,Naama,"45"
"858","10,MECHERIA,Cité 12 Logements Administrati,Naama",33.5428376,-0.2751123,"49514212",. IMPOTS DIRECTION,Naama,"45"
"859","NAAMA,Cité 164 Logements,Naama",35.6570607,-0.5214197,049 59 34 20  - 049 59 51 93  - 049 59 52 87  - 049 59 52 96,. IMPOTS Direction,Naama,"45"
"860","31,MECHERIA,Rue Ben Mustapha Taher,Naama",33.5428376,-0.2751123,"49514237",. IMPOTS DIRECTION,Naama,"45"
"861","AIN SEFRA,Rue 5 Juillet,Naama",32.7590726,-0.5860412,049 56 77 14  - 049 56 77 15  - 049 56 77 61  - 049 56 77 65  - 049 56 77 67  - 049 56 77 68  - 049 56 78 74,. IMPOTS Recette,Naama,"45"
"862","AIN SEFRA,Cité Saada,Naama",32.7591169,-0.5782621,049 56 73 64  - 049 59 55 63,. IMPOTS Recette,Naama,"45"
"863","HAMMAM BOUHADJAR,Boulevard Larbi Ben M'hidi,Ain Temouchent",35.3716042,-0.968314,"43739270",. DIRECTION DES IMPOTS,Ain Temouchent,"46"
"865","AIN EL ARBAA,Rue Emir AEK,Ain Temouchent",35.2992698,-1.1392792,043 73 12 93  - 043 73 17 08,. DIRECTION DES IMPOTS,Ain Temouchent,"46"
"866","AIN TEMOUCHENT,Route De Terga,Ain Temouchent",35.4367218,-1.2365376,043 79 16 11  - 043 79 23 88  - 043 79 25 25  - 043 79 29 55  - 043 79 31 35  - 043 79 52 10,. DIRECTION DES IMPOTS,Ain Temouchent,"46"
"867","AIN EL ARBAA,Rue des 3 Freres Khoualef,Ain Temouchent",35.4079899,-0.8800843,043 73 12 46  - 043 73 14 47,. DIRECTION DES IMPOTS,Ain Temouchent,"46"
"869","AIN TEMOUCHENT,Ilot 50,Ain Temouchent",35.2992698,-1.1392792,043 79 06 52  - 043 79 06 53  - 043 79 06 54  - 043 79 06 55  - 043 79 06 57  - 043 79 06 58  - 043 79 06 59  - 043 79 06 95  - 043 79 07 56,. CENTRE DES IMPOTS,Ain Temouchent,"46"
"871","64,HAMMAM BOUHADJAR,Boulevard Mohamed Khemisti,Ain Temouchent",35.2972405,-1.1406886,043 73 51 18  - 043 73 51 59,. DIRECTION DES IMPOTS,Ain Temouchent,"46"
"872","AIN TEMOUCHENT,Ain Temouchent",35.2992698,-1.1392792,043 79 89 00  - 043 79 89 07  - 043 79 89 21  - 043 79 89 48  - 043 79 89 55,. DIRECTION DES IMPOTS,Ain Temouchent,"46"
"873","BENI SAF,Ain Temouchent",35.2897861,-1.3768856,"43741027",. DIRECTION DES IMPOTS,Ain Temouchent,"46"
"874","EL AMRIA,Boulevard Emir Abdelkader,Ain Temouchent",35.523942,-1.0179587,"43765433",. DIRECTION DES IMPOTS,Ain Temouchent,"46"
"876","ILOT 22,MANSOURAH (GHARDAIA),Cité 30 logements,Ghardaia",48.5108101,-3.3263676,"29276230",. RECETTE INTERCOMMUNALE DES IMPOTS,Ghardaia,"47"
"877","BOUNOURA,Cité 400 logements,Ghardaia",32.4830285,3.6994765,"29256054",Bureau RECETTE INTERCOMMUNALE DES IMPOTS,Ghardaia,"47"
"882","EL MENEAA,Rue Larbi BEN MEHIDI,Ghardaia",30.5833161,2.8836701,029 21 80 35  - 029 21 82 72,. IMPOTS Recette Intercommunale,Ghardaia,"47"
"883","GHARDAIA,Route Nationale n°1,Ghardaia",32.4943741,3.64446,"29259024",LA DIRECTION DES IMPOTS BOUHRAOUA LA DIRECTION DES IMPOTS BOUHRAOUA,Ghardaia,"47"
"886","RELIZANE,Rue Cheikh Larbi Tebessi,Relizane",35.7299925,0.5434028,046 71 54 16  - 046 71 63 10,. IMPOTS Recette,Relizane,"48"
"887","EL MATMAR,Boulevard Mohamed Khemisti,Relizane",35.7446747,0.5565111,046 80 21 34  - 046 80 21 35,. IMPOTS,Relizane,"48"
"888","DJIDIOUIA,Bd Allem Abderahmane Ouest,Relizane",35.9296489,0.8302196,046 83 13 05  - 046 83 13 06,. IMPOTS,Relizane,"48"
"889","EL MATMAR,Cité 144 Logts,Relizane",35.7311622,0.4595531,"46803006",. IMPOTS,Relizane,"48"
"890","OUED RHIOU,Rue Belhadj Tami,Relizane",35.9298225,0.8252792,"46787512",. IMPOTS,Relizane,"48"
"891","OUED RHIOU,Rue Tazghat Djillali,Relizane",35.9298225,0.8252792,046 78 63 01  - 046 78 63 02,. IMPOTS,Relizane,"48"
"892","RELIZANE,Boulevard De L'ALN,Relizane",35.8721265,1.1079316,046 76 92 56  - 046 76 92 57,. IMPOTS,Relizane,"48"
"893","RELIZANE,Boulevard Larbi Tebessi,Relizane",35.7450263,0.5578837,046 71 54 09  - 046 71 57 68  - 046 71 60 00,. IMPOTS,Relizane,"48"
"895","RELIZANE,Diar El Ward,Relizane",35.7450263,0.5578837,046 71 54 07  - 046 76 03 11  - 046 76 03 41,. IMPOTS,Relizane,"48"
"896","AMMI MOUSSA,Boulevard Si Kahlaoui,Relizane",35.8721265,1.1079316,"46843057",. IMPOTS,Relizane,"48"
"897",,,,,Receveur des impots - Dely brahim,ALGER,"16"
"898",,,,,Service des Impôts,ALGER,"16"
"899",,,,,Impôt Baba Hassen,ALGER,"16"
"900",,,,,Service des impôts,ALGER,"16"
"901",,,,,Inspection des Impots مفتشية الضرائب وادي النجاء,MILA,"43"
"902",,,,,BLOC ADMINISTRATIF ADE APC IMPÔTS,MILA,"43"
"903",,,,,La recette des impotsقباضة الضرائب وادي النجاء,MILA,"43"
"904",,,,,Centre des Impôts,SIDI BEL ABBES,"22"
"905",,,,,Recette d'impots,DJELFA,"17"
"906",,,,,مركز الضرائب لبلدية الشارف,DJELFA,"17"
"907",,,,,Impots Indirects,ADRAR,"1"
"908",,,,,Les impôts,GHARDAIA,"47"
"909",,,,,Centre de proximité des impots,AIN-DEFLA,"44"
"910",,,,,Recette des impôts,AIN-DEFLA,"44"
"911",,,,,Service des Impôts,RELIZANE,"48"
"912",,,,,DGI Direction Générale des Impôts,BOUIRA,"10"
"913",,,,,Centre de Proximité des Impots M'Chedallah,BOUIRA,"10"
"914",,,,,Inspection des impôts,BOUIRA,"10"
"915",,,,,Direction des impôts,TIARET,"14"
"916",,,,,Recette des impots,BEJAIA,"6"
"917",,,,,Impôts,BATNA,"5"
"918",,,,,Service des impôts,SAIDA,"20"
"919",,,,,Bureaux des impots,TIZI OUZOU,"15"
"920",,,,,Inspection des Impôts,TIZI OUZOU,"15"
"921",,,,,مديرية الضرائب,M'SILA,"28"
"922",,,,,قباضة الضرائب,M'SILA,"28"
"923",,,,,Centre des impôts,MOSTAGANEM,"27"
"924",,,,,Centre des Impôts,LAGHOUAT,"3"
"926",,,,,Centre des impôts de Boufarik,BLIDA,"9"
"927",,,,,CPI الضرائب,OUM EL BOUAGHI,"4"
