num,name,address,code_wil,court,tel,status,lat,lon
1,BARIK BOUDJEMAA,CITE 103 LOGTS BP 575 Adrar,1,Adrar,049 96 53 89,physical,28.0174403,-0.2642497
2,BENHADJ AHMED,CITE DES 40 LOGTS LOCAL 25 Adrar,1,Adrar,049 96 67 26,physical,28.0174403,-0.2642497
3,AZZOU ABD ERRAHMANE,Rue Amrad Cité OULED ANKAL Adrar,1,Adrar,049 96 53 19,physical,,
4,MIMOUNI ABDELKADER,"Rue Mokadem El Arbi, lot 30 Group 191 Adrar",1,Adrar,0665 01 20 18,physical,,
5,OULED ALI AHMED,Cité 60 Logements Timimoun Adrar ,1,Timimoun,0555 40 62 94,physical,,
6,AROUCHE HOCINE,CITE BEN HAMMADI ALLAL Timimoun Adrar,1,Timimoun*,,physical,29.2616911,0.2415964
7,BELLAOUI ABDELKADER,Cité casbah Aoulef Adrar,1,Aoulef,0550 40 62 94,physical,,
8,BOUDJELTIA ABDELKADER,42 RUE DES MARTYRS Chlef,2,,,,36.1579664,1.3372823
9,BEN M'HAMED ABDELLAH,53 RUE DE LA REPUBLIQUE Chlef,2,,,,36.1663176,1.3368035
10,BEZIOU MOHAMED,CENTRE COMMERCIAL BOUKADIR Boukadir Chlef,2,,,,36.060248,1.1305809
11,BENOUSSAR AHMED,2 RUE DE LA RESISTANCE Chlef,2,,,,36.1667634,1.3361096
12,HAMADOUCHE ROKIA,4 RUE SI ALLEL Chlef,2,,,,36.1579664,1.3372823
13,SAMET BOUHAYEK DJILLALI,26 RUE EL MOUSSAAD AZZOUN Chlef,2,,,,36.1579664,1.3372823
14,KELLOUCHE ABDELKADER,RUE DES MARTYRS Chlef,2,,,,36.1664031,1.3361486
15,BEN DAOUDIA DRISS,1 CITE 136 LOGTS BT I Chlef,2,,,,36.1579664,1.3372823
16,TERBAK ABDELKADER,24 RUE EL KODS Tenes Chlef,2,,,,36.503668,1.2857665
17,HADJ SADOUK MALIKA,RUE EMIR ABDELKADER Chlef,2,,,,36.1579664,1.3372823
18,MAKHFI MOKHTAR,RUE LES FRERES BEN SOULTAN BP 137 Tenes Chlef,2,,,,36.5081163,1.3078225
19,BEN SAADA MOUSTAPHA,27 RUE DE LA RESISTANCE Chlef,2,,,,36.1659828,1.3363526
20,TEKIA ABDELHAMID,CITE DES FONCTIONNAIRES BT C/1 EMIR ABDELKADER Chlef,2,,,,36.1696316,1.3410486
21,HAMADOUCHE ABDELKADER,4 RUE SI ALLAL Chlef,2,,,,36.1667158,1.3371104
22,DAHMANE SBAIHIA M'HAMED,14 RUE IBN ROCHD Chlef,2,,,,36.1579664,1.3372823
23,AMARI SIHEM,RUE MOSQUEE EL IMEM EL HOUSAIN CITE MAAMOURA Laghouat,3,,,,33.8078341,2.8628294
24,DJERADI YOUCEF,RUE AMIR ABDELKADER CITE EL GHARBIA Laghouat,3,,,,33.8041979,2.8787076
25,SLIMANI MOHAMED,CITE EL MAAMOURA Laghouat,3,,,,33.8078341,2.8628294
26,EL TAHER MAHFOUD,RUE AKKARI BELKACEM Aflou Laghouat,3,,,,34.1139518,2.0973854
27,SASSI HAMID,CITE 1ER NOVEMBRE 54 BT 01 ETAGE 21 Oum El Bouaghi,4,,,,35.8688789,7.1108266
28,BELILI MOHAMED,CITE HIHI EL MEKI BP 163 Oum El Bouaghi,4,,,,35.8742956,7.1225851
29,HAFID SEBTI,AVENUE ZIDOUNI AMARA Ain Beida  Oum El Bouaghi,4,,,,35.7958379,7.3902546
30,BOULKAYLA ALI,RUE ZAOUI ABEDELMADJID Ain Beida  Oum El Bouaghi,4,,,,35.796101,7.3903528
31,BOUDHRAA NADIR,23 RUE IDIR AISSAT Ain M'lila  Oum El Bouaghi,4,,,,36.0370574,6.5702778
32,HILAL RACHID,CITE DES 30 LOGTS Ain Fakroun  Oum El Bouaghi,4,,,,35.9772098,6.8733714
33,YEKHLEF AMAR,9 AVENUE RICHI Ain M'lila  Oum El Bouaghi,4,,,,36.0343972,6.5737863
34,KADEM ABDEREZAK,CITE BEN BOULAID 1150 Oum El Bouaghi,4,,,,35.8688789,7.1108266
35,BOUTEGHRAR ALLAOUA,33 RUE DES FRERES BOUAABSSA Batna,5,,,,35.5634192,6.1889996
36,BENHOUDA BRAHIM,5 BD BENFLIS Batna,5,,,,35.5321898,6.1686094
37,BOUHARA SAID,CITE DES 50 LOGTS BT B ETAGE 13 Batna,5,,,,35.5634192,6.1889996
38,BOUBGUIRA KAMEL,CITE 20 AOUT 1955 Batna,5,,,,35.5561749,6.1720883
39,DELINDA KAMEL,15 RUE CHENAF AMAR QUARTIER VERDURE Batna,5,,,,35.5321898,6.1686094
40,DALINDA SAID,19 PROM IMMOBILIERE BOUZERIA LES ALLEES 19 MARS BLOC 19 1ER ETAGE Batna,5,,,,35.5634192,6.1889996
41,MAARAF ABEDSSELEM,3 RUE LARBI TEBESSI Batna,5,,,,35.5519634,6.1781831
42,BELOUM ABEDELLAH,6 RUE KOUBABI ALI CITE EMIR ABDELKADER Barika Batna,5,,,,35.3844754,5.3713596
43,BELKADHI KHALIFA,6 CITE 200 LOGTS BLOC A Merouana Batna,5,,,,35.6320745,5.9131539
44,BEN HAFIDH AMAR,AVENUE SAID RAHMANI AIN TOUTA Ain Touta Batna,5,,,,35.3808071,5.9020128
45,MADJOUR AISSA,27 CITE FRERES DIBABI BOUAKAL 3EME Batna,5,,,,35.5355017,6.174758
46,BARKAT TAHER,CITE 410 LOGTS BAT 36 Batna,5,,,,35.5634192,6.1889996
47,YOUB KELTHOUM,30 RUE DES FRERES BOUADSA Batna,5,,,,35.5634192,6.1889996
48,ZEKRAOUI BELKACEM,01 ALLES SALAH NEZZAR Batna,5,,,,35.5460591,6.1710809
49,BEKHOUCHE AHMED,RUE MOUSTAPHA BEN BOULAID Batna,5,,,,35.5634192,6.1889996
50,LEBRARA ABDERRAHMANE,RUE  1ER NOVEMBRE 1954 Barika Batna,5,,,,35.3877205,5.3704047
51,LAHDIRI AMAR,BOULEVARD DE LA REVOLUTION Bejaia,6,,,,36.7493649,5.0592183
52,KASSI HOCINE,RESIDENCE DE LA FORET SACREE AVENUE AMIROUCHE Bejaia,6,,,,36.7541855,5.0813739
53,BOUFEDJAR LARBI,ROUTE DES AURESS BT C2 NACERIA Bejaia,6,,,,36.7645536,5.0594622
54,BOUKHARI ZAKIA,96 LOGTS BT A4 28 TOUBALE Bejaia,6,,,,36.7515258,5.0556837
55,BOUGUERA ALI IBN KHEMISTI,CITE DU 1ER NOVEMBRE 54 Kherrata Bejaia,6,,,,36.4936399,5.2770714
56,TAZAMOUCHT NEDJIMA,CITE DES 24 LOGTS ZONE INDUSTRIELLE COMMERCIALE BT A Souk Eltenine Bejaia,6,,,,36.6241834,5.3365405
57,KHABCHECHE EL HAFSSI,AVENUE DU 1ER NOVEMBRE 1954 Kherrata Bejaia,6,,,,36.7493649,5.0592183
58,IDER BELAID,CITE FIGHOU Tazmalt Bejaia,6,,,,36.6241834,5.3365405
59,DAHMANI YOUCEF,RUE DE LA LIBERTE TOUR GENI SIDER 1ER ETAGE Bejaia,6,,,,36.7515258,5.0556837
60,CHEMROUK NADIA,QUAI DE LA GARE Sidi Aich Bejaia,6,,,,36.7493649,5.0592183
61,CHAOU HAMOU,RUE DES FRERES HAFFIF SIDI AHMED Bejaia ,6,,,,36.7493649,5.0592183
62,KATI AHMED,CITE 300 LOGTS NACERIA BT 31 Bejaia,6,,,,36.7406681,5.0461954
63,IBERAKENE IDIR,CITE AGHZEZ AMOKRANE RN N 26 OUZELEKENE Bejaia,6,,,,36.7493649,5.0592183
64,MOHAND CHERIF HASSINA,40 LOGTS BT B 05 RUE DES FRERES DOUAOUDIA Bejaia,6,,,,36.7515258,5.0556837
65,BEN KADOUR LAKHAL,23 CITE 80 LOGTS BT B5 Sidi Aich Bejaia,6,,,,36.6097178,4.6901722
66,AZOUI SALAH,RUE ABDAOUI ABDERAHMANE Biskra,7,,,,34.8553366,5.733139
67,TOUTI FERHAT,2 AVE BELLILI ABOUBAKER SEDDIK Biskra,7,,,,34.8449437,5.7248567
68,SAADAOUI ABED EL HAMID,19 RUE EMIR ABDELKADER Biskra,7,,,,34.8558289,5.7255262
69,SEKOUR MOHAMED,RUE 24 AVRIL Biskra,7,,,,34.8449437,5.7248567
70,BEN MECHICHE ABED EL AZIZ,RUE DES FRERES MENANI Biskra,7,,,,34.8536887,5.7324884
71,BOUSTTA MOHAMED,1 RUE MOHAMED NEDJAR Biskra,7,,,,34.8533182,5.7334047
72,BEN HOURIA BRAHIM,RUE 1er NOVEMBRE 1954 Ouled Djellal Biskra,7,,,,34.4285554,5.0682965
73,MANSOURE ABD NACER,35 RUE MOHAMED EL ARBI BAARIR Biskra,7,,,,34.8567404,5.7254007
74,ABED EL BAKI BEN OMAR,141 CITE ESSADA Tolga Biskra,7,,,,34.7291802,5.3802134
75,DJABRI EL BACHIR,CITE 62 LOGTS 55 CTRE VILLE Bechar,8,Bechar,049 21 67 50 / 0560 02 14 29,physical,31.6238098,-2.2162443
76,RAHMANI MOHAMED,129 Batiment A Rue Meddouni Rachid Bechar,8,Bechar,049 21 18 47,physical,,
77,AMRI BACHIR,531 CITE EL BADR Bechar,8,Bechar,049 81 12 55 / 0662 12 57 87 ,physical,31.6238098,-2.2162443
78,KESSOUL MOHAMED,74 Rue Ezaoui Diab Bechar,8,Bechar,049 22 10 25,physical,,
79,BIA RBIHA,Bloc 04 Cité 68 Logements Centre ville Bechar,8,Bechar,049 22 12 00 / 0660 74 93 44,physical,,
80,SENBA YOUCEF,06 Rue Amir Abd El Kader Debdaba Bechar,8,Bechar,049 22 72 37,physical,,
81,LAABABI HAFIDHA,CITE EL EMIR ABDELKADER 129 BT 1 CTRE VILLE Bechar,8,Bechar*,,,31.6238098,-2.2162443
82,CHEBAH CHERIF,5 CITE 703 LOGTS Beni Abbes Bechar,8,Beni Abbes,049 22 72 37,physical,30.1312217,-2.1662258
83,HAMMOUDA MOHAMED,RUE SBIHI MEHDI Larbaa Blida,9,,,,36.5658397,3.1563962
84,KECHOUT ABDELLATIF,36 RUE MOHAMED BOUDIAF Blida,9,,,,36.4707094,2.8292306
85,MEDJRAB EL HADI,CITE 110 LOGTS BT E5 30 Blida,9,,,,36.4933447,2.8612952
86,LARBI ESSEGHIR,63 AVE AMARA YOUCEF Blida,9,,,,36.4752079,2.8204585
87,CHABANE MOHAMMED,22 RUE BEN ALI Oued El Alleug,9,,,,36.558265,2.793251
88,ARAB CHABANE,CITE SIDI YAKHLEF BT A Blida,9,,,,36.4735715,2.8323153
89,BOUAMRA KHORIS,RUE MUSTAPHA BEN BOUALI Blida,9,,,,36.4711582,2.8305238
90,CHIKER MUSTAPHA,CITE DES 72 LOGTS El Affroun Blida,9,,,,36.4701592,2.625741
91,SALHI MUSTAPHA,CITE BEN BOULAID BT R 3 Blida,9,,,,36.4846841,2.8346336
92,BOUTINE HOUCINE,RUE DES FRERES ALILI AHMED 26 Blida,9,,,,36.4735715,2.8323153
93,TOUMI BEN ALI NAIMA,RUE AYOUNA MOHAMED Blida,9,,,,36.4860147,2.8263335
94,TIGHERSI AHMED,CITE NOUVELLE MEFTAH BLOC 11 RDC Blida,9,,,,36.5210052,3.0730945
95,KHIARI ABDELMALEK,RUE DES FRERES DJARBOUA Blida,9,,,,36.4735715,2.8323153
96,SOUALMI ABDERAHMAN,19 CTRE ZABANA RUE D Blida,9,,,,36.4799716,2.8063907
97,ATMANI MUSTAPHA,27 RUE BELKACEM  LOUZERI Blida,9,,,,36.4768074,2.8305802
98,ARACHE NOUREDDINE,17 AVE SI SMAIL OUA SOUIDANI BOUDJEMAA Boufarik Blida,9,,,,36.5709339,2.9112103
99,MEHAFDI ABDELAZIZ,CITE DES 128 LOGTS BT B4/4 Meftah Blida,9,,,,36.6223869,3.2261299
100,TRAD KARIMA,RUE DU 11 DECEMBRE 1960 CITE PIMA BT E N 5 Blida,9,,,,36.4887391,2.8213773
101,MESSAOUDI MOHAMED,CITE ALILI AHMED Boufarik Blida,9,,,,36.5832413,2.9121256
102,ZGHIDI SOUAD,2 RUE ZAGHOUANI ABDELKADER Ouled Yaich Blida,9,,,,36.4971139,2.8609977
103,RAHOU ASMA,TRANCHE SLIMANI Chiffa Blida,9,,,,36.4624901,2.7410554
104,HADJI ASSIA,CITE 1240 LOGTS  Ouled Yaich Blida,9,,,,36.4941553,2.862698
105,CHIKER MOUSTAPHA,CITE 250 LOGTS El Affroun Blida,9,,,,36.4701592,2.625741
106,AMEUR ZAKARIA,20 RUE DOUISSI ABDELKADER El Affroun Blida,9,,,,36.4701592,2.625741
107,OUSSALEM ARAB,8 AVENUE TAKARLI ABDERREZAK Blida,9,,,,36.468349,2.832168
108,IKHLEF MAHFOUD,CITE 30 LOGTS BT 1 BEN BOULAID Blida,9,,,,36.4746249,2.8309837
109,KHALED KOUIDER,RUE DIDOUCHE MOURAD 11 Blida,9,,,,36.4733907,2.8277988
110,SEBIHI SADEK,RUE 11 DECEMBRE 1960 127 Blida,9,,,,36.4887391,2.8213773
111,KHELFI LYNDA,CITE 5 JUILLET B 39  Beni Merad,9,,,,36.5207695,2.8602746
112,DRAFLI HOURIA,RUE MOHAMED BOURAS Boufarik Blida,9,,,,36.6631541,3.1069769
113,BECHE AHMED,CITE HADJ MERZOUK BT A 1 Bouira,10,,,,36.3627656,3.8980721
114,AMROUNE MAAMAR,RUE EMIR ABDELKADER Sour El Ghozlane Bouira,10,,,,36.1508804,3.7074189
115,BOUDAR YOUCEF,CITE TAZGHARAT ACHOUR BT A 1 Bouira,10,,,,36.3627656,3.8980721
116,BOUSAAD GUEMMAZ,BT ZEMMOUR MOHAMMED IRAB 69 Bouira,10,,,,36.3691846,3.9006194
117,HARKAT AMAR,CITE DES 280 LOGTS BT 9 1 Bouira,10,,,,36.372297,3.892094
118,BOUCHOUANE MESSAOUD,5 RUE SI LAKHDER Lakhdaria Bouira,10,,,,36.5655989,3.593173
119,TOUNSI YAHIA,R.N. 5 RUE COLONEL SI LAKHDER Bouira,10,,,,36.5655989,3.593173
120,ABDELAOUI ZOULIKHA,CITE DES 120 LOGTS BT 1 APPT 3 Bouira,10,,,,36.5389502,3.675159
121,KARI NAIMA,CITE DES 126 LOGTS BOUTERMAS MESSAOUD BT 1 1 ER ETAGE Bouira,10,,,,36.3691846,3.9006194
122,KAOUANE MESSAOUD,6 CITE ARADH SALAH Ain Bessem Bouira,10,,,,36.3337514,3.687402
123,TAIB MOHAMED RACHID,CITE BOUTRIK M'BAREK Sour El Ghozlane Bouira,10,,,,36.3879398,3.9010477
124,BERNOU HAMID,9 RUE SAAD M'SILI Ain Bessem Bouira,10,,,,36.3337514,3.687402
125,DJEMAA MOUHOUCHE,CITE 56 LGTS RUE ABANE RAMDANE Bouira,10,,,,36.3712008,3.9013973
126,HAMIDI AISSA,CITE BOUTARMAS 126 LOGTS BT 4 1 Bouira,10,,,,36.3691846,3.9006194
127,NIAR IBRAHIM MOHAMMED,CITE 65 LOGTS RUE ABANE RAMDANE Lakhdaria Bouira,10,,,,36.5660649,3.5960213
128,ABDELBAKI MADANI,AVENUE DU 5 JUILLET SERSOUF Tamanrasset,11,,,,22.7902972,5.5193268
129,REKANI NADJEM,BOULEVARD MOKRANI SAID Tamanrasset,11,,,,22.7902972,5.5193268
130,MOULAY SLIMANE,BP 315 In Salah Tamanrasset,11,,,,27.2026311,2.4878487
131,BEN SAAD ELLAH BRAHIM,RUE EL EMIR ABEDELKADER Tebessa,12,,,,35.4010797,8.1172958
132,ABANE SAAD,269 RUE SI ALI BEN LAMANI MAISON ROMAINE Tebessa,12,,,,35.402131,8.120509
133,MOUISSI ABEDELLAH,RUE DE LA BASILIC ROMAINE Tebessa,12,,,,35.3879968,8.1065235
134,GHRIB RACHID,6 QUARTIER DE LA ROMONTE ILOT 224 Tebessa,12,,,,35.4010797,8.1172958
135,AHMED CHAOUCHE LARBI,1 CITE DERBASSI KHELIL Tebessa,12,,,,35.417958,8.1167895
136,BOUTERAA ABEDERRAHMENE,RUE DE TEBESSA Cheria Tebessa,12,,,,35.3879968,8.1065235
137,REBII RAFIK,43 CITE 84 LOGTS Bir El Ater Tebessa,12,,,,34.749839,8.0577526
138,BEN FADHA MOHAMED TAHER,CITE 08 MAI 1945 El Aouinet Tebessa,12,,,,35.8680504,7.8861697
139,BEN DIHDJI THOURIA,18 Boulevard de l’indépendance Tlemcen,13,Tlemcen,043 26 31 32,physical,,
140,SEBAGH MOHAMED,"Cité ennahda 1079, 322 logements Tlemcen",13,Tlemcen,043 21 47 51 / 043 21 44 92,physical,,
141,BEN KEDDA FETH ALLAH,02 Cité des Amendiers Tlemcen,13,Tlemcen,043 26 70 97 / 043 26 70 95,physical,,
142,FERHAT HASSINA,Résidence Pomaria Boulevard Drar Abd errahmane Batiment B1 n1 El Kiffane Tlemcen,13,Tlemcen,043 56 40 61 / 0560 59 51 18,physical,,
143,YAKOUBI ABDELHAFID ,04 Rue Drar Abderrahmane Tlemcen,13,Tlemcen,043 41 30 96 ,physical,,
144,MOHAMMEDI NOUREDDINE,16 RUE DE LA PAIX Tlemcen,13,Tlemcen,043 26 18 54,physical,34.8831751,-1.31197
145,GHAYAT ABEDELKRIM,2 AVE COMMANDANT DJABER Tlemcen,13,Tlemcen,043 26 27 86,physical,34.8831751,-1.31197
146,AZZOUNI ABDELLATIF,13 RUE COMMANDANT MOKHTAR BOUZIDI Tlemcen,13,Tlemcen,043 26 13 41,physical,34.8831751,-1.31197
147,BOUKLI HACEN ABED EL GHANI,12 RUE SIDI LAHCEN BAB SIDI BOUMEDIENNE Tlemcen,13,Tlemcen,043 26 47 77,physical,34.8851606,-1.3058288
148,HADJ SAID MOUSSA,4 RUE COMMANDANT DJABER Tlemcen,13,Tlemcen,043 26 56 39,physical,34.8831751,-1.31197
149,HACHEMAOUI AHMED,Cité El Kiffane n 03 Drar Abderrahmane Kara Slimane Tlemcen,13,Tlemcen,043 56 40 17,physical,,
150,Société Civile AIN SEBAA BOUZIANE & FAIZA,Cité menuisier batiment E n 02 Tlemcen,13,Tlemcen,043 56 41 45 / 043 56 41 44 ,company,,
151,DALI YOUCEF AMAR,45 Rue Docteur Tidjani Damerji Tlemcen,13,Tlemcen,043 20 43 38,physical,,
152,BELYAKOUBI BELKHIR,Cité Enassim 1079 logements Batiment M n° 02 El Imama Tlemcen ,13,Tlemcen,043 21 37 50,physical,,
153,AMAR ZENATI ABD EL HALIM,02 Rue Belgaid sid Ahmed Tlemcen,13,Tlemcen,043 27 82 40 / 0553 69 63 03,physical,,
154,ABED BERRACHED BOUCIF,26 Rue Ibn Khamis Tlemcen,13,Tlemcen,043 27 30 25 / 0559 06 07 42,physical,,
155,BELKAID KAMILA,Rue Ali Ain Nedjar n 04 cité Ain Nedjar Tlemcen,13,Tlemcen,043 41 11 11 / 0770 28 58 11,physical,34.8854938,-1.3051281
156,BEMOUSSAT ABIR SANAA,08.03 Boulevard Commandant Mokhtar Tlemcen,13,Tlemcen,0770 93 69 18 / 043 26 25 53 ,physical,,
157,MAHI ABDEREZZAK ,05 Rue Ain Sebaa Ali Bel Horizon Tlemcen,13,Tlemcen,043 41 54 42 / 043 38 22 21,physical,,
158,MEDJATI ABDERREZAK,Cité 1060 Logements Imama Tlemcen,13,Tlemcen,0776 35 57 80 / 043 41 42 62,physical,,
159,ALI EL ARBI KHEIR EDDINE,05 Rue Frère Abd El Djebbar Tlemcen,13,Tlemcen,0774 00 90 65,physical,,
160,GHITRI ZINE EL ABIDINE ,19 Rue de la paie Tlemcen,13,Tlemcen,043 26 24 56 / 0661 22 21 14,physical,,
161,ABBAD ABD EL MADJID,Rue Kaouar Houcine 112 Logements Batiment B Tlemcen,13,Tlemcen,043 27 21 79,physical,,
162,ESSENOUBAR AHMED,Rue Ain Sebaa Ali Batiement Hamza Echerrif Ain Nedjar Tlemcen,13,Tlemcen,043 56 44 60 / 0660 44 56 43,physical,,
163,BOUMADANI AMMARA,05 Rue Frère Abd El Djebbar Tlemcen,13,Tlemcen,043 56 35 96,physical,,
164,DJELAILIA AHMED,Cité Ennasim 1079 Logements Tlemcen,13,Tlemcen,043 21 00 02,physical,,
165,MOHAMMEDI NOUREDDINE,16 RUE DE LA PAIX Tlemcen,13,Tlemcen*,,physical,,
166,BEN SNOUSSI BOUZIANE,4 TRANCHE KARA SLIMEN EL KIFFEN Tlemcen,13,Tlemcen*,,physical,34.8828864,-1.3166815
167,MEDJAOUI ABDELKRIM,RUE DES FRERES SEDDIKI Remchi Tlemcen,13,Remchi,043 43 72 27,physical,35.0609828,-1.4304801
168,ASMI LAHCEN,Rue Les Castors El Henaia Remchi Tlemcen,13,Remchi,040 91 78 43 / 0554 69 16 69,physical,,
169,DJENANE MOHAMED,Rue Akid Amirouche Remchi Tlemcen,13,Remchi,043 43 80 30 / 043 43 72 89 / 0771 72 69 23 ,physical,,
170,BOUSTAOUI FATIHA,22 Rue Azar Ahmed El Henaia Remchi Tlemcen,13,Remchi,043 27 98 60,physical,,
171,SALI HOURIA ,Rue Ben Said Abd Allah Remchi Tlemcen,13,Remchi,043 57 52 57 / 0790 35 37 13,physical,,
172,SEHOULI MOUSSA,15 BIS Rue Si Merbah Remchi Tlemcen,13,Remchi,043 43 79 18,physical,,
173,BEN SALAH MOHAMED REDA,120 Logements Premier étage Remchi Tlemcen,13,Remchi,043 53 50 93,physical,,
174,AZMANI ABDERREZAK,45 RUE EL MAGHREB DEGNAOUA Nedroma Tlemcen,13,Nedroma,043 45 74 18 / 043 45 74 72,physical,35.0292918,-1.7666936
175,RAHMOUN MOHAMED,El Minia Premier 2tage Nedroma Tlemcen,13,Nedroma,043 45 50 14,physical,,
176,BALOUT TOUHAMI,116 CITE KASMI ABDELKADER RTE BELABES Ouled Mimoun Tlemcen,13,Ouled Mimoun,043 36 29 51 / 0665 69 35 07,physical,34.9044116,-1.0342358
177,KHELIFI ABD EL AZZIZ,18 Rue Meddoun Lakhdar Oueld Mimoun Tlemcen,13,Ouled Mimoun,043 36 28 75,physical,,
178,SENOUSSAOUI KARIMA,114 Rue Merahi Miloud Ouled Mimoun Tlemcen,13,Ouled Mimoun,043 36 33 16,physical,,
179,HAMDAOUI EL HABRI,CENTRE COMMERCIAL CITE DES SABLE Ghazaouet Tlemcen,13,Ghazaouet,043 47 13 48 / 0663 74 81 33,physical,35.0936543,-1.861861
180,BEN CHAA KHALED,Rue de la Republique Ghazaouet Tlemcen,13,Ghazaouet,043 32 69 65,physical,,
181,KHALID ABD EL KRIM,Cité Essayeh Missoum Batiment A Ghazaouet Tlemcen,13,Ghazaouet,043 46 72 51 / 0560 08 82 22,physical,,
182,SALAH CHAKIB,Route nationale 07 Maison 110 Tounane Ghazaouet Tlemcen,13,Ghazaouet,043 47 90 40 / 0559 41 99 99 ,physical,,
183,SALAH NEZILA,Coin Rue des martyres et Rue Salah Abd El Kader Ghazaouet Tlemcen,13,Ghazaouet,043 47 22 19,physical,,
184,SAADAOUI SALEH,RUE DE LA PALESTINE Sebdou Tlemcen,13,Sebdou,043 54 42 63,physical,34.6376648,-1.3329676
185,BELBACHIR ZOHEIR,Rue Abd El Hamid Ibn Badis Sebdou Tlemcen,13,Sebdou,043 54 77 40,physical,,
186,TAHAR SIDI MOHAMED,Cité 148 Logements Batiment B n 51 étage 01 Sebdou Tlemcen,13,Sebdou,043 54 67 15 / 0771 57 46 42,physical,,
187,ASSMI AHCEN,66 RUE 1ER NOVEMBRE 54 Maghnia Tlemcen,13,Maghnia*,,physical,34.8487433,-1.726959
188,KIHEL ABED EL AZIZ,52 Rue Ben Badis Maghnia Tlemcen,13,Maghnia,043 31 56 02,physical,34.8486597,-1.7293536
189,BERBER MOHAMED,08 Rue Mustapha Ben Boulaid Maghnia Tlemcen,13,Maghnia,043 50 22 28,physical,,
190,LEHBAB MOUSSA,61 Rue Akid Amirouche Maghnia Tlemcen,13,Maghnia,043 49 57 84 / 043 49 52 74,physical,,
191,RAHOUI NAWAL,45 Rue Zighout Youcef Maghnia Tlemcen,13,Maghnia,043 43 69 10 / 043 50 25 30,physical,,
192,CHERIFI AMAR,09 Rue El Arbi Tebessi Centre ville Maghnia Tlemcen,13,Maghnia,043 49 55 66 / 0792 97 47 31,physical,,
193,MIRAOUI KAMAL,87 rue Akid Lotfi Maghnia Tlemcen,13,Maghnia,043 49 57 28 / 0550 45 49 98,physical,,
194,TARAD ISMAIL,18 Rue Ben Rached Maghnia Tlemcen,13,Maghnia,043 49 10 64 / 0552 35 60 51,physical,,
195,HASNAOUI MOHAMED SALIM FAICAL,06 Rue Ben Rached Maghnia Tlemcen,13,Maghnia,043 51 56 05 / 043 51 51 54 / 0656 69 44 72,physical,,
196,EL ARBI CHERIF MILOUD,Rue Sud Batiement B Centre ville Maghnia Tlemcen,13,Maghnia,043 49 10 41 / 0661 31 44 16,physical,,
197,LOUNES ALI,24 RUE EMIR ABDELKADER Tiaret,14,Tiaret*,,physical,35.3763256,1.3135742
198,LAZRAG YAMINA,3 600 LOGTS BT C11 CADAT Tiaret,14,Tiaret*,,physical,35.3593621,1.3174019
199,REGRAG MILOUD,26 Rue de la victoire Tiaret,14,Tiaret,046 41 71 88,physical,,
200,BOUDALI KHALED,04 Rue Beljilali Habib Tiaret,14,Tiaret,046 41 69 06,physical,,
201,CHERFI MOHAMED,02 Rue Ali Bekhtou Tiaret,14,Tiaret,046 41 56 33,physical,,
202,REBHI AHMED,Rue Ael Amir Abdelkader Mehdia Tiaret,14,Tiaret,046 46 32 02,physical,,
203,SI MERABET MOULAY,08 Rue Kettoune Ali Tiaret,14,Tiaret,046 41 52 39,physical,,
204,SEDIKKI MOKHTAR,04 Rue de l’indépendance Tiaret,14,Tiaret,046 20 56 98,physical,,
205,ZELMAT BRAHIM,12 Rue Ali Bekhtou Tiaret,14,Tiaret,0776 98 32 06,physical,,
206,DEBABECH HACHANI,20 Rue de l’indépendance Tiaret,14,Tiaret,046 41 54 77,physical,,
207,BAHRI BOUMEDIENNE,10 Rue de l’indépendance Tiaret,14,Tiaret,0798 13 75 79 / 046 20 52 36,physical,,
208,BEN MAGHNIA MOHAMED,28.08 Rue Amir Abdelkader Tiaret,14,Tiaret,046 41 24 39,physical,,
209,ZEMAM KHALIL,06 Rue Belhadj Hachemi Tiaret,14,Tiaret,046 41 56 00,physical,,
210,TARCHOUN FIROUZ,Ilot 82 logements Route d’el Asima n 14 42 43 Tiaret,14,Tiaret,046 41 61 44,physical,,
211,BOUZEKRI ABD EL KADER,17 Rue de l’indépendance Tiaret,14,Tiaret,046 20 55 63,physical,,
212,BELHAOUAA ALI,Rue Bouchareb Nacer Sougueur Tiaret,14,Sougueur,046 43 88 28,physical,,
213,CHEBHA ABDALLAH,Rue Si Abd Ghani Sougueur Tiaret,14,Sougueur,046 43 04 59,physical,,
214,BEKHTIL ABD ERRAHMANE,08 Rue Premier Novembre Sougueur Tiaret,14,Sougueur,046 43 66 85 / 0550 32 78 34,physical,,
215,CHAALAL ABDELKADER,27 Boulevard Maamri Missoum Sougueur Tiaret,14,Sougueur,0793 20 03 22,physical,,
216,CHIBOUT BOUMEDIENNE,Rue Lieutenant Noureddine Frenda Tiaret,14,Frenda,046 40 68 42,physical,,
217,BELFEDEL RABIE ETAHAR,Centre ville Frenda Tiaret,14,Frenda,0774 64 41 04,physical,,
218,BOUCHENTOUF ABD EL KADER,Hai el Badr Kasr Chellala Tiaret,14,Kasr Chellala,046 36 03 27,physical,,
219,ZITOUNI FADILA,Boulevard Akid Si Cherif  Kasr Chellala Tiaret,14,Kasr Chellala,046 46 72 09,physical,,
220,HABIB AHMED,Cité 18 Avril  Kasr Chellala Tiaret,14,Kasr Chellala,046 36 45 27 / 0658 37 13 19 / 0772 71 06 54,physical,,
221,OUAZINE MOUSSA,RUE SI M'HAMED BOUGERA Ksar Chellala Tiaret,14,Kasr Chellala*,,,35.2181066,2.3153581
222,MEZIANI YOUCEF,CITE DES 32 LOGTS BT B 1 Azazga  Tizi Ouzou,15,,,,36.7453947,4.3714004
223,BELOUNIS NASREDDINE,12 RTE DE BOGHNI Draa El Mizan  Tizi Ouzou,15,,,,36.5329303,3.9611136
224,TOUMI AKLI,38 AVENUE KHOUDJA KHALED Tizi Ouzou,15,,,,36.7353068,3.9849727
225,HAMLIL AMAR,CITE EUCALYPTUS BT A 62 Tizi Ouzou,15,,,,36.7118815,4.0488682
226,ZENBOUDJI AHMED MOUSADDEK,CITE HAMMOUTENE 24 Tizi Ouzou,15,,,,36.7104686,4.0650031
227,BELACEL BOUBEKEUR,RUE AMIROUCHE AIT BEN AMARA Tizi Ouzou,15,,,,36.7389973,4.0108251
228,BOUHERAOUA HOCINE,CITE DES 200 VILLA COOP. KAHINA N°1 Tizi Ouzou,15,,,,36.7335539,3.9618589
229,KEBBAS ZAHIA,CITE DES FONCTIONNAIRES BT 7 9 Tizi Ouzou,15,,,,36.7122399,4.0556532
230,DJAAFOUR RACHID,CITE 18 LOGTS BT 1 2 Boghni  Tizi Ouzou,15,,,,36.5329303,3.9611136
231,ZAAMOUM HOUCINE,RUE DES FRERES MAAMRI Boghni  Tizi Ouzou,15,,,,36.5329303,3.9611136
232,GHIAR BOUSAAD,RUE DU 1ER NOVEMBRE BP 501 Ain El Hammam  Tizi Ouzou,15,,,,36.5698193,4.3120324
233,OUANOUGHI SAID,RUE CHAFAI AHMED IMMEUBLE YAHYAOUIALI Tigzirt  Tizi Ouzou,15,,,,36.7117061,4.0552492
234,ZOULIM DJAMEL,CITE DES PALMIERS BT A 18 Tizi Ouzou,15,,,,36.713548,4.0473075
235,MOALI FOUZIA,ROUTE DES TOURS VILLA 1 IMMEUBLE BEN YAHI Tizi Ouzou,15,,,,36.7163828,4.0407774
236,KAMEL ABDERRAHMAN,BOULEVARD AHMED ZAIDET Azazga  Tizi Ouzou,15,,,,36.7453947,4.3714004
237,ISSAD TASSADIT,25 RUE DU 20 AOUT 1956 IMMEUBLE ZERIOUL Azazga  Tizi Ouzou,15,,,,36.7453947,4.3714004
238,OUALMI LOUIZA,RUE KASRI AHMED IMMEUBLE REZZOUK ILOT CENTRAL 39 Tizi Ouzou,15,,,,36.7308862,3.9663581
239,TERBAH RACHID,CITE 15 LOGTS PREMIER ETAGE 6 Draa El Mizan  Tizi Ouzou,15,,,,36.53572,3.8364355
240,SERBOUH KAHINA,CENTRE VILLE Larba Nath Irathen  Tizi Ouzou,15,,,,36.6388682,4.2031576
241,ASLA KHEIREDDINE,RUE DES MOUDJAHIDINE VILLA C 01 1ER ETAGE Azazga  Tizi Ouzou,15,,,,36.7453947,4.3714004
242,ZOULIM DJAMEL,18 CITE DES PALMIERS BT A Tizi Ouzou,15,,,,36.713548,4.0473075
243,KAMEL ABDERRAHMANE,BD COLONEL AMIROUCHE Azazga  Tizi Ouzou,15,,,,36.7453947,4.3714004
244,DALI DJAMILA,96 RUE KHODJA KHALED Tizi Ouzou,15,,,,36.7061801,4.0386069
245,IMAD HOCINE,RUE MAGHNEM MOHAMED AKLI 104 LOGTS Tizi Ouzou,15,,,,36.713548,4.0473075
246,GHELLAB RACHID,RUE ABANE RAMDANE CITE 60 LOGTS APPT 5 Tizi Ouzou,15,,,,36.7057476,4.0546069
247,KHANOUS MALIKA,RUE MOHAMED AOUDIA BT 2 2EME ETAGE Tizi Ouzou,15,,,,36.7133875,4.049744
248,SAADI ABDELLAH,CITE 180 200 BAT 8 APPART 01 Bab Ezzouar  Alger,16,,,,36.7220182,3.1856806
249,CHAMBRE NATIONALE DES NOTAIRES,2 RUE EL BAKRI Ben Aknoun Rp Alger,16,,,,36.7646339,3.0156492
250,BOUCHALI FOUZIA,12 RUE MOULOUD ZADI ET LE 110 ANGLE DIDOUCHE MOURAD LE SACRE COEUR Alger ,16,,,,36.7637381,3.048095
251,CHIALI HIND,157 CITE AISSAT IDIR Cheraga Rp Alger,16,,,,36.7578281,2.9572724
252,OUBAD NADJET,62 R.N.  Bainem Alger,16,,,,36.8127227,2.9625921
253,BENZAOUI HAMMOU,4 ET 5 RUE CHEIKH BACHIR EL IBRAHIMI BP 303 El Harrach Alger,16,,,,36.7189505,3.1417051
254,DERARDJA ABDELKRIM,10 RUE ABANE RAMDANE Alger,16,,,,36.778884,3.059357
255,SOCIETE CIVILE PROFESSIONNELLE NOTARIALE NOURI HAMMOUM & ALLAOUA SAID,70 RUE DE TRIPOLI Hussein Dey Rp Alger,16,,,company,36.7445821,3.0944025
256,BOUTER KHELIFA,8 RUE AHMED MOKRANI El Harrach Alger,16,,,,36.7204806,3.1405843
257,ZEMIR MOSTEFA,12 AVENUE MOHAMED BOUKELLA Bab El Oued Alger,16,,,,36.7943835,3.0523634
258,MERAD KADDOUR,4 RUE EL BEKRI El Biar Alger,16,,,,36.7694847,3.0309897
259,BACHA SALIM,18 AVENUE BOUBELLA MOHAMED Bab El Oued Alger,16,,,,36.7943835,3.0523634
260,RABAHI AMAR,CITE 44 LOGTS BT A/2 Zeralda Alger,16,,,,36.711348,2.8380608
261,KLOUCHE AMINA,CITE RABIA TAHAR BATIMENT 9 C 263 Bab Ezzouar Alger,16,,,,36.7227952,3.1798486
262,BOUKHELKHAL ALI,95 RTE DE CHERAGA Dely Ibrahim Alger,16,,,,36.7543235,2.9730065
263,IMANDASSEN MOHAMED AMEZIANE,28 BOULEVARD ZIROUD YOUCEF  Khelifa Boukhalfa Alger,16,,,,36.7667039,3.0539096
264,ZITOUNI MERIEM,31 AVENUE COLONEL AMIROUCHE Alger,16,,,,36.7704344,3.0578615
265,MIROUH RABAH,CITE DAUPHIN VILLA DAR ESSALAM 11 Draria Alger,16,,,,36.720057,2.9951112
266,MIMOUNI NOUREDDINE,2 RUE MOHAMED IDRIS BEY Alger ,16,,,,36.7610218,3.0564266
267,ALI NEMRI,37 RUE LARBI BEN MHIDI Alger ,16,,,,36.7793569,3.0580611
268,HAMMADI OUADHOUR,40 BD MOHAMED 5 Alger,16,,,,36.76787,3.0523284
269,HENTABLI AHMED,7 RUE ABDELKEDER SELLAL El Mouradia Alger,16,,,,36.7409527,3.0543286
270,EL HADJ MESSAOUD MOHAMED,7 RUE DES FRERES ZEGHNOUNE BELLE VUE El Harrach Alger,16,,,,36.7279477,3.1388886
271,BENAMIROUCHE ABDELKADER,CITE 632 LOGTS BT 55 6 Mohammadia Alger,16,,,,36.7303904,3.1472242
272,BEDJAOUI KHENFER AZZEDINE,1 CITE 300 LOGTS BT 20 EX 15 Bab Ezzouar Alger,16,,,,36.7514093,3.0585793
273,BOUSRI MOKHTAR,CITE DES 310 LOGTS BT D 39 1 LES BANANIERS Mohammadia Alger,16,,,,36.730841,3.1659437
274,BENAGGOUN CHERIF,AVENUE 11 DECEMBRE 1960 24 Bordj El Kiffan Alger,16,,,,36.7740428,3.2625559
275,ZAANANI NADIA,CITE DES 618 LOGTS BT 9 El Harrach Alger,16,,,,36.7209669,3.1376625
276,MANSOURI RABAH,CITE 1ER NOVEMBRE 32 LOGTS BT A/1 Dar El Beida Alger,16,,,,36.7139279,3.21325
277,ARICHI BACHIR,CITE 5 JUILLET BT D 01 Bab Ezzouar Alger,16,,,,36.7215061,3.1828809
278,AYAD AHMED,CITE HLM DES 70 LOGTS CAGE B 11 Baraki Alger,16,,,,36.6685704,3.1025581
279,EL ARBI BOUAMRANE,10 BD TALEB ABDERRAHMANE Bab El Oued Alger,16,,,,36.79024,3.0567318
280,BOUKHARI RABAH,17 AVENUE COLONEL LOTFI Bab El Oued Alger,16,,,,36.7910119,3.0549077
281,BENABID MOHAMMED TAHAR,03 AVENUE DU 1 ER NOVEMBRE 1954 Alger ,16,,,,36.787873,3.0629224
282,BADECHE ALI,02 RUE AHMED TOUZAM Bab El Oued Alger,16,,,,36.7904262,3.0520959
283,MOHAMED YAHIAOUI AMMAR,APART CITE ANCIENS MOULINS Bab El Oued Alger,16,,,,36.7943835,3.0523634
284,AFOUFOU ABDESSALEM,7 RUE OMAR AMIMOUR Alger  Centre Alger,16,,,,36.7712246,3.0612244
285,AMROUCHE ALI,02 RUE DERBOUZ LOUNI AREZKI Bab El Oued Alger,16,,,,36.7884999,3.0585282
286,SI HACENE NADJIA,12 RUE DIDOUCHE MOURAD Alger  Centre Alger,16,,,,36.7696875,3.0552229
287,CHAIB MOHAMED,05 RUE DES FRERES MERZOUK Bab El Oued Alger,16,,,,36.7943835,3.0523634
288,BENMOUBAREK AHMED,04 RUE SAID HAMDINE Bir Mourad Rais Alger,16,,,,36.732839,3.0381036
289,MANSOUR ABDELLAH,NOUVELLE RTE 149 Bouzareah Alger,16,,,,36.788908,3.017453
290,ZITOUNI BOUDJEMAA,CITE 604 LOGTS BATIMENT 47 01 Bir Mourad Rais Alger,16,,,,36.7323545,3.0497609
291,LADJEL NAIMA,CITE ZIANNIA BT 5 CHEVALLY Bouzareah Alger,16,,,,36.7696236,3.008815
292,MANSOURI OUDINA NADIA,CITE DES SOURCES BATIMENT 10 B 3 Bir Mourad Rais Alger,16,,,,36.7331108,3.0554289
293,IMAD MOHAMED,ROUTE SIDI YAHIA Hydra Alger,16,,,,36.7387861,3.04359
294,CHIHANI ABDELKADER,01 AVENUE AMRANE AHMED El Biar Alger,16,,,,36.7688987,3.0260599
295,NASSAR SALAH-BEY SALIHA,11 CITE AHCEN MEHYOUZ EX ASFODEL BT B CAGE 2 Ben Aknoun Rp Alger,16,,,,36.7597697,3.0138343
296,DHERBANI LAKHDAR,CITE CHAHID MAHDID SALAH BT F Birkhadem Alger,16,,,,36.7160675,3.0496695
297,BADI ABDELHAMID,101 NOUVELLE ROUTE Bouzareah Alger,16,,,,36.7904362,3.0173207
298,BEN AKILA ABDELKADER,10 CITE SAID HAMDINE BT 8 Bir Mourad Rais Alger,16,,,,36.7353482,3.0383576
299,AIT BOUDAOUD ISMAIL,CITE LES ANNASSERS 2 BT B29/2 Kouba Alger,16,,,,36.7341842,3.066072
300,MELAKHSSOU TAHAR,81 RUE KRIM BELKACEM Alger  Centre Alger,16,,,,36.7695198,3.0504901
301,SAIDI MOHAMMED CHERIF,CITE BACHJERAH BT 39 ISSUE 3 01  Khelifa Boukhalfa Alger,16,,,,36.766362,3.053652
302,AMIROUCHE AZZEDDINE,CITE DOUZI 3 428 Bab Ezzouar Alger,16,,,,36.736469,3.18412
303,REGANI NADJEM,CITE BACHJERAH BT 62/2 Bachedjerah Alger,16,,,,36.7193746,3.1116446
304,DENANE KHEDIDJA,AVENUE BOUDJEMAA MOGHNI BT ESSALEM CAGE C 28 Hussein Dey Rp Alger,16,,,,36.7388579,3.1005586
305,AIT KACI BOUALEM,01 RUE MESBAH HAMIDOU Kheraicia Alger,16,,,,36.7027252,3.0227071
306,BENABDELLAH MOULOUD,RUE BELHADID Kheraicia Alger,16,,,,36.6679107,2.9982768
307,OUADI MENNI HOURIA,232 LOT. BOULANGERIE INDUSTRIELLE Cheraga Rp Alger,16,,,,36.7668544,2.9602011
308,BOUDJENANA ABDELKADER,CITE ALI KERKOUBA BP 130 Kouba Alger,16,,,,36.7260163,3.0826673
309,DJIDJEK SALAH,78 RUE DES FRERES ABDESLAMI Kouba Alger,16,,,,36.728999,3.0805174
310,BELLAHCENE ABDELKADER,9 RUE AHCEN KHMISSA  Sidi M'hamed Alger,16,,,,36.7468799,3.0551056
311,KRIM LEILA,AVE 1ER JUILLET BT 70 Birkhadem Alger,16,,,,36.721798,3.0287448
312,ZEMIRLI OURIDA,CITE 1 BT 2/8 Kouba Garidi Alger,16,,,,36.7273022,3.0673808
313,ZERRAG YOUCEF,118 CITE 20 AOUT 1955 BT 4 Rouiba Rp Alger,16,,,,36.7358928,3.2779879
314,SEDRATI BOUZID,LOTISSEMENT LA CADET VILLA 14 Rouiba Rp Alger,16,,,,36.7358928,3.2779879
315,SAHEB ABDERRAHMANE,CITE 150 LOGTS BT 9 31 Rouiba Rp Alger,16,,,,36.7438381,3.2850861
316,BOUKHAROUBA SAMIRA,04 RUE KHELIFA BOUKHALFA Alger,16,,,,36.7445311,3.0938679
317,MERABET AHMED,64 CITE EL MOUDJAHIDINE CHEVALLY Ben Aknoun Rp Alger,16,,,,36.7696236,3.008815
318,ABBES AHMED,1 RUE ABDELKRIM CHEBOUT Hussein Dey Rp Alger,16,,,,36.7413901,3.0993429
319,BELHADJ AHMED,6 RUE DAIB AISSA Bordj El Kiffan Alger,16,,,,36.7460195,3.1913182
320,DJADIDI MAARADJ,11 RUE DES FRERES HAMZA Dely Ibrahim Alger,16,,,,36.7520272,2.9841482
321,REZAK LABZA SAID,CITE AISSAT IDIR BT 07 El Harrach Alger,16,,,,36.7209669,3.1376625
322,ABDELLAH SLIMANE,CITE PATRIMOINE C9 El Magharia Alger,16,,,,36.7304225,3.1100238
323,ATICHE HANI ABDELHAMID,116 AVENUE DIDOUCHE MOURAD  Mourad Didouche Alger,16,,,,36.7635509,3.046542
324,AMRANI BAHIA,01 RUE COLONEL AMIROUCHE PROMOTION IMMOBILIERE SAADA Bordj El Kiffan Alger,16,,,,36.7941454,3.2903027
325,MOURAD KADOUR,4 RUE EL BEKRI Ben Aknoun Rp Alger,16,,,,36.7597697,3.0138343
326,MESSAOUDI SEDDIK,21 RUE ALI MEDOUCHE Hussein Dey Rp Alger,16,,,,36.734132,3.1006781
327,MOUISSI ABDELKADER,8 RUE BADREDDINE RIDJIMI Kouba Alger,16,,,,36.7322951,3.0870573
328,NAIT CHABANE AMER,67 RUE BOUDJEMA MEGHNI Hussein Dey Rp Alger,16,,,,36.7406167,3.0961917
329,WATHEH AICHA,42 RUE BOUDJEMAA MOGHNI Hussein Dey Rp Alger,16,,,,36.7401224,3.0989528
330,AHNOU KAHINA,CITE DES 250 LOGTS BT A3 02 Cheraga Rp Alger,16,,,,36.7697785,2.9557933
331,BELIR MALIKA,3 AVENUE MIHOUBI MOHAMED Cheraga Rp Alger,16,,,,36.7659645,2.961667
332,BOUKHATEM ABDELKADER,CITE DES 42 LOGTS Ain Benian Alger,16,,,,36.8027623,2.9184078
333,MIMOUN MOHAMED AMINE,CITE 20 LOGTS BT A 2 AISSAT IDIR Cheraga Rp Alger,16,,,,36.7567621,2.9545226
334,ACHOUCHE ALI,02 RUE AHMED ZINDJABIL Bologhine Alger,16,,,,36.8079399,3.0389024
335,DILMI RABAH,93 BD MOHAMED 5  Mohamed V Alger,16,,,,36.7674944,3.0503867
336,TOUFFALI AHMED,12 BD SAID HAMDINE Hydra Alger,16,,,,36.7482998,3.0397597
337,AGGAL MAKHLOUF,80 AVE MAHMOUD BOUDJATIT Kouba Alger,16,,,,36.7381971,3.0898023
338,BUREAU NOTARIAL,11 RUE DAUPHIN DAR ESSALAM Draria Alger,16,,,,36.720057,2.9951112
339,TIR ABDEREZAK,1 CITE 170 LOGTS BT B10 SAID HAMDINE Bir Mourad Rais Alger,16,,,,36.7339979,3.033837
340,AZIAD FRIDA EPSE BOUKARI,9 RUE MOHAMED GARIDI Kouba Alger,16,,,,36.7317197,3.0850228
341,DJEDJIG LAHLOU,35 AVENUE BOUAAMAMA HASSEN BADI El Harrach Alger,16,,,,36.716488,3.1373997
342,BEN FERHAT MOHAMED,COOPERATIVE IMMOBILIERE EL YASMINE 8 LES ORANGERS Rouiba Rp Alger,16,,,,36.7390353,3.2840306
343,KAOUAH MERIEM AZIZA,202 RUE MOHAMED BELOUIZDAD  Sidi M'hamed Alger,16,,,,36.753547,3.0615416
344,ATBI MOHAMED,16 RUE DU 5 JUILLET El Harrach Alger,16,,,,36.7205788,3.1374809
345,NEGGACHE RAMDANE,CITE 2004 LOGTS LOT 46 Baraki Alger,16,,,,36.6622277,3.1014614
346,BAKAIL SOUHILA,11 RUE AISSA BEN FADHA Zeralda Alger,16,,,,36.7137456,2.8449957
347,BEN MERIEM LINDA,62 CITE 100 LOGTS BT 7 Zeralda Alger,16,,,,36.7137456,2.8449957
348,BEN MIMOUN EL HABIB,CITE LES SOURCES BT 2 N 5 Bir Mourad Rais Alger,16,,,,36.732855,3.05563
349,BEN TALHA MOHAMED,CITE MITIDJA BATIMENT 12 /43 Rouiba Rp Alger,16,,,,36.7395542,3.2803983
350,BENTAYA RIMA,CITE 294 LOGTS BATIMENT A4 1 Ain Benian Alger,16,,,,36.7948752,2.905233
351,BOUKHAROUBA SAMEH,CITE GARIDI 1 BATIMENT 8 8 Kouba Alger,16,,,,36.7445311,3.0938679
352,OPM DERARDJA ISSAM,18 RUE DES FRERES LARBI Douera Alger,16,,,,36.6688355,2.9442592
353,TADJINE FATIHA,24 RUE 1er JUILLET Birkhadem Alger,16,,,,36.7160675,3.0496695
354,FETTIS KAMAL,CITE 384 LOGTS BT C 22 SAID HAMDINE Bir Mourad Rais Alger,16,,,,36.7349175,3.0351991
355,GUENDOUZE HINDA,43 RUE DIDOUCHE MOURAD  Sidi M'hamed Alger,16,,,,36.7670944,3.0533882
356,OUZENI HATTEM,CITE 250 LOGTS Cheraga Rp Alger,16,,,,36.7668544,2.9602011
357,REGUIEG KARIMA,04 PLACE EL KODS Hydra Alger,16,,,,36.7474636,3.0402509
358,SAHRAOUI KARIM,137 RUE 1ER NOVEMBRE Zeralda Alger,16,,,,36.7118869,2.8398444
359,SALEM SALAH,CITE EL ANASSER CITE 4 BATIMENT 92 APPARTEMENT 2 Kouba Alger,16,,,,36.7344353,3.0695755
360,SELLAMI SAMIA ALDJIA,192 CITE HBM 2eme GPE BELOUIZDAD  Sidi M'hamed Alger,16,,,,36.7616535,3.056515
361,SELLAMNA AZIZA,2 RUE DES FRERES OUGHLIS El Mouradia Alger,16,,,,36.7452496,3.0505324
362,ZENBOUDJI AHMED MOSSADEK,2 RUE KADDOUR RAHIM Hussein Dey Rp Alger,16,,,,36.7420781,3.0931291
363,ZEROUG HOUCINE,8 RUE NEZALI CHERIF Cheraga Rp Alger,16,,,,36.7660527,2.9589692
364,SOCIETE NOTARIALE CIVILE BED AIDA NADJAT,CITE GARIDI 1 BATIMENT 18/5 Kouba Alger,16,,,company,36.7279237,3.0670478
365,BOUKOURA FAIZA,22 AVENUE 1ER NOVEMBRE  Haute Casbah Alger,16,,,,36.787873,3.0629224
366,TOUMI RAFIK,LOT DU PHARE 3 CAP CAXINE Ain Benian Alger,16,,,,36.8128451,2.954008
367,TOUATI FADILA,1 RUE RACHID KORICHI Bab El Oued Alger,16,,,,36.7879584,3.055397
368,BECHA SALIM,1 RUE HAMMANI AREZKI Alger  ,16,,,,36.771589,3.057788
369,BEDAIDA SAID,CITE GARIDI 1 BATIMENT 18 5 Kouba Alger,16,,,,36.7279237,3.0670478
370,BUKHEROUBA KELTHOUM,26 RUE TRIPOULI Hussein Dey Rp Alger,16,,,,36.7445311,3.0938679
371,DERIAS ZIDOUMA ET OUBAD NADJAT,COOPERATIVA EL NASSER 60 Kouba Alger,16,,,,36.7260163,3.0826673
372,AMRA MADJID,CITE HAYAT BT B11/3 Gue De Constantine Alger,16,,,,36.704399,3.0924
373,MOHAMED EL MOKHTAR AMRIOU,30 RUE SOUIDANI BOUDJEMAA Cheraga Rp Alger,16,,,,36.7553142,3.0473057
374,NOURINE MUSTAPHA,CITE BOUZAGZA BT 3 ESCALLIER B 9 Reghaia Alger,16,,,,36.7616535,3.056515
375,CHEKELALA FATIHA,CITE 300 LOG BAT 33 Bab Ezzouar Alger,16,,,,36.7208407,3.1851232
376,KIHAL SMAIL,LOT H 39 El Achour Alger,16,,,,36.7323719,3.0033602
377,BENFATTOUM HOUCINE,16 LOT KAOUCHE B Cheraga Cgn Alger,16,,,,36.7594538,2.9628136
378,ZAANABI NADIA,CITE 618 LOGTS BT 16 APPT. 4 ET 5 Mohammadia Alger,16,,,,36.7291999,3.1504149
379,MOSSAB BRAHIM,SAID HAMDINE BT 2 BLOC 2 Bir Mourad Rais Alger,16,,,,36.7353482,3.0383576
380,BOUHANGUEL MAHFOUD,9 RUE FERHAT ABDELKADER Staoueli Alger,16,,,,36.7533929,2.8874925
381,BELKADI SMAIL,56 RUE FELLA MOHAMED ARAB El Mouradia Alger,16,,,,36.7423081,3.0537512
382,BENLALIA FOUAD,CITE DOUZI 399 Bab Ezzouar Alger,16,,,,36.7366339,3.1831067
383,CHERAIR MOHAMED,CITE SAID HAMDINE VILLA 187 Bir Mourad Rais Alger,16,,,,36.7353482,3.0383576
384,KRIM LAILA,RUE EL FATAH JUILLET BT 70 1 ER ETAGE Birkhadem Alger,16,,,,36.7160675,3.0496695
385,AMAD MOHAMED,17 CHEMIN DE SIDI YAHIA Hydra Alger,16,,,,36.7387861,3.04359
386,BOULAHIA BRAHIM,CITE 56 LOG. BT. A1 RUE AHMED BOUGARA 2 Ain Benian Alger,16,,,,36.8041974,2.9223981
387,DHARBANI LAKHDAR,CITE MAHDIDE SALAH LES VERGES Birkhadem Alger,16,,,,36.7160675,3.0496695
388,BELOUNIS NACER EDDINE,5 RTE BOIS DES CARS Dely Ibrahim Alger,16,,,,36.7554848,2.9797084
389,BENNIA KHADIDJA,45 LOT MERKIDAL LES SOURCES Birkhadem Alger,16,,,,36.7333245,3.0523604
390,BOUGUERRA KARIMA,3 LOT. TARDETTI Bir Mourad Rais Alger,16,,,,36.7323545,3.0497609
391,MERINI HANANE,1 COOP. LES VERGERS LOT 2 BirkhademAlger,16,,,,36.7280542,3.0492559
392,BOULKRIAT BOUDJEMA,444 SAID HAMDINE BT 13A/1 Bir Mourad Rais Alger,16,,,,36.7353482,3.0383576
393,ABDELAOUI ABDELKADER,7 CITE DIAR EL MAHSOL BT A El Madania Alger,16,,,,36.7467896,3.0649653
394,ZIAD FARIDA EPSE BOUKARI,9 RUE MOHAMED GARIDI Kouba Alger,16,,,,36.7389854,3.0876324
395,BENATTIA ABDELKADER,355 CITE TAHAR BOUCHET RTE D'EL KADOUS Tixeraine Alger,16,,,,36.7198807,3.036673
396,BEN AMIROUCHE HAYAT,RES. EL BATOUL 1ER ET. Birtouta Alger,16,,,,36.6436334,2.9946473
397,ZENATI FAYÇAL,10 RUE ALLAOUA ABDELKADER (LES COMMUNAUX) Kouba Alger,16,,,,36.729421,3.0842811
398,SAHI SAMIA,1 CITE BACHDHARAH BT 5 ESC 1 Bachedjerah Alger,16,,,,36.7244831,3.1167415
399,KHODJA NIHAD SABRINA,CITE LES MARRONS AIN ALLAH BATIMENT 401 A Dely Ibrahim Alger,16,,,,36.7495801,2.9897445
400,SOCIETE CIVILE DE NOTARIAT,2 RUE IGUEDGDAL MOHAMED Ain Benian Alger,16,,,,36.800402,2.9181427
401,MOHAMED LAMINE,CITE 20 LOGTS Cheraga Rp Alger,16,,,,36.7668544,2.9602011
402,KEDDOUR BELKACEM,28 RUE DE LA LIBERTE  Khelifa Boukhalfa Alger,16,,,,36.7790904,3.0601645
403,LAHLOU DJIDJIK,35 AVENUE BOUAMAMA El Harrach Alger,16,,,,36.720437,3.1441783
404,MAREF FAOUZI,RUE MOHAMED FELAH 12 Kouba Alger,16,,,,36.7315399,3.0880783
405,MESKINE ALI,COOPERATIVE IMMOBILIERE FRANTZ FANON Reghaia Alger,16,,,,36.7393245,3.3416465
406,BOUCHACHI YOUCEF,01 RUE MORITANIQUE Bab El Oued Alger,16,,,,36.7943835,3.0523634
407,BERRAKCHI YOUCEF,09 AVENUE FAYCAL MOUBAREK  Sidi M'hamed Alger,16,,,,36.753547,3.0615416
408,DJEDDOU ABDELMADJID,11 RUE MOHAMMED BELOUIZDAD  Sidi M'hamed Alger,16,,,,36.753547,3.0615416
409,KHERAT YACINE,58 RUE DE TRIPOLI Hussein Dey Rp Alger,16,,,,36.7445311,3.0938679
410,AMRA MADJID,CITE EL HAYET BT 11B/3 Gue De Constantine Alger,16,,,,36.704399,3.0924
411,NEDJAR MUSTAPHA,AVENUE TALA AHCEN 33 HOTEL EL EMIR Cheraga Rp Alger,16,,,,36.7616535,3.056515
412,HAMOUTENE FARIDA,CITE MAVAL BT A 02 Reghaia Alger,16,,,,36.7386643,3.34255
413,BOUABDELAH ALI,03 RUE ZOUAOUI MOKHTAR  Haute Casbah Alger,16,,,,36.7846964,3.0597479
414,DRID AZEDINE,11 AVENUE BAB AZOUNE Bab El Oued Alger,16,,,,36.7903197,3.0611642
415,GUARECH AMAR,101 RUE TRIPOLI Hussein Dey Rp Alger,16,,,,36.7414302,3.1022226
416,MOKHTARI MOHAMED,39 RUE MUSTAPHA KHALEF Ben Aknoun Rp Alger,16,,,,36.7619273,3.0169608
417,MEHDAOUI MIMI,CITE SAID HAMDINE 444 BT A 06 Bir Mourad Rais Alger,16,,,,36.7353482,3.0383576
418,MIMOUN NOUREDDINE,02 AVENUE MOHAMED IDRIS BEY  Khelifa Boukhalfa Alger,16,,,,36.7329001,3.0555058
419,BAHATA IBRAHIM,CITE 24 FEVRIER GROUPE 5 07 Staoueli Alger,16,,,,36.7572655,2.8885537
420,BOULEKRIAT BOUDJEMAA,CITE 47 LOGTS BT 05 02 Kheraicia Alger,16,,,,36.6679107,2.9982768
421,SAAD FARID,11 RUE DES MARTYRS Cheraga Rp Alger,16,,,,36.7674361,2.9640119
422,CHELIC YAMINA,ROUTE KAHTAL MOHAMED 02 Ain Benian Alger,16,,,,36.800402,2.9181427
423,MANSOURI ALI,24 RUE OMAR BEN EL KHATAB Bab El Oued Alger,16,,,,36.7920574,3.05338
424,OPN OUIDIR,CITE MITIDJA Rouiba Rp Alger,16,,,,36.7358928,3.2779879
425,MELHAG SAAD,246 CITE DOUZI 4 R.N 5 Bab Ezzouar Alger,16,,,,36.7366561,3.1835558
426,REZZAG LEBZA MOHAMED,CITE RABIA TAHAR BT 32 Bab Ezzouar Alger,16,,,,36.7227951,3.1798487
427,EL HADJ SENOUSSI,03 RUE ATIA OUKHELIL El Harrach Alger,16,,,,36.7279477,3.1388886
428,HAMILA MADJIDA,COOPERATIVE WIFAK MUSTAPHA AISSAT Reghaia Alger,16,,,,36.7222088,3.3388675
429,BOURABA MOHAMED,PL 1ER MAI GROUPE 10 BT B  1er Mai Alger,16,,,,36.0481608,-95.8868756
430,HETTAB CHERIF,CITE DJILALI ELYABES BT 3/34 BEN OMAR Kouba Alger,16,,,,36.7254927,3.0912254
431,ABIDELAH MESSAOUD,2EME GROUPE BT I  1er Mai Alger,16,,,,36.0481608,-95.8868756
432,BEN KABOU MOHAMED FERIH,02 RUE KLAYLYA MOULAY BP 1009 Mohammadia Alger,16,,,,35.5919096,0.06542
433,BOULFRAK HACENE HOURIA,5 RUE ACHOUR MIHOUBI Kouba Alger,16,,,,36.7293777,3.0749574
434,BEN ABDE NACER ABDELLAH,108 SAID HAMDINE BT A 13 / 01  Said Hamdine Alger,16,,,,36.7339979,3.033837
435,BELGHERBI FARIDA,RESIDENCE DES ROSIERS BT A 1 Hydra Alger,16,,,,36.1583095,-95.8382977
436,HASANI ABDELKADER,AVE DE L'ALN RTE D'EL MADJBARA Djelfa,17,,,,34.6703956,3.2503761
437,HAMZA ABDELKADER,ROUTE NATIONALE 1 Djelfa,17,,,,34.6703956,3.2503761
438,MOUHAD MOHAMMED,RUE 20 AOUT Djelfa,17,,,,34.6703956,3.2503761
439,HAMZA ABDELKABER,ROUTE D'EL DJELFA Djelfa,17,,,,34.6703956,3.2503761
440,RAACHE SLIMANE,RUE 20 AOUT 1956 BT 131/18 Djelfa,17,,,,34.6703956,3.2503761
441,BOUHANGUEL ACHOUAK,RUE 20 AOUT 1955 Jijel,18,,,,36.8195869,5.7688871
442,BOUMAHREZ RABEH,ANGLE RUE ABDELHAMID IBN BADIS PLACE BOURAOUI AMAR Jijel,18,,,,36.8205881,5.7517505
443,BIYOUT MOHAMED,1 CITE ZEHANI SMAIL BT 2P 4 Jijel,18,,,,36.7524885,6.2742753
444,MOHAMED LAATIOUI,CITE BOUCHERKA BT B 4 Taher Jijel,18,,,,36.7843567,5.9009836
445,MERADJI MAHMOUD,CITE KAOULA MOKHTAR Jijel,18,,,,36.8100086,5.759828
446,KORICHI AHMED,CITE DES RAMPARTS BT B/29 Setif,19,,,,36.1897593,5.4107984
447,GHARBI M'BAREK,2 RUE ROUABEH MOUSSA CITE 1ER NOVEMBER BT A Setif,19,,,,36.1897593,5.4107984
448,BELBAKHOUCHE KAMEL,1 CITE EL KHAHIRA BT 2 Setif,19,,,,36.1897593,5.4107984
449,BEN CHICKH EL HADJ,CITE M'SSALTI ABESS ASSAOUAR EL KADIMA Setif,19,,,,36.1897593,5.4107984
450,GUECHI KADOUR,4 RUE ABANE RAMDHANE Setif,19,,,,36.1893122,5.405046
451,AMIRA NADHIRA,5 RUE TOUHAMI SALEH CITE DES CHEMINAUX Setif,19,,,,36.190855,5.4209417
452,GARGOURI FARID,CITE YAHIAOUI RUE ZABAT REMDANE 45 Setif,19,,,,36.1987374,5.4240662
453,BELAID AHMED,47 CITE M'SALTI ABES ESOUAR KADIMA BT D5 Setif,19,,,,36.1897593,5.4107984
454,ABIREZ KHATHIR,CITE DES 583 LOGTS Ain Oulmane Setif,19,,,,35.9197924,5.2972534
455,HADJIDJ AMER,51 RUE GUESSAB BACHIR El Eulma Setif,19,,,,36.1505099,5.6999461
456,BOUZID AMAR,126 RUE DU 1er NOVEMBRE 1954 El Eulma Setif,19,,,,36.151724,5.689403
457,AICHOUR LARBI,BOULEVARD BRAHIM ZEGHAR El Eulma Setif,19,,,,36.1505099,5.6999461
458,KADRI MANSOUR,ZAOUIET LES DEUX RUEX LA REVOLUTION IBRAHIM ZEGAR El Eulma Setif,19,,,,36.153098,5.6926809
459,MAHOUR BACHA SLIMANE,108 RUE MOHAMED KHMISTI El Eulma Setif,19,,,,36.1505099,5.6999461
460,REZOUGUE LAKHDAR,RUE CHINOUNE MOHAMED Bougaa Setif,19,,,,36.334064,5.0891805
461,ARABA AZOUZ,RUE CHENOUN MOHAMED Bougaa Setif,19,,,,36.334064,5.0891805
462,KHOUALEF MABROUK,2 CITE 100 LOGTS BT A Ain El Kebira Setif,19,,,,36.3695684,5.5075105
463,RAHEL ABEDELKADER,RUE DES FRERES CHETIOUI Amoucha Setif,19,,,,36.3879438,5.4110623
464,FERIOUA DJAMEL,43 CITE ASSOUAR BT B BAKHOUCHE CHERIF Setif,19,,,,36.1897593,5.4107984
465,KHOUATHRIA MAHMOUD,147 RUE 1ER NOVEMBRE 54 El Eulma Setif,19,,,,36.1529129,5.6797332
466,LAFET AMAR,23 CITE 80 LOGTS BT B Ain El Kebira Setif,19,,,,36.3695684,5.5075105
467,BENCHEIKH EL HADJ,CITE MESSALTI ABBES Setif,19,,,,36.1790422,5.422392
468,EL KOLI TOUNSSI,1 RUE DU 1ER NOVEMBRE 54 Ain El Kebira Setif,19,,,,36.3695684,5.5075105
469,KHALED AISSA,Cité Sidi Cheikh BP 306 Saida,20,Saida,048 47 38 97 / 0661 23 61 64,physical,,
470,MIHOUB MOHAMED,3 Batiement C1 Rue Chehraoui Larbi Cite Boudia Saida,20,Saida,048 37 17 44 / 048 37 15 69,physical,,
471,HKHOUDJA KADDOUR,Rue Babia Cheikh Saida,20,Saida,048 33 93 58 / 0770 33 44 23,physical,,
472,ZIANI ABD ERRAHAMNDE,19 Rue Cheboub El Mejdoub Saida,20,Saida,048 51 42 69 / 0660 64 97 29,physical,,
473,BETAHAR TOUATI,05 Rue Dahmane Kada Saida,20,Saida,048 51 33 70,physical,,
474,BOUROUIS ZIDANE,36 AVENUE BACHIR BOUKADOUM Skikda,21,,,,36.8733403,6.9096742
475,BEN YAHIA RAMDHANE,62 AVENUE KADOUR BLIZIDIA Skikda,21,,,,36.8662658,6.9062556
476,SEMOUMA YAZID,7 CITE DES ALLEES 20 AOUT 55 TOUR 27 Skikda,21,,,,36.8646414,6.9137371
477,GUERIREM ABDELHAFIDH,4 RUE MOULOUD BOURAS Skikda,21,,,,36.8789224,6.9060053
478,BOUMESSAD MOHAMED,32 RUE ABDELLAH BENGHERFE ALLAH Skikda,21,,,,36.883152,6.9054596
479,BEN RADOUAN AISSA,CITE 24 LOGTS BT SONATIBA El Harrouch Skikda,21,,,,36.6545563,6.8329628
480,BELGHAZI MOULOUD,AVENUE L'AKHELE TAHER EL KOL Skikda,21,,,,36.8796509,6.9147479
481,OUADI ALI,CITE 1ER NOVEMBRE 28 LOGTS Azzaba Skikda,21,,,,36.7411032,7.1116629
482,NOUARI HOCINE,72 AVENUE DIDOUCHE MOURAD Skikda,21,,,,36.870155,6.9107549
483,AMIAR EDRISS,5 AVENUE ASSLA HOCINE Skikda,21,,,,36.870155,6.9107549
484,SAAD ELLAH MESSAOUD,6 AVENUE ALI BOUSEKINE CITE 60 LOGTS EL KOL Skikda,21,,,,36.8662658,6.9062556
485,MAAOUI ABED EL HAMID,2 CITE LES ALLEES 20 AOUT 1955 BT 5 Skikda,21,,,,36.8713246,6.9124453
486,SOCIETE CIVILE DE NOTARIAT KACEM FATMA ET BOUTERFASS ABDELKADER,12 Rue John Jack Rousseau Sidi Bel Abbes ,22,Sidi Bel Abbes,048 74 19 25,company,,
487,ADDA AMAR,27 Rue de la Palestine Mougadour  Sidi Bel Abbes,22,Sidi Bel Abbes,048 54 31 70,physical,,
488,BIRECHE YAHIA,10 RUE BAIT EL QUODS Sidi Bel Abbes,22,Sidi Bel Abbes,048 54 94 33,physical,35.1897386,-0.635
489,BEN HEDDER MOHAMED,7 RUE ALI BEKHALED Sidi Bel Abbes,22,Sidi Bel Abbes,048 74 11 83 / 048 74 12 19 / 0561 62 66 30,physical,35.1920112,-0.63192
490,BEN ZOHRA BELKACEM,08 Rue de la Palestine Mougadour  Sidi Bel Abbes,22,Sidi Bel Abbes,048 74 21 89,physical,,
491,BELMAMOUNE ABDELAZIZ,8 RUE EL MEDINA Sidi Bel Abbes,22,Sidi Bel Abbes,048 65 16 85,physical,35.1896977,-0.6347126
492,MAAMAR MOHAMED,22 RUE ALI BEKHALED Sidi Bel Abbes,22,Sidi Bel Abbes,048 54 49 33,physical,35.2104646,-0.6297183
493,AKSA MEKHLOUF,14 Boulevard Ben Dida 7 RUE ALI BEKHALED Sidi Bel Abbes,22,Sidi Bel Abbes,049 54 93 93,physical,,
494,MEHIDI TAIB,36 Rue Soumam 7 RUE ALI BEKHALED Sidi Bel Abbes,22,Sidi Bel Abbes,048 54 25 17,physical,,
495,NIZAR ATTOU,17 Rue Cheikh Larni Tebessi 7 RUE ALI BEKHALED Sidi Bel Abbes,22,Sidi Bel Abbes,048 54 81 05,physical,,
496,BEN ACHENHOU MOHAMED,24 Rue Souria Bendimerad 7 RUE ALI BEKHALED Sidi Bel Abbes,22,Sidi Bel Abbes,048 54 87 38,physical,,
497,BERDANE RACHID,05 Rue Inspecteru Baci 7 RUE ALI BEKHALED Sidi Bel Abbes,22,Sidi Bel Abbes,048 54 46 93,physical,,
498,BOUAZZA IBTISSEM,15 Rue Didouche Mourad 7 RUE ALI BEKHALED Sidi Bel Abbes,22,Sidi Bel Abbes,048 65 24 58,physical,,
499,SELLAM LAMIA,19 COMMANDANT FERRADJ Sidi Bel Abbes,22,Sidi Bel Abbes,0793 18 77 89,physical,35.1916211,-0.6324026
500,CHAREF FATIHA,6 RUE SORIA BENDIMERED Sidi Bel Abbes,22,Sidi Bel Abbes,048 54 23 80,physical,35.1917253,-0.6268135
501,MEHNANE DRISS,15 Rue de la République Bel Abbes,22,Sidi Bel Abbes,048 54 13 76,physical,35.2008838,-0.6308376
502,KADI AHMED,6 RUE DE LA MECQUE Sidi Bel Abbes,22,Sidi Bel Abbes,0772 56 81 05,physical,35.1904819,-0.6353187
503,BOUCHIBA MOHAMED,49 Rue Frères Yamoul Sfisef  Sidi Bel Abbes,22,Sfisef,048 59 57 71,physical,35.2351049,-0.242702
504,DELANI ALI,34 CITE EL BASATINE BT B BLOC 03 BP 53 Sfisef  Sidi Bel Abbes,22,Sfisef,048 59 57 70,physical,35.2351049,-0.242702
505,BEN AISSA LAKHDAR,Rue Commandant Si Ahmed Sfisef  Sidi Bel Abbes,22,Sfisef,048 65 57 70,physical,,
506,EL MESTARI EL GHAZI,02 Boulevard Akid Lotfi Route nationale n° 07 Ben Badis Sidi Bel Abbes,22,Ben Badis,048 53 75 39,physical,,
507,BOUDAOUD NOUREDDINE,Rue Talbi Tadj Ben Badis Sidi Bel Abbes,22,Ben Badis,040 41 31 72 ,physical,,
508,DAHMANI MOHAMED,Rue Hamdaoui Ahmed Ben Badis Sidi Bel Abbes,22,Ben Badis,040 41 31 57,physical,,
509,KAMLI SID AHMED ,06 Boulevard Belghazali Taib Telagh Sidi Bel Abbes,23,Telagh,048 58 95 55,physical,,
510,BOUCHEMOUKHA AZEDDINE,IMMEUBLE SOUIDANI BOUDJEMAA Annaba,23,,,,36.900401,7.753418
511,TELILI MABROUK,14 AVENUE EMIR ABDELKADER Annaba,23,,,,36.8982602,7.7582576
512,DJEDI KHADIDJA,4 PLACE TAREK BEN ZIAD Annaba,23,,,,36.8999186,7.7594858
513,DERBALI AMAR,1 PLACE DE LA REVOLUTION Annaba,23,,,,36.9142081,7.7426673
514,DELMI HOURIA,23 COUR DE LA REVOLUTION Annaba,23,,,,36.8992246,7.7601246
515,TAOUTAOU MOULOUD,1 RUE ZIGHOUD YOUCEF Annaba,23,,,,36.9142081,7.7426673
516,SAHKI HOCINE,22 RUE MOHAMED KHEMISTI Annaba,23,,,,36.8977204,7.758904
517,KERKOUB RACHID,6 PLACE TARIK IBN ZIAD Annaba,23,,,,36.9142081,7.7426673
518,LAOUABDIA SALAMI ALI,BOULEVARD CHIKH EL ARBI TEBESSI N 05 Annaba,23,,,,36.8996699,7.7572435
519,MALKI RABAH,10 RUE BOUZEBIDE AHMED Annaba,23,,,,36.9142081,7.7426673
520,HAZERLI AMAR,6 RUE EMIR ABDELKADER Annaba,23,,,,36.8964114,7.758031
521,AMIRAT AMAR,2 RUE IBN KHALDOUNE PASSAGE BONISSIER Annaba,23,,,,36.8987031,7.7578972
522,AHCENE CHAOUCHE MOUNIR,14 RUE EL ARBI TEBESSI Annaba,23,,,,36.8996699,7.7572435
523,BOULEDOUA MOHAMMED,1 RUE KENITI ESSEBTI Annaba,23,,,,36.9142081,7.7426673
524,ZIANE LINDA CHENARE,3 RUE BEN HAWAZ IBRAHIM 1ER ET. Annaba,23,,,,36.9142081,7.7426673
525,MOURAD NAZIHA,8 RUE VAL MASCORTE Annaba,23,,,,36.9196943,7.7521132
526,DAAMACH IBRAHIM,4 RUE DE LA CNRA Annaba,23,,,,36.8996743,7.761347
527,NAAMANE SAID,9 RUE SAYOUD ACHOUR Annaba,23,,,,36.9082431,7.7592077
528,SENOUCI MOHAMED SALLEH,CITE 8 MAI 1945 Annaba,23,,,,36.9142081,7.7426673
529,ROUBACHE LAAMRI,CITE 502 LOGTS BATIMENT F El Hadjar Annaba,23,,,,36.8074707,7.7389134
530,KRAKRIA RAFIK,108 RUE LAARBI BEN M'HIDI El Hadjar Annaba,23,,,,36.8074707,7.7389134
531,MEGHENI ABDRAOUF,CITE 502 LOGTS BATIMENT 01 El Hadjar Annaba,23,,,,36.8074707,7.7389134
532,SID ALI ABDRAHMANE,4 RUE LA GLACIERE Annaba ,23,,,,36.9012733,7.7572164
533,ABDESSAMED SALIM,13 RUE LAMARA  ABEDELKADER Annaba,23,,,,36.9006199,7.759374
534,KHARBOUDJ MOHAMED,27 RUE KHEMISTI PLACE DU THEATRE Annaba,23,,,,36.8977204,7.758904
535,BOULKRAH MOHAMED SALAH,46 BOULEVARD EMIR ABDELKADER Annaba,23,,,,36.8999293,7.7580523
536,ARABA ABDELGHANI,CITE DES CHAMPS MANOEUVRES Guelma,24,,,,36.4587605,7.4301211
537,BELAATAR SAKINA,5 CITE EL MOUNAOUARAT BT 22 Guelma,24,,,,36.4627444,7.4330833
538,KIRATI MOHAMED,BT SOUGUAN 2 Guelma,24,,,,36.4627444,7.4330833
539,OURETH BOUGUERA,1 KAHDOUR TAHER BT 40 Guelma,24,,,,36.4627444,7.4330833
540,KASMI RABII,CITE 130 LOGTS BT 13 Oued Zenati Guelma,24,,,,36.3100347,7.1657362
541,REHAB ALI,AVENUE AMAR REGHIBA Oued Zenati Guelma,24,,,,36.3100347,7.1657362
542,HOUAMRIA MOHAMED LAKHDAR,CITE 550 LOGTS Bouchegouf Guelma,24,,,,36.4716931,7.7258575
543,ASSABAA ZIDANE,8 RUE 19 MAI 1956 Constantine,25,,,,36.3681164,6.61228
544,BOUTAKA AHMED,2 CITE MENTOURI BOSKI BT T4 Sidi Mabrouk Constantine,25,,,,36.3593882,6.6389031
545,TOUAM HASSEN,RUE BEN CHALAL SMAIL Constantine,25,,,,36.3570052,6.6390282
546,HAMEL MOHAMED,CITE FILALI BATIMENT D 22 Constantine,25,,,,36.3570052,6.6390282
547,AMAMRA BOUZID,CITE BOUSSOUF BT C8/94 Constantine,25,,,,36.330062,6.577004
548,GHIMOUZ MESSAOUD,32 RUE TATACHE BELKACEM Constantine,25,,,,36.3585703,6.63277
549,CHERAOUNA NOUREDDINE,12 AVENUE ZABANE Constantine,25,,,,36.3570052,6.6390282
550,BELHAMADI CHAABANE,909 CITE 1000 LOGTS BLOCS 88 El Khroub  Constantine,25,,,,36.2593314,6.7014537
551,BOUCHOUL KAMEL,2 CITE EL DAKSI ABDELSALEM BLOC S BT K Constantine,25,,,,36.3560687,6.6440456
552,SEMAKDJI SALAH,CITE DAKSI BT C 216 Constantine,25,,,,36.3560687,6.6440456
553,NOURINE MESSAOUD,BP 119 HAMA BOUZIANE Constantine,25,,,,36.4220962,6.5988893
554,BOUDARESA ELAREBI,CITE EL DAKSI ABDELSALEM BATIMENT 22 ENTREE1 N 3 Constantine,25,,,,36.3570052,6.6390282
555,BENMAAOUCHE RACHID,5 BOULEVARD ELQODSE Constantine,25,,,,36.3570052,6.6390282
556,FERIH HOCINE,8 CITE DAKSI ABDELSALEM BT 3 BIS Constantine,25,,,,36.3560687,6.6440456
557,BEN HAMZA FAIZA,BOULEVARD SAIDANI ABDELMADJID JOLIE VUE Constantine,25,,,,36.3570052,6.6390282
558,LAOUR KHALISSA,2 BD ZIBOUCHE MOHAMED Constantine,25,,,,36.3570052,6.6390282
559,KHADOUCHE ELDARADJI,CITE 1039 LOGTS BATIMENT 77 N 03 El Khroub  Constantine,25,,,,36.2595177,6.6951774
560,BOURIO MOURAD,CITE 1013 LOGTS BATIMENTS BATIMENT 54 N 2 El Khroub  Constantine,25,,,,36.2567073,6.6952254
561,BEN OUISS MUSTAPHA,36 CITE 40 LOGTS BT C El Khroub  Constantine,25,,,,36.2593314,6.7014537
562,BOULKRADACHE RAOUF,CITE 864 LOGTS BLOC 62/776 ALI MENDJELI El Khroub  Constantine,25,,,,36.2570374,6.5831384
563,SAMIRA AICHA,UV 5 PROMOTION ZIANI BT 10 1ER ET. 11 ET 10 El Khroub  Constantine,25,,,,36.2593314,6.7014537
564,BOUDCHICHA AHMED,1 RUE MADAOUI BOUDJEMAA BAB EL KANTARA Constantine,25,,,,36.3690234,6.6180745
565,BOUSSEKINE BOUDJEMAA,3 CITE DES 1013 LOGTS BT 61 El Khroub  Constantine,25,,,,36.2593314,6.7014537
566,HADOURI AHMED,17 CITE 1039 BT 5 El Khroub  Constantine,25,,,,36.2595177,6.6951774
567,DEROUICHE SIHEM,1 RUE SAIFI AISSA SAINT JEAN Constantine,25,,,,36.3570052,6.6390282
568,FILALI MALIKA,5 CITE 1000 LOGTS BT 89 El Khroub  Constantine,25,,,,36.2593314,6.7014537
569,DJAAFAR SAAD,2 RUE  ABED EL KRIM BOUBERTAKH Constantine,25,,,,28.033886,1.659626
570,FILALI ABDERRAZAK,2 CITE DES MAGISTRATS Boussouf (cite)  Constantine,25,,,,44.8366432,-0.5790262
571,BAKHOUCHE MALIKA,CITE AFOUTENI EL AREBI HLM BATIMENT A6 N 201 Sidi Mabrouk  Constantine,25,,,,36.35663,6.6330819
572,BEN ELMOUFAK ABDERRAOUF,19 BD CHAYDEKH MOHAMED Sidi Mabrouk  Constantine,25,,,,36.3623629,6.6390931
573,FANTAZI HAMID,CITE EL DAKSI ABDELSALEM BT KQ BLOC 1 LOCAL 5 Constantine,25,,,,41.8411406,-85.6697188
574,KOUADRI YOUSEF,148 RUE ALI GHACHI Didouche Mourad  Constantine,25,,,,48.8370792,2.3650429
575,KALI ABDELHAFID,CITE FERACHE AHMED BT A N°1 Medea ,26,,,,36.2637078,2.7587857
576,BENTOUMI MUSTAPHA,ROUTE MOHAMED KHEMISTI Ksar El Boukhari Medea ,26,,,,35.8763773,2.7488447
577,ABDOUN MESSAOUD,RUE DE LA PALESTINE Tablat Medea ,26,,,,36.4131818,3.3110706
578,SAADEDDINE AHMED,CITE DU 8 MAI 45 Beni Slimane Medea ,26,,,,36.2272319,3.3071806
579,BAHOUT LAMIA,RTE D'ALGER EN FACE LABORATOIRE MEDECAL ZITTOUNI Medea,26,,,,36.2726578,2.7650096
580,TEBBAL ABDELLATIF,19 RUE DES FRERES ABDI Medea,26,,,,36.2637078,2.7587857
581,KERMEZLI MOHAMMED,CITE BOUZIANE Medea,26,,,,36.2637078,2.7587857
582,TESSOUH HAMMOU,LOT 55 39 VILLA 11 Berrouaghia Medea ,26,,,,36.1397978,2.9189942
583,OUAKED TAYEB,CITE BEN KHEROUBI TAYEB Medea,26,,,,36.2637078,2.7587857
584,BEN TATA LAADJAL,49 Rue Mohamed Khemisti 08 Rue Khelifa Mahmoud  Mostaganem,27,Mostaganem,045 21 23 59,physical,,
585,BOURAHLA KEDAI,08 Rue Khelifa Mahmoud  Mostaganem,27,Mostaganem,045 41 31 52 / 0774 72 78 61,physical,,
586,BOUZID EL GHALI,3 RUE SATAL EL JILALI Mostaganem,27,Mostaganem,045 41 33 59,physical,35.9311454,0.0909414
587,LAZREG YAMINA,Cité Zaghloul Batiment E n 37 Coopérative Ben Dahbia Mostaganem,27,Mostaganem,045 21 37 07,physical,,
588,BEN KRITLI SID AHMED,2 AVENUE MOHAMED KHEMISTI Mostaganem,27,Mostaganem,045 41 33 47,physical,35.9339679,0.0897595
589,OUAZANI MOHAMED,19 RUE KHETTAB ABEDELKADER Mostaganem,27,Mostaganem,045 41 36 49 / 045 41 36 43 / 0550 53 68 13,physical,35.9311454,0.0909414
590,ABD ESSADOUK HAMIDA,17 Rue Sidi Brahim Mostaganem,27,Mostaganem,045 26 41 00,physical,,
591,ISMAIL EL HADJA,02 Rue Moumen El Habib Cité Derb Mostaganem,27,Mostaganem,045 41 00 92,physical,,
592,BEN KENIN NACERA,07 Rue Ben Yahia Belkacem Mostaganem,27,Mostaganem,045 21 57 27 / 0553 94 46 39,physical,,
593,BOUCIF ZINA,Cité 05 juillet 1962 Batiement 32 n 02 Mostaganem,27,Mostaganem,0555 37 32 10 / 0661 29 33 80,physical,,
594,TEHELAITI ATIKA AMAL,09 Rue Ababsa Mohamed Cité Akid Amirouche Mostaganem,27,Mostaganem,045 21 95 43 / 0559 40 30 20,physical,,
595,RAHMOUN AMAL,Cité 05 juillet Batiement 199 n 02 Mostaganem,27,Mostaganem,045 41 22 10 / 0554 73 86 93,physical,,
596,ZIOUANI BEN AISSA,03 Place Ayachi Abd El Krim Mostaganem,27,Mostaganem,045 21 69 34 / 0661 19 41 13,physical,,
597,FOULARSSEN MOUNIRA,19 Rue Ben Ayad Ben Dahbia Mostaganem,27,Mostaganem,0776 77 39 31,physical,,
598,SALAH MOHAMED,05 Place Bordji Amar Cité Amirouche Mostaganem,27,Mostaganem,045 41 67 70 / 0555 40 06 12,physical,,
599,MILOUDI ABD EL KADER,Cité 05 juillet Batiement A9 n 02 Mostaganem,27,Mostaganem,045 42 55 96 / 0670 16 36 50,physical,,
600,HENNI SALIMA,Cité 400 Logements Batiements A10 n° 02 Mostaganem,27,Mostaganem,045 21 35 44 / 0550 46 24 70,physical,,
601,BEN SI KADDOUR NOURIA,Cité 800 Logements Batiemnt F 221 Mostaganem,27,Mostaganem,045 21 73 84 / 0552 12 32 18,physical,,
602,BOUAIBIB ADA,24 RUE BRAIS ABEDERRAHMENE Mostaganem,27,Mostaganem*,,physical,35.9311454,0.0909414
603,BEN TERIKI FETHI,172 CITE 200 LOGTS BLOC F Sidi Ali  Mostaganem,27,Sidi Ali,045 43 13 31 / 0770 39 83 43,physical,36.0997892,0.4281316
604,TOUATI MOHAMED,86 Rue Premier Novembre Sidi Ali Mostaganem,27,Sidi Ali,045 45 10 14,physical,,
605,HAEDJIJ ABDELKADER,Cité 50 Logements n 39  Sidi Ali Mostaganem,27,Sidi Ali,045 24 25 99,physical,,
606,DJENNI ABDALLAH,7 Batiement A Cité 64 Logements  Sidi Ali Mostaganem,27,Sidi Ali,045 45 18 13 / 0550 96 56 18,physical,,
607,BEN JELLOUL AISSA,09 Cité 140 Logements Batiment 2E Ain Tedles Mostaganem,27,Ain Tedles,0775 35 10 37,physical,,
608,BEHASKA ZAHIRA,11 Cité 57 logements  Ain Tedles Mostaganem,27,Ain Tedles,0796 64 34 28,physical,,
609,BEN AZZOUZ MOURAD,Cité 32 Logements Batiemnt B  Ain Tedles Mostaganem,27,Ain Tedles,0553 88 85 45,physical,,
610,HECINI FATMA ZOHRA,CITE DU 20 AOUT Sidi Aissa M'sila,28,,,,35.885157,3.774373
611,BOUKHELT ABDELKADER,CITE OUAOUA EL MADANI M'sila,28,,,,35.708979,4.5415378
612,DJIDJAA HOCINE,CITE OUAOUA EL MADANI M'sila,28,,,,35.708979,4.5415378
613,MOUSSAI MOUSSA,CITE BENYOUNES EL HADJ BP 242 M'sila,28,,,,35.7186646,4.5233423
614,ZITOUNI AMAR,NOUVELLE ZONE URBAINE M'sila,28,,,,35.7186646,4.5233423
615,DJEMIAP MOHAMED SALEH,CITE ADMINISTRATION BP 1315 M'sila,28,,,,35.7186646,4.5233423
616,MADANI MOHAMMED,CITE DE L'ANCIEN MARCHE Sidi Aissa M'sila,28,,,,35.885157,3.774373
617,ETTAHAR SALAH,RUE LARBI TEBESSI Bou Saada M'sila,28,,,,35.2113258,4.1817194
618,LEMOUENNES SAAD,CITE PLATEAU Bou Saada M'sila,28,,,,35.2163516,4.181463
619,MEKIRECHE IBRAHIM,1/433 RUE ANCIENNE D'ALGER  CITE MOUAMINE M'sila,28,,,,35.7186646,4.5233423
620,LESLET HAMDI,CITE DU 24 FEVRIER Ain El Melh M'sila,28,,,,34.8467202,4.1618039
621,DEBABI SAID,CITE BENYOUNES EL HADJ BP 403 M'sila,28,,,,35.7186646,4.5233423
622,DJARIDA HOCINE,RUE DE LA PALESTINE M'sila,28,,,,35.7186646,4.5233423
623,HASSANI HASSANE,RUE MOHAMED KHEMISTI Bou Saada M'sila,28,,,,35.2106575,4.1754982
624,EL HADJ MEHDI FODHIL,CITE BENYOUNES EL HADJ M'sila,28,,,,35.7186646,4.5233423
625,GUENDOUZ EL ARBI,CITE ADMINISTRATIVE RUE IBRAHIM KHOUDJA M'sila,28,,,,35.7186646,4.5233423
626,WALID MOHAMED,6 RUE MOHOR DRISS Mascara,29,Mascara,045 81 26 07,physical,35.3928494,0.1423193
627,BEN HAOUA ABED EL DJELIL,8 RUE MHOUR DRISS Mascara,29,Mascara,045 75 24 93 / 0661 15 91 22,physical,35.0834324,-89.8073035
628,AMOURI ABEDELKADER,9 RUE BAHLOUL BELDJELALI Mascara,29,Mascara,045 72 18 55,physical,34.4341513,-119.9202039
629,MASLA MOHAMED,14 RUE DOCTEUR KHALED Mascara,29,Mascara,045 75 29 17,physical,35.3955233,0.1400142
630,BEN FRIHA NASR ALLAH,Rue Larbi ben Mehidi Mascara ,29,Mascara,145 75 27 22,physical,,
631,SAYAH KENZA,04 Rue de la Liberté Mascara,29,Mascara,045 75 27 63 / 0661 25 10 86,physical,,
632,SI TAYEB MAHMOUD,04 Rue Rouiai Lakhdar Mascara,29,Mascara,045 75 26 87 / 0553 18 19 17,physical,,
633,MOKHTARI DJELLOUL,Rue Zaghloul Mascara,29,Mascara,045 80 49 20 / 045 80 49 37 / 0777 72 12 97,physical,,
634,ABABSSA MOHAMED,Rue Boukasri ETAHAR Mascara,29,Mascara,045 75 29 71,physical,,
635,BEN KHADA YOUCEF,6 RUE NACEREDDINE Mascara,29,Mascara*,,physical,35.4020988,0.1400257
636,ZEMOULI MOHAMED,19 RUE MAHMOUD Mascara,29,Mascara*,,physical,35.385337,0.1265627
637,BEN KABOU FRIH MOHAMED,Boite postale 1009 Mohamadia Mascara,29,Mohamadia,045 89 99 39,physical,35.5919096,0.06542
638,GHARAS LAKHDAR,19 Rue Pasteur Mohamadia Mascara,29,Mohamadia,0798 90 43 49,physical,,
639,MOUADYH ABDELMONAAM,RUE BOUKHELIF BEN OUDA Mohammadia Mascara ,29,Mohamadia,0661 79 47 49,physical,,
640,BOUKHARI RABAH,18 Rue Akid Lotfi Sig Mascara,29,Sig,045 64 95 40 / 045 64 95 37,physical,,
641,NAKROUF MOHAMED,CITE 23 LOGTS BT C/17 VILLE NOUVELLE Sig  Mascara,29,Sig,045 62 31 69 / 045 62 31 69 / 0775 07 81 09,physical,34.0230185,-4.9982704
642,BELMELIANI ABEDELKADER,23 RUE ZIGHOUD YOUCEF Sig Mascara,29,Sig,045 97 10 91,physical,35.5330201,-0.1986068
643,KHELLADI KADA,24 Cité Ziroute Youcef Tighenif Mascara,29,Tighenif,045 98 71 34,physical,,
644,BERADAI MOSTAPHA,128 Rue Didouche Mourad Tighenif Mascara,29,Tighenif,045 98 71 34,physical,,
645,BE AICHA LAKHDAR,Rue Semache Said Tighenif Mascara,29,Tighenif,045 97 18 07 / 0776 46 35 75,physical,,
646,CHAREF KHOUDJA,Rue des martyres (à coté du cinéma) Tighenif Mascara,29,Tighenif,045 97 19 14 / 0561 51 33 92,physical,,
647,CHAABANE HASSAN,Rue Benacer El Djillali Bouhanifia Mascara,29,Bouhanifia,045 87 72 57,physical,,
648,KENICHE MOHAMED,ROUTE DE SAIDA RUE ABED MOKHTAR Ghriss Mascara,29,Ghriss,045 81 91 50,physical,,
649,BOUKOUIDER DAHO,Cité 110 Logements Ghriss Mascara,29,Ghriss,045 74 54 32 / 0551 65 89 83,,,
650,CHAMBRE REGIONALE DES NOTAIRES DE L'OUEST,ZONE DES SIEGES 16 USTO Oran,31,Oran,,chamber,35.6989253,-0.5996961
651,CHAIB DHRAA MOHAMED,11 RUE ZIDANE MILOUD Oran,31,Oran,041 40 12 18 / 0555 11 77 92,physical,35.6925458,-0.6482091
652,BEN ADDA MOHAMED NACER EDDINE,11 Rue Chalemagne Oran,31,Oran,041 29 53 70 / 0658 59 43 39,physical,,
653,BOUAZA ABID AHMED,60 RUE CHARIT ALI CHERIF Oran ,31,Oran,041 33 10 20 / 041 33 25 05 / 0661 20 28 28 ,physical,42.7337073,-84.5351043
654,HADJAL MOHAMED,12 Rue Kerras Aoued Oran,31,Oran,041 33 56 18,physical,,
655,SOCIETE CIVILE PROFESSIONNELLE BEDJAOUI FATIMA ET BEN MOHAMED EL HOUARIA ,10 RUE COMMANDANT FERADJ Oran,31,Oran,041029 41 37 / 041 29 60 70 / 0661 55 50 70,company,35.7047221,-0.6372929
656,DIABI BRAHIM,32 Rue Mohamed Khemisti Oran,31,Oran,041 33 39 36 / 041 33 67 99,physical,,
657,MAHMOUDI ZOUBIDA,09 Rue Soumam Oran,31,Oran,041 36 18 07 / 041 36 18 00 / 0661 20 30 05,physical,,
658,HAICHOUR AISSA,06 Rue Jhon Lefnetlen Batiement A2 Oran,31,Oran,0662 42 46 97,physical,,
659,SADEK BAROUDI,30 Rue Hadj Fridj Daif Allah El Otmania Oran,31,Oran,041 32 73 35 / 0774 86 08 61,physical,35.6987388,-0.6349319
660,BEKHTAOUI SAID,02 Rue DIF ALLAH DJILALI ANGLE  BOULEVARD TRIPOLI Oran,31,Oran,041 33 85 04 / 041 33 85 14 / 0661 20 34 11,physical,35.7051525,-0.6365844
661,HERNANE ABEDERRAHMENE,9 RUE CHINDER Oran,31,Oran,041 29 65 18,physical,35.7002039,-0.6493789
662,HENNI MISSOUM,13 Rue Zirout Youcef Oran,31,Oran,041 30 59 50 / 055 26 04 25,physical,,
663,BEN AISSA ETTAIB,02 Coopérative El Khettabia Bir El Djir Oran,31,Oran,041 27 30 81 / 0558 38 60 14,physical,,
664,BOUZIAN MOULAY ALI,Cité USTO 1000 Logements Oran,31,Oran,041 83 71 04 / 041 83 71 03 / 0770 10 29 06,physical,,
665,ABED MILOUD,02 Batiement M2 El Othmania OranOran,31,Oran,0790 90 14 64 / 041 23 53 42,physical,35.6987388,-0.6349319
666,SOCIETE CIVILE PROFESSIONNELLE NAAMENE MUSTAPHA ET DAR CHERRIF YAMINA,14 RUE AMAR IBRAHIM Oran,31,Oran,041 33 38 76 / 041 33 37 32 / 0661 21 10 68,company,35.67576,-0.654856
667,HAMAN BEKKAI ,Cité des enseignants 525  Logements Batiment 2 n 02 Khemisti Oran,31,Oran,041 73 07 99 / 0549 05 99 57 / 0552 85 82 82 ,physical,,
668,BEN HAMOUDA ABDELKADER,RUE FARES EL HOUARI BATIMENT 632 bis  USTO Oran,31,Oran,041 70 73 14 / 0557 04 47 10,physical,35.6987388,-0.6349319
669,REBAH MOHAMED AISSA,75 RUE LARBI BEN M'HIDI Oran,31,Oran,041 33 30 20 / 0661 21 60 77,physical,35.7031615,-0.6368335
670,AZZOUZ LARBI,03 Rue Tripoli Oran,31,Oran,041 39 62 85,physical,,
671,MASMI MOHAMED,CITE 500 LOGTS BT O BLOC 118 MARCHE 3 Oran Hlm Seddikia Oran,31,Oran,041 42 58 29 / 041 42 55 54 / 0560 26 20 20,physical,35.7091222,-0.6085749
672,SOCIETE CIVILE PROFESSIONNELLE MAHI EL AMINE & LAHCEN NACER ZIN-EDDINE,35 RUE DU 20 AOUT 55 Oran,31,Oran,0661 20 13 03 / 041 33 72 42 / 041 33 62 37,company,35.7045419,-0.6408513
673,KADRI AHMED,01 Boulevard El Arbi Tebessi Oran,31,Oran,041 33 34 01 / 0770 40 02 07,physical,,
674,SOCIETE CIVILE PROFESSIONNELLE KIHEL ABD EL KRIM ET ARRICHI ABD ALLAH,04 Rue Frère Chemloul Oran,31,Oran,041 30 33 92 / 0779 30 18 15,company,,
675,GUETTAF ABD EL KADER,Cité Dar El Beida Batiement E n 07 Oran,31,Oran,041 75 72 76 / 0770 51 01 70,physical,,
676,REMACE ABED EL KADER,21 Rue Lamatine Oran,31,Oran,041 33 51 70 / 041 41 12 67 / 0799 72 51 90,physical,,
677,KHEROUA Abd EL MADJID,01 Rue Mohamed Boudiaf Oran,31,Oran,041 29 19 94 / 041 29 60 13 / 0661 20 65 35,physical,,
678,ZEBAR KAHLI MERIEM,3 RUE JEAN KRAFT MIRAMAR Oran,31,Oran,041 40 82 63 / 041 42 67 63,physical,35.7037512,-0.6324466
679,AIOUNI MOHAMED,Cité 540 Logements Batiment B 33 Esseddikia Oran,31,Oran,041 42 71 13 / 041 42 67 63,physical,,
680,LAACHOUB MOHAMED,Cité 176 Logements Batiment A Eseddikia Oran,31,Oran,0661 20 18 73 / 041 74 85 26,physical,35.8020205,-0.3706755
681,HAFANE BEN ARMAS MOHAMED AOUED,28 Rue zirout Youcef Oran,31,Oran,041 30 17 39 / 0661 16 46 21,physical,,
682,BEKKOUCHE FOUZI,14 Boulevard Larbi Tebessi Oran,31,Oran,041 33 24 24 / 0661 20 00 12,physical,,
683,MEROUANE ABDELLAH,Cité HLM Batiment A22 Eseddikia Oran,31,Oran,0559 39 23 45,physical,35.8577443,-0.3096606
684,GUENZET AMAR,01 Rue Frères Affane Oran,31,Oran,041 30 16 26 / 0772 18 05 87,physical,,
685,OUACHENE NOUREDDINE,Cité Dar El Beida Batiement A 558 Oran,31,Oran,0771 47 18 38 / 041 75 95 33,physical,35.6987388,-0.6349319
686,ALTAR ABEDELKADER,100 Rue Khayat Salah Cité Ghoualem Oran,31,Oran,041 23 19 45 / 0661 20 55 56,physical,35.5522349,-0.4487997
687,BEN AMER RACHIDA,Cité Akid Ben Ouali Ibn Rochd Batiment 15 Oran,31,Oran,041 82 43 82 / 0661 21 32 98,physical,35.8577443,-0.3096606
688,SOCIETE CIVILE PROFESSIONNELLE ARICHI ABDELLAH ET KIHEL ABD EL KRIM,37 Rue Docteur Benzerdjeb Oran,31,Oran,041 30 33 92 / 0560 25 16 97,company,35.7062629,-0.6140773
689,NECIF ALI,Cité Akid Lotfi Résidence Oran,31,Oran,041 74 56 78 / 0657 13 07 73 / 0550 82 94 22,physical,,
690,MECHRAFI TAHER,03 Batiement 28 Cité 304 Logements Eseddikia Oran,31,Oran,041 53 83 91 / 041 53 83 96 / 0661 20 83 28,physical,35.6862979,-0.6682545
691,BEN ADDA EZZAHRA ,10 Rue Ben Bria abd el kader Sidi El bachir Oran,31,Oran,041 40 32 33 / 0554 98 35 83,physical,,
692,BEN HAMZA MEHDI,72 Rue Lefrid Gambetta Eseddikia Oran,31,Oran,041 62 44 99 / 0550 90 90 97,physical,,
693,BEN ZAID AMINA,16 Boulevard Djellat El Habib Guambitta Oran,31,Oran,041 39 74 53 / 0661 16 60 08,physical,,
694,SoCIETE CIVILE PROFESSIONNELLE BEN MOHAMED EL HOUARIA ET BEDJAOUI FATMA ,39 Rue Bougherra Khelifa Aracol Oran,31,Oran,041 29 41 37 / 041 39 60 70 / 0669 66 75 82,company,,
695,BEN OUNNAN REDA,38 Rue Mohamed Khemisti Oran,31,Oran,041 33 63 24 / 041 33 74 87 / 0661 29 73 50,physical,,
696,BOUTEFLIKA MOURAD,25 Rue 20 Aout Oran,31,Oran,041 33 26 74 / 041 33 11 69 / 0661 12 61 05,physical,,
697,BABA AHMED ASMAHANE,08 Rue Larbi Tebessi Oran,31,Oran,041 39 22 26 / 0661 20 61 85,physical,,
698,BOULILA FATIMA ,Diar Maaraka Aflou 500 Logements Esseddikia Oran,31,Oran,041 53 78 14,physical,,
699,HARMEL EL HOUARI,09 Batiment B1 Ilot H5 Résidence Echouroul 5 juillet Khemisti Oran,31,Oran,041 48 84 53 / 0559 05 79 56,physical,,
700,SOCIETE CIVILE PROFESSIONNELLE DAR CHERRIF YAMINA ET NAAMANE MUSTAPHA,14 RUE AMAR IBRAHIM Oran,31,Oran,041 33 38 76 / 0771 53 78 41 / 041 33 37 32,company,,
701,RACHED SAMI AMAR,05 Zhun USTO Coopérative Adnane Mustapha Bir El Djir Oran,31,Oran,041 83 81 74 ,physical,,
702,ZERHOUNI FOUAD,1 Batiment 413 HLM Ibn Rochd Oran,31,Oran,041 83 75 45,physical,,
703,SOCIETE CIVILE PROFESSIONNELLE ARRICHI KHADIR ET SABER CHOUIREF AHMED ,311 Bloc 03 Ilot Grand terre Batiement A Dar El Beida Oran,31,Oran,041 75 71 52 / 0551 27 60 69,company,,
704,FERRAHI MOUNIR,121 Ilot 232 Cité Khemisti Oran,31,Oran,0553 32 32 42,physical,,
705,MAMOUNE HANANE,25 Rue Docteur Benzerdjeb Oran,31,Oran,041 30 22 20 / 0558 71 16 15,physical,,
706,NAIT SID AHMED RABIAA,04 Rue Ben Draoua Abd El Kader Guambitta Oran,31,Oran,041 53 44 30 / 0551 13 82 53,physical,,
707,GUERROUDJ AMAL,103 Akid Lotfi  Khemisti Oran,31,Oran,0662 62 42 40,physical,,
708,GUETTAF ILHAM,90 logements Batiment 1B Akid Lotfi Oran,31,Oran,041 62 13 33 / 0660 03 14 72 / 0660 70 32 48,physical,,
709,HABOUR ABD EL LATIF,11 Rue Larbi Ben Mehdi Oran,31,Oran,041 40 01 62 / 0561 01 09 13,physical,,
710,KASMI MOHAMED,08 Promotion immobilière El Ouafaa Batiemnt W Akid Lotfi Oran,31,Oran,041 87 02 34 / 0771 22 74 59,physical,,
711,MAGHFOUR REDA,13 Batiement 6B Résidence Ibn Khaldoun Akid Lotfi Oran,31,Oran,0557 44 10 02 / 041 28 61 85,physical,,
712,BELBIOUDH BEN AISSA,38 Rue Mohamed Ben Mohamed Cité Essaada Oran,31,Oran,041 21 81 06 / 0770 12 13 36,physical,35.6987388,-0.6349319
713,BOUALKARAA MOKHTAR,Angle Bouaaza abdallah et jardi mohamed Khemisti Oran,31,Oran,,physical,,
714,DJABIR MEGHRAOUI,30 Boulevard Arib Houari Coopérative El feth Oran,31,Oran,,physical,,
715,MERIAH ALI,38 ilot 154 Boulevard du millenaire Bid El Djir Oran,31,Oran,,physical,,
716,BELIL EL HABIB,03 rue Hamou Boutelilis Cité Amir Abd El Kader Oran,31,Oran,,physical,,
717,DJERMANE EL AID,Cité Mezghena Batiment F Akid Lotfi Khemisti Oran,31,Oran,,physical,,
718,MANSOURI NACER EDDNIE,1 Ilt B Cité 260  Logements Felaoussen Oran,31,Oran,,physical,,
719,HAZEB BRAHIM MOHAMED FELLAH,3 CITE 1245 LOGTS BT 445 ENTREE 2 CITE IBN ROCHD Oran Usto Oran,31,Oran*,,,35.7043816,-0.6008798
720,LATTOUF ABDELWAHAB,VILLA 98 COOPERATIVE 18 FEVRIER CITE SALEM EX SAINT HUBERT Oran,31,Oran*,,,35.6987388,-0.6349319
721,LABIOUDH MOHAMED,5 RUE DE LA MARTINE  Oran,31,Oran*,,,35.6839831,-0.6030241
722,LATOUF ZIAD,10 PLACE AUCHE Ora,31,Oran*,,,35.6786655,-0.6536763
723,MAALOUFI ABDELHAMID,19 RUE BOUDJELLAL AHMED Oran,31,Oran*,,,35.7058968,-0.6336155
724,MAFTAHI MOHAMED,CITE ABDELKADER OUELD AMER Oran,31,Oran*,,,35.6721197,-0.6334462
725,MOUFFOUKI YAMINA,34 RUE MEKKI KHELIFA MARAVAL Oran,31,Oran*,,,35.6759054,-0.651467
726,OTHMANI ABED EL MADJID,2 RUE SERGENT HADHRI MOHAMED Oran,31,Oran*,,,35.6987388,-0.6349319
727,BEN ARBA MOHAMED AMINE,10 Cite Benboulaid batiment B Arzew Oran,31,Arzew,041 77 93 83 / 0661 70 18 52,physical,,
728,MEROUANE ABD ERRAHMANE,02 Rue des martyrs Arzew Oran,31,Arzew,0665 11 15 78,physical,,
729,MEDJAHED DJAMEL,02 Rue Didouche Mourad Arzew Oran,31,Arzew,041 79 20 69 / 0670 01 20 13,physical,,
730,HASSINI BEN YOUNES,Rue Mohamed Khemisiti Gdyel Oran,32,Gdyel,0552 03 31 78 / 0697 17 19 23,physical,,
731,TAHRI AHMED,Cité 212 LSP n) 02 Batiment C  Gdyel Oran,33,Gdyel,040 22 78 11 / 0661 20 26 86 / 0796 69 99 92,physical,,
732,MADANI SAAD,49 Rue Derkaoui Ettaib Hassi Bounif Oran,34,Gdyel,041 67 91 91 / 0661 20 17 40,physical,,
733,GEUN MILOUD,16 RUE ECHARK GDYEL Oran,31,Gdyel*,,physical,35.6951387,-0.6427937
734,ZELLAT BELKACEM,30 bis Rue Emir Abd El Kader Ain Turk Oran,31,Ain Turk,041 44 22 76 / 041 44 22 86,physical,,
735,BOUDHRAA BOUALEM,20 RUE MOHAMED KHEMISTI MARSA EL KBIR Oran,31,Ain Turk,041 15 55 59 / 041 15 53 95 / 0555 31 52 76,physical,35.7286847,-0.7069677
736,AKIHNAI ABD ENNOUR,20 bis Rue Harichi Boumedienne  Ain Turk Oran,31,Ain Turk,041 44 82 43 / 0771 41 40 04,physical,,
737,ASSIA EL HOUARI,19 Rue Fessas  Ain Turk Oran,31,Ain Turk,041 10 00 91 / 0561 77 58 60,physical,,
738,KENTOUH LAKHDAR,17 Rue de la Palestine  Ain Turk Oran,31,Ain Turk,040 44 05 30,physical,,
739,LAHCEN NACER ZINE EDDINE,35 RUE DU 20 AOUT 55 Oued Tlelat Oran,31,Oued Tlelat,041 033 62 37 / 0696 45 16 79,physical,,
740,DJEBAR KOTBI,RUE SALAA EL HBIB El Bayadh,32,El Bayadh,049 67 92 78,physical,33.6854149,1.0303543
741,ADNANI ABED EL HAMID,RUE NAFAA KOUIFDER CITE RASS EL AIN El Bayadh,32,El Bayadh,049 61 31 37 / 0553 04 27 67 ,physical,33.6854149,1.0303543
742,KACEMI AHMED,49 Cité El hayat El bayadh,32,El Bayadh,049 67 16 89,physical,,
743,GUETATFI FARID,Locaux grand stade Cité Epargne  El bayadh,32,El Bayadh,049 67 15 96,physical,,
744,AMIRI MAAMAR,02 Cité Eseddikia  El bayadh,32,El Bayadh,049 67 34 35,physical,,
745,KHIDRI MOHAMED EL AMINE,57 Cité 75 Logements El Abiodh Sidi Cheikh El bayadh,32,El Abiodh Sidi Cheikh,049 73 61 31,physical,,
746,HENDAOUI MADANI,CITE 44 LOGTS 19El Abiodh Sidi Cheikh El Bayadh,32,El Abiodh Sidi Cheikh*,,,32.8970651,0.5457605
747,IDRISSI AHMED,42 LOGTS NOUVELLE ZONE URBAINE Illizi,33,,,,26.4775863,8.4776326
748,AYADHAT BOUDAOUD,45 RUE DU 24 AVRIL Bordj Bou Arreridj,34,,,,36.0739925,4.7630271
749,BEN DIB DJAMEL EDDINE,28 RUE MOHAMED ZEROUKI Bordj Bou Arreridj,34,,,,36.0691561,4.7627336
750,M'BARKI M'BAREK,13 RUE REMECHE AISSA PROMOTION INDIVEDEUL Bordj Bou Arreridj,34,,,,36.0739925,4.7630271
751,TAGIA RABEH,CITE 50 LOGTS BP 82 Ras El Oued Bordj Bou Arreridj,34,,,,35.9402582,5.0283213
752,BEN HIZIA ALI,8 CITE 1ER NOVEMBRE 54 Bordj Bou Arreridj,34,,,,36.0739925,4.7630271
753,SEMARA ILYES,RUE 1ER NOVEMBRE 1954 Ras El Oued Bordj Bou Arreridj,34,,,,35.9402582,5.0283213
754,AMMOUR ZOHEIR,RUE DE L'ALN Mansoura Bordj Bou Arreridj,34,,,,34.8742141,-1.3260841
755,BELGHERBI FARIDA,CITE 300 LOGTS VILLA 8 Boumerdes,35,,,,36.7551365,3.4562362
756,IGHIL GUITOUN OMAR,CITE 708 LOGTS BT A 4 Boumerdes,35,,,,36.7510697,3.4788905
757,BENAKILA ABBES,CITE DES 392 LOGTS BT A 19 Boumerdes,35,,,,36.7653826,3.4644695
758,FEKROUNE BOUBEKEUR,CITE 1406 LOGTS BT 24B 2 Boumerdes,35,,,,36.7510697,3.4788905
759,MEZIANE AMER,COOP EL HOURIA CITE BEN ADJAL Boudouaou Boumerdes,35,,,,36.7204759,3.396615
760,KHRAIMECHE DJAMEL,CITE 11 DECEMBRE 1960 Boumerdes,35,,,,36.7551365,3.4562362
761,OUSLIMANE NOURA,CITE 1406 BT 85 01 Boumerdes,35,,,,36.7510697,3.4788905
762,BOURAOUI MADJID,RUE TOUATI GHANEM Boudouaou Boumerdes,35,,,,36.7204759,3.396615
763,MEDELFEF REDOUANE,53 RUE ALI BENNOUR Bordj Menaiel Boumerdes,35,,,,36.7451529,3.7170988
764,SEBAB SIAB,CITE DE 18 LOGTS RTE NATIONALE 44 Ben M'hidi  El Tarf,36,,,,36.7666372,7.9055824
765,ACHOURI RABEH,RUE HAMDI ABDELLAH MADJID El Tarf,36,,,,36.7576678,8.3076343
766,BERHIHE ABDELGHANI,25 RUE ZEMOURI MOHAMMED Drean El Tarf,36,,,,36.6865627,7.7208062
767,SEDDIK SOUAD,LA RTE NATIONALE CITE SAADA BATIMENT 01 Ben M'hidi El Tarf,36,,,,36.7666372,7.9055824
768,MENACER ABD LAAZIZE,CITE 46 LOGTS 44 Drean El Tarf,36,,,,36.6865627,7.7208062
769,KADRI MOHAMED,ROUTE BOUHADJAR El Tarf,36,,,,36.5075732,8.1058446
770,BOUKHARI NACIRA,BOULEVARD ARASSI ABD ELMADJID Drean El Tarf,36,,,,42.58912,-71.15457
771,CHERAD MAHMOUD,RUE AISSAT IDIR GUASABI Tindouf,37,Tindouf,,physical,27.6719159,-8.1398003
772,BELAAMECH OUAFIA,Cité Slimane Amirat El Guasabi Tindouf,37,Tindouf,,physical,,
773,DAHOU YAMINA,Rue Hamdi Ahmed El Guasabi Tindouf,37,Tindouf,,physical,,
774,TEFANDJAR SAID,CITE 100 LOGTS Tissemsilt,38,Tissemsilt,046 47 65 99 ,physical,35.6597215,1.5351457
775,OUNAS ALI,17 Cité 40 Logements CNEO Tissemsilt,38,Tissemsilt,046 22 20 99 / 0550 83 04 20,physical,,
776,GUERROUDJ BEN TAMRA,Cité Mekirat Belaid  Tissemsilt,38,Tissemsilt,0772 89 48 04 / 046 57 13 62,physical,,
777,BOUHADI ABD EL KADER,Cité 08 Mai 1945  Tissemsilt,38,Tissemsilt,046 47 82 15,physical,,
778,KASSILI TATA SABRINA,Rue Bouloufa Abd El Kader  Tissemsilt,38,Tissemsilt,046 47 04 72,physical,,
779,MAIZI KHALED,34 Rue Arib El Djilali Tissemsilt,38,Tissemsilt,046 47 97 39,physical,,
780,BEN ABEDELLAH M'HAMED,4 CITE KABOUL AHMED Lardjem Tissemsilt,38,Tissemsilt*,,,35.7491541,1.5474579
781,CHOUNANE ALI,04 Rue Houari Boumedienne Bordj Bou Naama  Tissemsilt,38,Bordj Bou naama,046 49 38 80,physical,,
782,MEKHISSI MOHAMED AMINE,Cité de la Révolution Lerdjem  Bordj Bou Naama  Tissemsilt,38,Bordj Bou naama,046 53 41 31 / 0555 25 88 18,physical,,
783,RATOUL EL HADJ,Cité Frères Taian  Bordj Bou Naama  Tissemsilt,38,Bordj Bou naama,046 50 33 09,physical,,
784,LAATEB MOHAMED,10 Rue du Riz Theniet El Had Tissemsilt,38,Theniet El Had,046 48 35 22,physical,,
785,NEKAR AMAR,01 Rue de l’indépendance  Theniet El Had Tissemsilt,38,Theniet El Had,0772 73 89 32 / 046 48 20 98 ,physical,,
786,HADIL AHMED,05 Rue Bouguara mohamed mansour  Theniet El Had Tissemsilt,38,Theniet El Had,046 58 28 13,physical,,
787,RAHMANI FATIHA,CITE OUM SALMA El Oued,39,,,,33.367811,6.8516511
788,M'KARAB ABED EL HAMID,CITE DES ENSEIGNANTS BT 5 L'MAGHAIR El Oued,39,,,,33.367811,6.8516511
789,ZAHRI ABDERREZAK,16 AVENUE ABBES LAGHROUR Khenchela,40,,,,35.4269404,7.1460155
790,ALLALI AHMED,2 AVENUE DE LA PALESTINE Khenchela,40,,,,35.4269404,7.1460155
791,SIADI MOHAMED SADEK,118 CITE 700 LOGTS BT B Khenchela,40,,,,35.4242584,7.1453609
792,YAKHLEF MESSAOUD,31 RUE EMIR ABDELKADER Khenchela,40,,,,35.4355788,7.1482096
793,HAZIL EL AYACHI,1 RUE DU 1ER NOVEMBRE 54 Khenchela,40,,,,35.4269404,7.1460155
794,EL AIDI AHMED,CITE SALAH SOUFI BT 4/2 Sedrata Souk Ahras,41,,,,36.1345249,7.5297476
795,LAAROUM MUSTAPHA,8 AVENUE MOULOUD FERAOUN Souk Ahras,41,,,,36.2855903,7.9613829
796,TALBI MUSTAPHA,PLACE DE L'INDEPENDANCE Souk Ahras,41,,,,36.2801062,7.9384033
797,SAHRAOUI MOHAMED TAHAR,9 RUE HADJ AHMED OUADI Cherchell Tipaza,42,,,,36.5955738,2.2525015
798,GUECHOUT ABDELLATIF,36 AVENUE ALI BELHACEN Cherchell Tipaza,42,,,,36.5955738,2.2525015
799,BERTIL MOHAMMED,RUE LES FRERES TAIL Hadjout Tipaza,42,,,,36.5088655,2.4128469
800,MEBARKI SALAH,CITE 82 LOGTS RTE DU STADE 2 Hadjout Tipaza,42,,,,36.5121841,2.4142994
801,BOUKEFFA MESSAOUD,RUE BOUCHOUNE MOHAMED Bou Ismail Tipaza,42,,,,36.6392852,2.6962722
802,NASSRI MOHAND,2 CITE 150 LOGTS BT B22 Kolea Tipaza,42,,,,36.6381616,2.7669757
803,ZIBOUCHE RIDHA,RUE DE LA GENDARMERIE NATIONALE Tipaza,42,,,,36.5901285,2.4513385
804,BOUKHALFA NASSIMA,RUE AYOUMA MOHAMMED 25 Tipaza,42,,,,36.5906719,2.4433723
805,MAAMAR HAROUN,32 RUE LAASSEL ABDELHAMID Hadjout Tipaza,42,,,,36.5104252,2.4104798
806,HAMMOUDI SAAD,RUE DES FRERES DJARBOUA Ain Tagourait Tipaza,42,,,,36.6027621,2.6091145
807,KEMOUCHE MOHAMED,7 RUE YOUCEF KHOUDJA Cherchell Tipaza,42,,,,36.6079573,2.1890427
808,MEKHLOUFI MUSTAPHA,AVENUE 40 LOGTS BT S 22 Tipaza,42,,,,36.5906719,2.4433723
809,BOURAS RABEH,DAIRA DE TELAGHMA Oued Seguen Mila,43,,,,36.1787191,6.3889194
810,BOUHLESSA AMAR,26 CITE OUSCOURT ABEDKRIM Chelghoum Laid Mila,43,,,,36.1591597,6.1727342
811,LABIOD MOHAMED,33 CITE OUSKOURT ABEDELKRIM Chelghoum Laid Mila,43,,,,36.1646701,6.1636356
812,BOUCHERMA DRISS,02 CITE DES 100 LOGTS BT 2 Zeghaia Mila,43,,,,36.4692715,6.1755208
813,DRIDI THEBET HABIBA,14 RUE SAIGHI Mila,43,,,,36.4519049,6.2584338
814,FILALI ABEDREZAK,1 RUE BOULHARTH SALEH Mila,43,,,,36.4519049,6.2584338
815,KHALFA AMAR,CITE DES 500 LOGTS BT B 3 Ferdjioua Mila,43,,,,36.4051142,5.94196
816,TORCHI HAMOU,CITE SOUMMAM Ferdjioua Mila,43,,,,36.3928996,5.93253
817,DRIDI EL HADI,CITE SOUMMAM 200 LOGTS BT 2 C Ferdjioua Mila,43,,,,36.4051142,5.94196
818,MKADEM AFFAF,CITE AHMED BOUSEKINE N 21 Ferdjioua Mila,43,,,,36.4051142,5.94196
819,KEBI ABDELHAMID,167 CITE 500 LOGTS Mila,43,,,,36.4555626,6.2608287
820,TEBANI MOHAMED,01 RUE CHÂTEAU D' EAU Mila,43,,,,36.4519049,6.2584338
821,BEN ZAHRA SALAHEDDINE,38 RUE MAHMOUD BEN TOUNSI Mila,43,,,,36.4519049,6.2584338
822,BELMENAI YASER,03 RUE 1ER NOVEMBRE 1954 Mila,43,,,,36.4519049,6.2584338
823,YAKHLEF DJAMEL,142 CITE BOUTOUT BT 14 Mila,43,,,,36.455673,6.2651446
824,CHANIBE SAMIA,CITE 18 LOGTS Oued Endja Mila,43,,,,36.5000205,6.0713274
825,MOKRANE SALIHA,44 RUE EL HOURIA Mila,43,,,,36.4519049,6.2584338
826,MAHNAOUI NABIL,84 CITE 150 LOGTS BT C5 Chelghoum Laid Mila,43,,,,36.1635599,6.1837559
827,LABED CHERIF,CITE 20 AOUT 1955    Chelghoum Laid Mila,43,,,,36.1591597,6.1727342
828,BOUNAMOUSE ABDELHAK,RUE ALI ZEGHDOUD 20 BIS Mila,43,,,,42.3836083,-87.9446972
829,ZIDOUK DJILLALI,CITE DES FRERES MENAD NUMERO 121 Ain Defla,44,,,,36.2509429,1.9393815
830,ACHOUR ALI,RUE ABESS MOHAMED Khemis Miliana Ain Defla,44,,,,36.2609828,2.2343578
831,EL MAIZI DJILLALI,RUE DJADI ABDELKADER Khemis Miliana Ain Defla,44,,,,36.2609828,2.2343578
832,MOULELOUED ABDELKADER,RUE MOHAMED KHEMISTI El Attaf Ain Defla,44,,,,36.2612536,1.9627311
833,BEN AIDA RACHIDA,194 CITE OPGI El Attaf Ain Defla,44,,,,36.2258291,1.6737113
834,YEMOUNI AHMED,RUE BEL SAADI ABDELKADER Khemis Miliana Ain Defla,44,,,,36.2612536,1.9627311
835,KELKOULI NADIA,CITE SIDI MAAMER BT 1/543 Khemis Miliana Ain Defla,44,,,,36.2609828,2.2343578
836,ABBADA NEZHA,4 RUE DU PALESTIN CITE NORD Miliana Ain Defla,44,,,,36.3080267,2.228407
837,ABDELBAKI SOUAD,18 CITE FRERES MENAD Ain Defla,44,,,,36.2612536,1.9627311
838,LABOUZI AMAR,RUE FRERES OULIDREN Ain Defla,44,,,,36.2612536,1.9627311
839,SLIMANI MOHAMED,RUE 1er NOVEMBRE Khemis Miliana Ain Defla,44,,,,36.2609828,2.2343578
840,ABDELBAKI SOUAD,5 RUE FRERES MENAD PROJET 18 LOGTS BT B Ain Defla,44,,,,36.2612536,1.9627311
841,NOMAIRI & SAAD POUR LES SERVICES AGRICOLES SNC,28 RUE KOUASMI DJILLALI Ain Defla,44,,,company,36.2509429,1.9393815
842,SLIMANI MOHAMED,Rue Hamidat Belkheir Naama,45,Naama,0149 59 60 70,,,
843,SOUSSI YAMINA,96 Rue Kebir Laaredj Naama,45,Naama,049 59 37 47,,,
844,REBH ALLAH MEJDOUB,Rue Docteru Benzeedjzb Mecheria Naama,45,Mecheria,049 77 43 36,physical,,
845,TEBBOUNE MOSTAPHA,09 Rue Taibi Ahmed Mecheria Naama,45,Mecheria,049 77 61 88,physical,,
846,RAGUIOUT MOSTAPHA,Rue Ben Dahou Ettahar Mecheria Naama,45,Mecheria,049 57 55 21,physical,,
847,SADIKI MOKHTAR,RUE CHOUAKI TAYEB 8 LOGTS Mecheria  Naama,45,Mecheria*,,,33.5428376,-0.2751123
848,KACI NOUREDDINE,CITE KHEMISTI RUE BEN OUDA MOHAMED Mecheria Naama,45,Mecheria*,,,33.5428376,-0.2751123
849,RAHMANI LAARADJ,Cité Soumam Ain Sefra Naama,45,Ain Sefra,049 76 26 44 / 049 76 26 44 ,physical,32.7591169,-0.5782621
850,BOUFELDJA LAID,01 Batiment A Cité 160 Logements Ain Sefra Naama,45,Ain Sefra,049 56 64 97,physical,,
851,MAAROUFI YOUCEF,503 Cité Meziane Mohamed 1000 Loements Ain Temouchent,46,Ain Temouchent,040 97 14 01 / 043 60 17 07,physical,,
852,SOUABI MOHAMED,962 Cité Meziane Mohamed 1000 Loements Ain Temouchent,46,Ain Temouchent,043 60 23 99 / 043 79 41 32 / 0661 22 73 81,physical,35.2992698,-1.1392792
853,ARICHI ABD EL MOUMEN,25 Rue Rahou Kada  Ain Temouchent,46,Ain Temouchent,043 79 66 50 / 0771 15 22 55,physical,, 
854,BAHLOUL YAHIA,16 RUE M'BAREK BOUCIF Ain Temouchent,46,Ain Temouchent,043 60 26 04 / 0661 22 72 67,physical,35.2914326,-1.1390807
855,RAHALI BAROUDI,12 RUE EMIR ABDELKADER El Malah Ain Temouchent,46,Ain Temouchent,043 75 64 61 0774 74 15 59,physical,35.3870327,-1.0976722
856,BELKHCHI FATIHA,41 CITE ABOU BEKR ESSEDIK Ain Temouchent,46,Ain Temouchent,043 79 59 05 / 043 79 32 41 / 0661 22 71 00,physical,35.2992698,-1.1392792
857,BELAHCEN FATNA,06 Cité El Ble  Ain Temouchent,46,Ain Temouchent,043 79 39 90 / 0778 10 66 61 ,physical,,
858,BEN OUADDAH ABD EL HAMID,03 Batiment A Cité 3015 Logements Tounsi  Ain Temouchent,46,Ain Temouchent,043 61 49 16 / 0556 37 29 87 ,physical,,
859,MOKDAD ZAHRA,388 Cité Meziane Mohamed 1000 Loements  Ain Temouchent,46,Ain Temouchent,043 78 53 42,physical,,
860,TOUAMI ETTAIB,06 Cité 90 Logements El Baraka Hammam Bouhdjar Ain Temouchent,46,Hamam Bouhdjar,043 73 61 73 / 0696 54 45 09,,,
861,ALIOUET SIDI MOHAMED,01 Cité 100  Logements  Hammam Bouhdjar Ain Temouchent,46,Hamam Bouhdjar,043 63 17 50 / 0773 24 64 63,,,
862,MAHI KHADIDJA,10 Rue Karl Marks Beni Saf Ain Temouchent,46,Beni saf,043 74 39 49 / 0777 11 26 40,,,
863,BERACHED SAAD,91 RUE DE LA REPUBLIQUE Beni Saf Ain Temouchent,46,Beni saf,043 74 33 08 / 043 74 33 08 / 0796 89 77 79,,35.2897861,-1.3768856
864,BEN MANSOUR MALIK ABD ERRAHMANE,107 Rue de la Révolution  Beni Saf Ain Temouchent,46,Beni saf,043 74 36 32 / 0554 95 06 46,,,
865,ZEOUANI ZEHOUR,17 Rue Frère Alami Al Amria Ain Temouchent,46,El Amria,043 76 17 15 / 043 76 17 20 / 0774 93 21 30,,,
866,SIROUKANE OMAR,RUE LARBI BEN M'HIDI Bounoura Ghardaia,47,,,,32.4889043,3.6705385
867,DKHINISSA RABAH,RUE ACHAHMA MOUSSA CITE THENIET EL MAKHZEN Ghardaia,47,,,,32.4759277,3.6846906
868,BOUSSAAD SAID,RUE EMIR ABDELKADER GUERRARA Ghardaia,47,,,,32.48625,3.6757622
869,ALLAL BAHAZ,AVE EMIR ABDELKADER BP 321 Ghardaia,47,,,,32.48625,3.6757622
870,EL HADJ MOHAMMED BELAHMED,RUE CHEIKH BELAHMED Ghardaia,47,,,,32.4889043,3.6705385
871,SIROUKANE OMAR BEN MOUSSA,RUE CHEIKH ABDELAZIZ ETHAMNI BP 138 Beni Isguen Ghardaia,47,,,,32.4627718,3.6792719
872,BOUANANI MOHAMED,Angle Roue République et Boulevard Hadj Abed Atika Relizane,48,Relizane,046 72 29 56 / 0666 42 77 64,physical,,
873,DJILLALI ABEDELKADER,110  RUE DE LA REPUBLIQUE Relizane,48,Relizane,046 92 73 23 / 0770 60 54 64,physical,35.7450263,0.5578837
874,BEN RAKHRAKH MOHAMED,10 Boulevard Essad  Relizane,48,Relizane,046 71 53 93 / 0661 25 61 52,physical,,
875,BEKHEDDA SALAH,123 Rue Sidi Abed  Relizane,48,Relizane,064 71 60 29 / 0773 70 58 01,physical,,
876,DJILLALI MOHAMED,36 Rue Mohamed Khemisti  Relizane,48,Relizane,0772 79 78 55 / 046 72 32 70 / 0550 89 31 85,physical,,
877,MESKINI AICHA,17 Rue Sidi Abed Relizane,48,Relizane,046 71 57 35 / 0560 28 27 73,physical,35.7450263,0.5578837
878,BELARBI LAKHDAR,74 rue Ismail Mostafa  Relizane,48,Relizane,0776 25 21 52,physical,,
879,ROGUI SLIMANE,BOULEVARD EMIR ABDELKADER Relizane,48,Relizane*,,,35.7450263,0.5578837
880,BAHRI MOHAMED,9 AVENUE DOCTEUR BOUKHALOUA Relizane,48,Relizane*,,,35.745465,0.5588659
881,AZIZI KHATHIR,RUE BEN KAHLA MENOUER Oued Rhiou Relizane,48,Oued Rhiou,046 78 76 78 / 0698 81 48 35,physical,35.9770048,0.9247501
882,HENNI ABD ERRAHMANE,Rue Tazghat El Jilali  Oued Rhiou Relizane,48,Oued Rhiou,046 78 68 42 / 0550 27 25 40,physical,,
883,ACHOUR NOUREDDINE,Batiement 07 Tazghat El Jilali  Oued Rhiou Relizane,48,Oued Rhiou,046 78 62 73 / 0773 23 61 72,physical,,
884,DJALOUT FATMA,Rue Belkoudia Mamar  Oued Rhiou Relizane,48,Oued Rhiou,0792 42 95 95 / 046 78 77 40,physical,,
885,KHATHIR ABEDELLAH,RUE BEN KOUDIA MAAMAR Oued Rhiou Relizane,48,Oued Rhiou*,,,35.9770048,0.9247501
886,ATTOU KADOUR,33 Cité 50 Logements Mazouna Relizane,48,Mazouna,046 94 81 76,physical,,
887,KROUOUDRLI MENNOUR,RUE CENTRE COMMERCIAL Mazouna Relizane,48,Mazouna,046 94 73 82,physical,36.12647,0.8906102
888,KROUOUDRLI MOHAMED,Rue Abid Ahmed Bousrour Mazouna Relizane,48,Mazouna,046 94 73 82 / 0665 50 14 71,physical,,
889,BEN SAADA MUSTAPHA,CITE ADMINISTRATIVE Mazouna Relizane,48,Mazouna*,,,36.12647,0.8906102
890,KHALED AHMED,Cité Commandant Si Ali Ami Moussa Relizane,48,Ami Moussa,046 95 22 04 / 0552 08 80 72,physical,,
891,MELLAHI BEN YOUCEF,RUE KHALIFA EL HADJ Ammi Moussa Relizane,48,Ami Moussa*,,,35.8721265,1.1079316
892,BEN ADDA MOSTAPHA,Batiement 25 Cité Hadj Ahmed Ben Aouda Zemoura Relizane,48,Zemoura,046 86 35 68 / 0550 90 58 68,physical,,
