num,name,address,phone_number,category,organization,lat,lon,commune_name,wilaya_name,type_name,type_id,code_wil
"380",CCLS ADRAR,CCLS ADRAR,,pv,OAIC,27.89778568627,-0.290856016773514,ADRAR,ADRAR,Légumes secs,"5","1"
"408",CCLS TENES,Station Ouled Farres RN 19 centre Ouled Fares ,,pv,OAIC,36.226154,1.23458,OULED FARES,CHLEF,Légumes secs,"5","2"
"410",CCLS TENES,Cite Abou  Abou El Hassen,,pv,OAIC,36.4161533933345,1.19330689803688,ABOU EL HASSEN,CHLEF,Légumes secs,"5","2"
"407",CCLS TENES,Station Oued Sly  Cité Abdeli Oued Sly,,pv,OAIC,36.106413,1.194841,OUED SLY,CHLEF,Légumes secs,"5","2"
"409",CCLS TENES,Dock Métal Chlef  Route d'Alger Chlef,,pv,OAIC,36.175738,1.354213,CHLEF,CHLEF,Légumes secs,"5","2"
"427",CCLS LAGHOUAT,Zone Industrielle Bouchakour Laghouat-Ccls Laghouat,,pv,OAIC,33.7566671011382,2.88500173985964,LAGHOUAT,LAGHOUAT,Légumes secs,"5","3"
"428",CCLS LAGHOUAT,Aflou: le marché organisé par la Direction de Commerce ,,pv,OAIC,34.1203541283705,2.10905762268035,AFLOU,LAGHOUAT,Légumes secs,"5","3"
"451",ccls oum el bouaghi,oum el bouaghi MARCHE COUVERT,,pv,OAIC,35.8675246716479,7.10905495415022,OUM EL BOUAGHI,OUM EL BOUAGHI,Légumes secs,"5","4"
"452",CCLS AIN MLILA,AIN MLILA CENTRE VILLE,,pv,OAIC,36.0393924061112,6.57434194516547,AIN MLILA,OUM EL BOUAGHI,Légumes secs,"5","4"
"0",Ouled Hamla SPA Tikouyavic,CITE GOUADJLIA RABAH PROJET 160 LOG BT 09,0798 22 14 13,pv,AGROLOG,36.027295,6.56382,AIN MLILA,OUM EL BOUAGHI,Viandes,"1","4"
"366",LAITERIE NUMIDIA,Ain el beidha,,pv,GIPLAIT,35.799,7.38361,AIN BEIDA,OUM EL BOUAGHI,Produits laitiers,"3","4"
"365",LAITERIE NUMIDIA,Chef lieu,,pv,GIPLAIT,35.8724444,7.1096944,OUM EL BOUAGHI,OUM EL BOUAGHI,Produits laitiers,"3","4"
"364",LAITERIE NUMIDIA,Ouled. Hamla (Ouled. Hamla)Ain. Beida,,pv,GIPLAIT,36.080059,6.470932,AIN BEIDA,OUM EL BOUAGHI,Produits laitiers,"3","4"
"363",LAITERIE NUMIDIA,Souk. Noumne (Souk Noumane),,pv,GIPLAIT,35.899103,6.385024,SOUK NAAMANE,OUM EL BOUAGHI,Produits laitiers,"3","4"
"362",LAITERIE NUMIDIA,Ain. M'lila (Ain. M'lila),,pv,GIPLAIT,36.039264,6.574405,AIN MLILA,OUM EL BOUAGHI,Produits laitiers,"3","4"
"1",Point de vente UPD Ain Kercha SPA Thagavic,cite Mohamed m'gena nord ouest  Commune Ain Kercha,0561 65 30 18,pv,AGROLOG,35.928594,6.684329,AIN KERCHA,OUM EL BOUAGHI,Viandes,"1","4"
"389",ccls batna,Route Wilaya Num  160 Foum Toub Centre,,pv,OAIC,35.405006,6.550094,FOUM TOUB,BATNA,Légumes secs,"5","5"
"391",ccls batna,Rue Louchene Tahar N28 Ain Touta,,pv,OAIC,35.378612,5.898845,AIN TOUTA,BATNA,Légumes secs,"5","5"
"392",ccls batna,Route Wilaya Num  20 Boulefrais Centre,,pv,OAIC,35.51665,6.75334,OULED FADHEL,BATNA,Légumes secs,"5","5"
"393",ccls batna,Ras El Aioune Centre Ville,,pv,OAIC,35.676944,5.654188,RAS EL AIOUN,BATNA,Légumes secs,"5","5"
"394",ccls batna,Route National Num  87 Timgad,,pv,OAIC,35.496619,6.467363,TIMGAD,BATNA,Légumes secs,"5","5"
"303",LAITERIE AURES,BOULVARD HAMLA1 CITE AADL,,pv,GIPLAIT,35.54242,6.12761,BATNA,BATNA,Produits laitiers,"3","5"
"300",Assihar quinzaine commerciale,Centre Ville batna,,pv,CNA,35.549221288793,6.17571237727793,BATNA,BATNA,Fruits et légumes,"2","5"
"301",Nouvelle ville hamla 3 marché de proximité grande exposition tente géante,oued chaaba Nouvelle ville hamla 3,,pv,CNA,35.5291025572292,6.09712360228458,OUED CHAABA,BATNA,Fruits et légumes,"2","5"
"390",ccls batna,Zone Industriel Barika,,pv,OAIC,35.377688,5.380753,BARIKA,BATNA,Légumes secs,"5","5"
"302",LAITERIE AURES,Z.I KECHIDA BP 63 BEN BOULAID BATNA,,pv,GIPLAIT,35.56879,6.1602,BATNA,BATNA,Produits laitiers,"3","5"
"6",POINT DE VENTE DAWADJEN SITIFIS,CITE BOUZZOURANE AADL 1000 LOGTS LOCAL Num 05/A/02/C/02,0663 13 45 80,pv,AGROLOG,35.56009,6.19289,BATNA,BATNA,Viandes,"1","5"
"5",POINT DE VENTE DAWADJEN SITIFIS,ZI KECHIDA COMMUNE DE BATNA,0770 80 44 97,pv,AGROLOG,35.56802,6.15798,BATNA,BATNA,Viandes,"1","5"
"9",POINT DE VENTE DAWADJEN SITIFIS,CENTRE Num  03 ZANA EL BEIDA,0770 80 44 90,pv,AGROLOG,35.81206,6.12406,ZANET BEIDA,BATNA,Viandes,"1","5"
"10",POINT DE VENTE DAWADJEN SITIFIS,COMMUNE DE SERIANA LOCAL APC SERIANA,0799 92 59 73,pv,AGROLOG,35.690659,6.188254,SERIANA,BATNA,Viandes,"1","5"
"223",LAITERIE D'AMIZOUR,DOMAINE MAOUCHI AHMED AMIZOUR,,pv,GIPLAIT,36.64,4.9011111,AMIZOUR,BEJAIA,Produits laitiers,"3","6"
"336",Tazmalt centre,Tazmalt,,pv,CNA,36.3844,4.39927,TAZMALT,BEJAIA,Fruits et légumes,"2","6"
"226",LAITERIE D'AMIZOUR,04 BOULVARD KRIM BELKACEM BEJAIA,,pv,GIPLAIT,36.64,4.9016778,BEJAIA,BEJAIA,Produits laitiers,"3","6"
"337",Seddouk centre,Seddouk,,pv,CNA,36.5472,4.68611,SEDDOUK,BEJAIA,Fruits et légumes,"2","6"
"338",Beni Maouche centre,Markaz Beni Maouche,,pv,CNA,36.5060173190289,4.7628046808071,BENI MAOUCHE,BEJAIA,Fruits et légumes,"2","6"
"340",Aokas centre,Cité des Palmiers Aokas,,pv,CNA,36.6333,5.25,AOKAS,BEJAIA,Fruits et légumes,"2","6"
"341",Souk-El-Tenine centre,N9 Souk El Ténine,,pv,CNA,36.6252,5.33607,SOUK EL THENINE,BEJAIA,Fruits et légumes,"2","6"
"335",Akbou centre,Akbou,,pv,CNA,36.4590161,4.5334783,AKBOU,BEJAIA,Fruits et légumes,"2","6"
"342",Kherrata centre,N9 Kherrata,,pv,CNA,36.4927,5.27759,KHERRATA,BEJAIA,Fruits et légumes,"2","6"
"343",Barchiche,El Kseur,,pv,CNA,36.678015,4.850947,EL KSEUR,BEJAIA,Fruits et légumes,"2","6"
"344",Amizour,Cité Adjeroud Amizour,,pv,CNA,36.6441,4.90561,AMIZOUR,BEJAIA,Fruits et légumes,"2","6"
"345",Bejaia centre (EDIMCO),Cité Frères Houacine Béjaia,,pv,CNA,36.7503896,5.0567333,BEJAIA,BEJAIA,Fruits et légumes,"2","6"
"346",Bejaia centre (Souk El Aasar),Cité Frères Houacine Béjaia,,pv,CNA,36.7503896,5.0567333,BEJAIA,BEJAIA,Fruits et légumes,"2","6"
"225",LAITERIE D'AMIZOUR,FILIALES CEREALES HAUTS PLATEAUX ROUTE DOASLA 06000 KHERRATA,,pv,GIPLAIT,36.4851278,5.2684056,KHERRATA,BEJAIA,Produits laitiers,"3","6"
"222",LAITERIE D'AMIZOUR,CITE 200 500 LOGEMENTS SIDI LEBHAR BLOC C10 Num 25,,pv,GIPLAIT,36.73,5.07,BEJAIA,BEJAIA,Produits laitiers,"3","6"
"334",Ighzer Amokrane centre,Ouzellaguen,,pv,CNA,36.542,4.61291,OUZELAGUEN,BEJAIA,Fruits et légumes,"2","6"
"332",Adekar centre,Adekar,,pv,CNA,36.693891,4.669138,ADEKAR,BEJAIA,Fruits et légumes,"2","6"
"397",uca bejaia,ibourassene cne Oued Ghir,,pv,OAIC,36.71018,4.99249,OUED GHIR,BEJAIA,Légumes secs,"5","6"
"396",uca bejaia,Rue des Freres Amranie arriere port Béjaia,,pv,OAIC,36.753032,5.087131,BEJAIA,BEJAIA,Légumes secs,"5","6"
"333",Sidi Aich centre,Sidi-Aich,,pv,CNA,36.6129,4.6883,SIDI AICH,BEJAIA,Fruits et légumes,"2","6"
"224",LAITERIE D'AMIZOUR,FILIALES CEREALES HAUTS PLATEAUX ROUTE DE LA GARE 06000 SIDI AICH,,pv,GIPLAIT,36.6129,4.6883,SIDI AICH,BEJAIA,Produits laitiers,"3","6"
"331",Djebha,N24 Beni Ksila,,pv,CNA,36.8825,4.66191,BENI KSILA,BEJAIA,Fruits et légumes,"2","6"
"181",cité lemsid,Hai El Messid,,pv,CNA,34.835533,5.73094,BISKRA,BISKRA,Fruits et légumes,"2","7"
"180",Ancienne cité El alia,Arret Terminus ElAlia,,pv,CNA,34.867107,5.739713,BISKRA,BISKRA,Fruits et légumes,"2","7"
"179",cité 300 logts elalia,Rue Bouadjadja Belkacem,,pv,CNA,34.853196,5.75583,BISKRA,BISKRA,Fruits et légumes,"2","7"
"178",cité 400 logts El alia,Rue N 2,,pv,CNA,34.856907,5.749811,BISKRA,BISKRA,Fruits et légumes,"2","7"
"183",cité soug El asser El alia,Rue Mimoune H'Mida,,pv,CNA,34.858598,5.743008,BISKRA,BISKRA,Fruits et légumes,"2","7"
"177",Rond point cimetière El Boukhari,Hai El Boukhari,,pv,CNA,34.844574,5.717255,BISKRA,BISKRA,Fruits et légumes,"2","7"
"184",entrée du marché berramdane,Rue Badi Mohamed,,pv,CNA,34.853025,5.727143,BISKRA,BISKRA,Produits laitiers,"3","7"
"176",l'entrée Ben Taleb,Hai El Amel,,pv,CNA,34.84107,5.709528,BISKRA,BISKRA,Fruits et légumes,"2","7"
"175",cité 726 logts,Allee Mohamed Seddik Ben Yahia,,pv,CNA,34.852409,5.706727,BISKRA,BISKRA,Fruits et légumes,"2","7"
"174",Rond point sidi Okba,Biskra,,pv,CNA,34.830373,5.764151,BISKRA,BISKRA,Fruits et légumes,"2","7"
"173",Rond point route du sahara,Hai Remaiche,,pv,CNA,34.835765,5.708989,BISKRA,BISKRA,Fruits et légumes,"2","7"
"182",route de chetma en face l'université,N31,,pv,CNA,34.849078,5.776641,BISKRA,BISKRA,Fruits et légumes,"2","7"
"208",Ain Bennaoui,N46 El hadjeb,,pv,CNA,34.807357,5.649574,EL HADJAB,BISKRA,Fruits et légumes,"2","7"
"193",Lioua centre,lioua,,pv,CNA,34.635586,5.396861,LIOUA,BISKRA,Viandes,"1","7"
"186",entrée de  Sidi Okba,1-N83 sidi okba,,pv,CNA,34.767241,5.868818,SIDI OKBA,BISKRA,Fruits et légumes,"2","7"
"398",ccls biskra,Zone d'équipement Biskra,,pv,OAIC,34.8645318187619,5.7212203087456,BISKRA,BISKRA,Légumes secs,"5","7"
"204",Dachra,Ouled Djellal,,pv,CNA,34.426556,5.064987,OULED DJELLAL,BISKRA,Produits du Terroir,"4","7"
"205",en face de la station,El outaya,,pv,CNA,34.971059,5.629966,EL OUTAYA,BISKRA,Produits du Terroir,"4","7"
"206",en face de la station,El outaya,,pv,CNA,34.971059,5.629966,EL OUTAYA,BISKRA,Fruits et légumes,"2","7"
"207",centre ville,El outaya,,pv,CNA,35.030549,5.591294,EL OUTAYA,BISKRA,Produits laitiers,"3","7"
"203",Rahba ,Ouled Djellal,,pv,CNA,34.426556,5.064987,OULED DJELLAL,BISKRA,Viandes,"1","7"
"202",centre ville,Doucen,,pv,CNA,34.604651,5.106884,DOUCEN,BISKRA,Produits laitiers,"3","7"
"201",centre ville,Doucen,,pv,CNA,34.604651,5.106884,DOUCEN,BISKRA,Produits du Terroir,"4","7"
"185",entrée du marché couvert,Boulevard de La République,,pv,CNA,34.854284,5.730803,BISKRA,BISKRA,Produits laitiers,"3","7"
"199",entrée Leghrous,N46 foughala,,pv,CNA,34.733295,5.285551,EL GHROUS,BISKRA,Produits laitiers,"3","7"
"198",Dachra,El Ghrous,,pv,CNA,34.705761,5.284497,EL GHROUS,BISKRA,Fruits et légumes,"2","7"
"200",Rahba ,Doucen,,pv,CNA,34.603639,5.106546,DOUCEN,BISKRA,Fruits et légumes,"2","7"
"196",Rahba ,W61 ourelal,,pv,CNA,34.6558,5.513569,OURLAL,BISKRA,Fruits et légumes,"2","7"
"172",Rond point Medjnich,Rue Reouina Mohamed,,pv,CNA,34.832191,5.723822,BISKRA,BISKRA,Fruits et légumes,"2","7"
"188",entrée ain naga,N83 ain naga,,pv,CNA,34.717706,5.964688,AIN NAGA,BISKRA,Fruits et légumes,"2","7"
"189",Entrée de Tolga,N46 Tolga,,pv,CNA,34.737249,5.403056,TOLGA,BISKRA,Produits laitiers,"3","7"
"197",Rahba ,ourelal,,pv,CNA,34.657319,5.518721,OURLAL,BISKRA,Viandes,"1","7"
"190",Entrée de Tolga,N46 Tolga,,pv,CNA,34.745877,5.377138,TOLGA,BISKRA,Fruits et légumes,"2","7"
"191",intersection vers Ourlel,N46B Tolga,,pv,CNA,34.724713,5.396821,TOLGA,BISKRA,Fruits et légumes,"2","7"
"187",sortie de  Sidi Okba,N83 sidi okba,,pv,CNA,34.737895,5.923584,SIDI OKBA,BISKRA,Fruits et légumes,"2","7"
"194",Lioua centre,lioua,,pv,CNA,34.63811,5.400903,LIOUA,BISKRA,Fruits et légumes,"2","7"
"195",Placette ,Oumache,,pv,CNA,34.693104,5.697912,OUMACHE,BISKRA,Fruits et légumes,"2","7"
"192",entre tolga et foughala,N46 Tolga,,pv,CNA,34.745751,5.374274,TOLGA,BISKRA,Fruits et légumes,"2","7"
"395",ccls bechar,05 ROUTE DE BACHAR DJADID BP342,,pv,OAIC,31.58593,-2.22503,BECHAR,BECHAR,Légumes secs,"5","8"
"263",LAITERIE SUD AIT,Rue Slimane Belkhdim Num 125,,pv,GIPLAIT,31.6156667,-2.2156944,BECHAR,BECHAR,Produits laitiers,"3","8"
"264",LAITERIE SUD AIT,Rue Emir AEK Num 10 centre ville d'igli,,pv,GIPLAIT,30.4528889,-2.2925833,IGLI,BECHAR,Produits laitiers,"3","8"
"265",LAITERIE SUD AIT,Marché couvert Centre ville béni Abbes ,,pv,GIPLAIT,30.1326667,-2.1704722,BENI ABBES,BECHAR,Produits laitiers,"3","8"
"42",OUED DJER ,ROUTE NATIONAL Num 04 OUED DJER ,0782 466 656,pv,AGROLOG,36.4285054882864,2.5683438539617,OUEDDJER,BLIDA,Viandes,"1","9"
"254",LAITERIE FROMAGERIE BOUDOUAOU,Num  83 Avenue  Mekerkeb Benyoucef ,,pv,GIPLAIT,36.471289,2.8118041,BLIDA,BLIDA,Produits laitiers,"3","9"
"18",BRAKNI,CITE BRAKNI BLIDA,05 61 61 45 76,pv,AGROLOG,36.4725631,2.828075,BLIDA,BLIDA,Viandes,"1","9"
"229",LAITERIE COLAITAL,Place Athmani Ali Ex Voctor Hugo Boufarik Blida,,pv,GIPLAIT,36.5733333,2.9097222,BOUFARIK,BLIDA,Produits laitiers,"3","9"
"19",OUELD YAICH,CITE 1240 OULED YAICH BLIDA,05 57 86 59 76,pv,AGROLOG,36.4972258,2.8669099,CHEBLI,BLIDA,Viandes,"1","9"
"255",LAITERIE FROMAGERIE BOUDOUAOU,Salle de sport Lasbar Ismail,,pv,GIPLAIT,36.2950838,3.6746066,BOUIRA,BOUIRA,Produits laitiers,"3","10"
"256",LAITERIE FROMAGERIE BOUDOUAOU,Rue Rabah Dermouche ( Ex ERIADH),,pv,GIPLAIT,36.3801533,3.9024082,AIN BESSAM,BOUIRA,Produits laitiers,"3","10"
"405",ccls Bouira,Rue Kermia Mebrouk Ain Bessam,,pv,OAIC,36.295358218397,3.66854437007825,AIN BESSAM,BOUIRA,Légumes secs,"5","10"
"48",el esnam,en face mosqué el esnam,0699 19 95 78,pv,AGROLOG,36.2533333,4.035,EL ASNAM,BOUIRA,Viandes,"1","10"
"47",ain bessam centre ,ain bessam centre,0656 67 59 46,pv,AGROLOG,36.2911111,3.67361111111111,AIN BESSAM,BOUIRA,Viandes,"1","10"
"46",marché couvert oued edhous,ain graouche en face polyclinique etatique bouira,0791 92 61 31,pv,AGROLOG,36.3691667,3.90083333333333,BOUIRA,BOUIRA,Viandes,"1","10"
"45",nouveau marché GROS,EN FACE DE LA BANQUE CPA BOUIRA,0558 27 47 81,pv,AGROLOG,36.3741667,3.86805555555556,BOUIRA,BOUIRA,Viandes,"1","10"
"402",ccls Bouira,Magasin sacherie Rue Rechak Ali Bouira,,pv,OAIC,36.3781295501914,3.89752072590383,BOUIRA,BOUIRA,Légumes secs,"5","10"
"403",ccls Bouira,Route Boussaada Sour El Ghozlane ,,pv,OAIC,36.1362728269255,3.69290770942278,SOUR EL GHOZLANE,BOUIRA,Légumes secs,"5","10"
"404",ccls Bouira,Centre ville  Bordj Khriss,,pv,OAIC,36.0860209998996,3.99128167189473,BORDJ OUKHRISS,BOUIRA,Légumes secs,"5","10"
"141",marché couvert,Tamanrasset,,pv,CNA,22.797089,5.518692,TAMENGHASSET,TAMENGHASSET,Fruits et légumes,"2","11"
"379",LAITERIE NUMIDIA,Chef Lieu,,pv,GIPLAIT,36.222431561506,6.51784919868182,TEBESSA,TEBESSA,Produits laitiers,"3","12"
"471",CCLS TEBESSA, ROUTE N10 Tébessa 12000,,pv,OAIC,35.4173071643912,8.08917517058149,TEBESSA,TEBESSA,Légumes secs,"5","12"
"219",LAITERIE EL MANSOURAH,Zone Semi Industrielle ABOU TECHFINE,,pv,GIPLAIT,34.902514,-1.3288558,TLEMCEN,TLEMCEN,Produits laitiers,"3","13"
"220",LAITERIE EL MANSOURAH,Marché Fruits et Légume Zone de CHETOUANE,,pv,GIPLAIT,34.922135,-1.292106,CHETOUANE,TLEMCEN,Produits laitiers,"3","13"
"221",LAITERIE EL MANSOURAH,PALAI D'EXPOSITION KOUDIA,,pv,GIPLAIT,34.916274,-1.351844,TLEMCEN,TLEMCEN,Produits laitiers,"3","13"
"217",LAITERIE EL MANSOURAH,Batiment Cité SIDI LAHCEN,,pv,GIPLAIT,34.887888,-1.305031,TLEMCEN,TLEMCEN,Produits laitiers,"3","13"
"480",CCLS DE TLEMCEN,OULED MIMOUN,,pv,OAIC,34.9046,-1.035391,OULED MIMOUN,TLEMCEN,Légumes secs,"5","13"
"479",CCLS DE TLEMCEN,CITE CHOUHADA maghnia,,pv,OAIC,34.83586,-1.726629,MAGHNIA,TLEMCEN,Légumes secs,"5","13"
"478",CCLS DE TLEMCEN,Route wilaya N 99 NEDEMORA,,pv,OAIC,35.032894,-1.771563,NEDROMA,TLEMCEN,Légumes secs,"5","13"
"477",CCLS DE TLEMCEN,Rue de Paris,,pv,OAIC,34.880553,-1.312827,TLEMCEN,TLEMCEN,Légumes secs,"5","13"
"476",ccls tlemcen,BP 62 abou tachfine,,pv,OAIC,34.902144,-1.326536,TLEMCEN,TLEMCEN,Légumes secs,"5","13"
"218",LAITERIE EL MANSOURAH,Bd exterieur Zone 32 HENNAYA,,pv,GIPLAIT,35.001723,-1.3998,TLEMCEN,TLEMCEN,Produits laitiers,"3","13"
"307",LAITERIE SIDI KHALED, BP Num  398 ZONE INDUSTRIELLE ZAAROURA TIARET,,pv,GIPLAIT,35.32179,1.301177,TIARET,TIARET,Produits laitiers,"3","14"
"308",LAITERIE SIDI KHALED,CENTRE COMMERCIAL BATIMETAL CITE TEFAH,,pv,GIPLAIT,35.372136,1.347716,TIARET,TIARET,Produits laitiers,"3","14"
"309",LAITERIE SIDI KHALED,ROUTE EL BAYDA,,pv,GIPLAIT,35.358527,1.328925,TIARET,TIARET,Produits laitiers,"3","14"
"310",LAITERIE SIDI KHALED,VOLANI,,pv,GIPLAIT,35.35303,1.329524,TIARET,TIARET,Produits laitiers,"3","14"
"305",LAITERIE SIDI KHALED,CENTRE COMMERCIAL AUBERGE,,pv,GIPLAIT,35.35816,1.328681,TIARET,TIARET,Produits laitiers,"3","14"
"473",ccls frenda,FRENDA CENTRE VILLE,,pv,OAIC,35.062727,1.042897,FRENDA,TIARET,Légumes secs,"5","14"
"472",ccls tiaret,1 RUE MOULAY NADJEM BP 99 Tiaret Tiaret(14) Algérie,,pv,OAIC,35.3715140101358,1.32523705822669,TIARET,TIARET,Légumes secs,"5","14"
"147",SOUK RAMADAN,Pose Num 10 El -Hamadia,"035710168",pv,CNA,35.4594465393779,1.8723142151667,HAMADIA,TIARET,Fruits et légumes,"2","14"
"474",ccls mehdia,1 BD EMIR ABDELKADER Mahdia,,pv,OAIC,35.4282102309861,1.7512835796994,MAHDIA,TIARET,Légumes secs,"5","14"
"304",LAITERIE SIDI KHALED,CENTRE COMMERCIAL ZAAROURA,,pv,GIPLAIT,35.348639,1.314168,TIARET,TIARET,Produits laitiers,"3","14"
"306",LAITERIE SIDI KHALED,ROUTE DES FRERES KAIDI,,pv,GIPLAIT,35.367929,1.313543,TIARET,TIARET,Produits laitiers,"3","14"
"100",Beni-Douala Centre,Beni-Douala centre,,pv,CNA,36.62144,4.08204,BENI DOUALA,TIZI OUZOU,Fruits et légumes,"2","15"
"101",Marché Couvert,Lotissement Amyoud,,pv,CNA,36.71332,4.04586,TIZI OUZOU,TIZI OUZOU,Fruits et légumes,"2","15"
"102",Marché Chabane,Tizi-Ouzou,,pv,CNA,36.70955,4.07028,TIZI OUZOU,TIZI OUZOU,Fruits et légumes,"2","15"
"103",Marché Tala-Athmane,Tala-Athmane,,pv,CNA,36.7297,4.14854,TIZI OUZOU,TIZI OUZOU,Fruits et légumes,"2","15"
"99",Taboukert,Tizi-Rached Centre,,pv,CNA,36.69955,4.21414,TIZI RACHED,TIZI OUZOU,Fruits et légumes,"2","15"
"98",Ex-parc Communal ,Ouadhias Centre,,pv,CNA,36.55217,4.07797,OUADHIA,TIZI OUZOU,Fruits et légumes,"2","15"
"116",Marché centre,Chef Lieu Maatkas,,pv,CNA,36.60416,3.98446,MAATKA,TIZI OUZOU,Fruits et légumes,"2","15"
"96",Marché de proximité Couvert,à la cité Tirmitine,,pv,CNA,36.54447,3.95217,BOGHNI,TIZI OUZOU,Fruits et légumes,"2","15"
"95",Auberge de jeunesses Djurdjura,Ain-El-Hammam,,pv,CNA,36.57086,4.31835,AIN EL HAMMAM,TIZI OUZOU,Fruits et légumes,"2","15"
"94",Salle Omnisport,Ain-El-Hammam,,pv,CNA,36.56932,4.31657,AIN EL HAMMAM,TIZI OUZOU,Fruits et légumes,"2","15"
"51",centre ville dbk,a proximité de marché des légume de DBK,0553 48 66 18,pv,AGROLOG,36.7363889,3.97222222222222,DRAA BEN KHEDA,TIZI OUZOU,Viandes,"1","15"
"1",unité DBK,a proximité du GPLAIT DE DBK,0559 33 78 69,pv,AGROLOG,36.7338889,3.96138888888889,DRAA BEN KHEDA,TIZI OUZOU,Viandes,"1","15"
"49",abattoir taboukert,en face usine de transformation du bois,0555 88 24 91,pv,AGROLOG,36.7355556,3.97444444444444,DRAA BEN KHEDA,TIZI OUZOU,Viandes,"1","15"
"2",ccls tizi ouzou,Rue Nationale Num 25 Draa Ben Khedda,,pv,OAIC,36.7333778167616,3.95626989069213,DRAA BEN KHEDA,TIZI OUZOU,Légumes secs,"5","15"
"97",Placette sise à 200 logements,Boghni,,pv,CNA,36.54562,3.95556,BOGHNI,TIZI OUZOU,Fruits et légumes,"2","15"
"115",Marché,Alma centre,,pv,CNA,36.63412,4.04229,BENI ZMENZER,TIZI OUZOU,Fruits et légumes,"2","15"
"104",Djemaa-Saharidj,Mekla ,,pv,CNA,36.68875,4.289,MEKLA,TIZI OUZOU,Fruits et légumes,"2","15"
"131",Marché centre,Boudjima,,pv,CNA,36.80823,4.15789,BOUDJIMA,TIZI OUZOU,Fruits et légumes,"2","15"
"113",Marché,Tizagharine,,pv,CNA,36.59676,4.00878,SOUK EL TENINE,TIZI OUZOU,Fruits et légumes,"2","15"
"114",Marché,Azemour Oumeriem,,pv,CNA,36.67663,3.95852,TIRMITINE,TIZI OUZOU,Fruits et légumes,"2","15"
"135",Marché centre,N12A Sidi Naamane,,pv,CNA,36.75872,3.98012,SIDI NAAMANE,TIZI OUZOU,Fruits et légumes,"2","15"
"134",Marché de la gare,Tadmait,,pv,CNA,36.74376,3.9053,TADMAIT,TIZI OUZOU,Fruits et légumes,"2","15"
"3",Marché,Cité Mahmoudi Boulevard Larbaoui Mohamed Draa Ben Khedda 15100,,pv,CNA,36.72888,3.95832,DRAA BEN KHEDA,TIZI OUZOU,Fruits et légumes,"2","15"
"4",Marché couvert,Cité Kaper La DNC Draa Ben Khedda,,pv,CNA,36.73134,3.95854,DRAA BEN KHEDA,TIZI OUZOU,Fruits et légumes,"2","15"
"130",Marché centre,Tigzirt,,pv,CNA,36.89175,4.13109,TIGZIRT,TIZI OUZOU,Fruits et légumes,"2","15"
"129",Marché Centre,Draa El Mizan,,pv,CNA,36.53673,3.82789,DRAA EL MIZAN,TIZI OUZOU,Fruits et légumes,"2","15"
"128",Tighilt Bougni,M'kira,,pv,CNA,36.62494,3.7917,M?KIRA,TIZI OUZOU,Fruits et légumes,"2","15"
"112",Marché centre,Yakouren Centre,,pv,CNA,36.73662,4.43854,YAKOUREN,TIZI OUZOU,Fruits et légumes,"2","15"
"127",Marché centre,Thachtiouine Ait Yahia Moussa,,pv,CNA,36.65918,3.88824,AIT YAHIA MOUSSA,TIZI OUZOU,Fruits et légumes,"2","15"
"125",Marché centre,Ait El Mannsour Iferhounène,,pv,CNA,36.53302,4.37236,IFERHOUNENE,TIZI OUZOU,Fruits et légumes,"2","15"
"124",Marché centre,Route de At-Bu-Addu Ait Bouaddou,,pv,CNA,36.5069,4.05692,AIT BOUADOU,TIZI OUZOU,Fruits et légumes,"2","15"
"123",02 Points de vente,Tizi-Nteleta centre,,pv,CNA,36.5754,4.04036,TIZI N?THLATA,TIZI OUZOU,Fruits et légumes,"2","15"
"122",Tassafet,Tassafet,,pv,CNA,36.50205,4.25042,IBOUDRAREN,TIZI OUZOU,Fruits et légumes,"2","15"
"121",Souk El Had,Yatafene centre,,pv,CNA,36.52818,4.27919,YATAFENE,TIZI OUZOU,Fruits et légumes,"2","15"
"120",Marché,Taourirt Mimoun,,pv,CNA,36.58315,4.1946,BENI YENNI,TIZI OUZOU,Fruits et légumes,"2","15"
"119",Souk Thimamarth,Ait-Aggouacha Centre,,pv,CNA,36.61744,4.2341,AIT AGGOUACHA,TIZI OUZOU,Fruits et légumes,"2","15"
"118",EX SEMPAC,Larbaa-Nath-Irathen,,pv,CNA,36.64272,4.19965,LARBA NAIT IRATHEN,TIZI OUZOU,Fruits et légumes,"2","15"
"117",Marché centre,Chef lieu Ouacifs,,pv,CNA,36.52641,4.20813,OUACIF,TIZI OUZOU,Fruits et légumes,"2","15"
"126",Marché centre,Rue 1er Novembre Tizi Ghennif 15480,,pv,CNA,36.58768,3.77395,TIZI GHENIF,TIZI OUZOU,Fruits et légumes,"2","15"
"111",Marché couvert centre,Azazga Centre,,pv,CNA,36.7491,4.36567,AZAZGA,TIZI OUZOU,Fruits et légumes,"2","15"
"107",Ait-Mehend,Freha,,pv,CNA,36.73027,4.26427,FREHA,TIZI OUZOU,Fruits et légumes,"2","15"
"109",Agouni Oucharki,Aghribs,,pv,CNA,36.80888,4.31814,AGHRIB,TIZI OUZOU,Fruits et légumes,"2","15"
"108",Souk El Had,Timizart,,pv,CNA,36.79338,4.2465,TIMIZART,TIZI OUZOU,Fruits et légumes,"2","15"
"106",El-Kahra,Freha,,pv,CNA,36.72986,4.26697,FREHA,TIZI OUZOU,Fruits et légumes,"2","15"
"105",Chaieb,Mekla ,,pv,CNA,36.70553,4.23911,MEKLA,TIZI OUZOU,Fruits et légumes,"2","15"
"110",Marché  centre,Azzefoun,,pv,CNA,36.88976,4.42096,AZZEFOUN,TIZI OUZOU,Fruits et légumes,"2","15"
"233",LAITERIE COLAITAL,Boulevard Aisset Idir Sidi M'Hamed Alger,,pv,GIPLAIT,36.7597222,3.0575,SIDI MHAMED,ALGER,Produits laitiers,"3","16"
"234",LAITERIE COLAITAL,Route 117 de Bougara  Sidi Moussa Alger,,pv,GIPLAIT,36.6025,3.0886111,SIDI MOUSSA,ALGER,Produits laitiers,"3","16"
"235",LAITERIE COLAITAL,Cité 5 juillet 1962 Bab Ezzour Alger,,pv,GIPLAIT,36.7233333,3.1786111,BAB AZZOUAR,ALGER,Produits laitiers,"3","16"
"384",uca alger,Rue Alioua Fodil Chéraga,,pv,OAIC,36.7666949859759,2.9489667276295,CHERAGA,ALGER,Légumes secs,"5","16"
"385",uca alger,Rue Boudjemaa Moghni Hussein Dey,,pv,OAIC,36.7378815995194,3.10193606940902,HUSSEIN DEY,ALGER,Légumes secs,"5","16"
"386",uca alger,Boulevard Mouloud Feraoun  Dar el Beida,,pv,OAIC,36.71415256568,3.21301269420502,ROUIBA,ALGER,Légumes secs,"5","16"
"387",uca alger,ain benian,,pv,OAIC,36.7988418622803,2.92353874260143,AIN BENIAN,ALGER,Légumes secs,"5","16"
"238",LAITERIE COLAITAL,Rue Aissani Douera Alger,,pv,GIPLAIT,36.6686111,2.9408333,DOUERA,ALGER,Produits laitiers,"3","16"
"237",LAITERIE COLAITAL,Rue Mahfoud Saadallah cité El Fida  Bourouba Alger,,pv,GIPLAIT,36.7225,3.1227778,BOUROUBA,ALGER,Produits laitiers,"3","16"
"239",LAITERIE COLAITAL,Rue Sebai Mohamed hussein Dey Alger,,pv,GIPLAIT,36.7363889,3.1011111,HUSSEIN DEY,ALGER,Produits laitiers,"3","16"
"240",LAITERIE COLAITAL,Place Ketani Bab El Oued Alger,,pv,GIPLAIT,36.7919444,3.0577778,BAB EL OUED,ALGER,Produits laitiers,"3","16"
"241",LAITERIE COLAITAL,Rue Marzouk Mustapha Ben ali Maalma Alger,,pv,GIPLAIT,36.68,2.8752778,MAHELMA,ALGER,Produits laitiers,"3","16"
"243",LAITERIE COLAITAL,Cité des grands vents Dely Brahim a proximite d'OOREDO,,pv,GIPLAIT,36.7441667,2.9530556,DELY IBRAHIM,ALGER,Produits laitiers,"3","16"
"244",LAITERIE COLAITAL,ENTRE DU MARCHE COMMUNAL,,pv,GIPLAIT,36.7638889,2.9577778,CHERAGA,ALGER,Produits laitiers,"3","16"
"245",LAITERIE COLAITAL,Boulvard HOUCINE AIT AHMED,,pv,GIPLAIT,36.6869444,2.8569444,MAHELMA,ALGER,Produits laitiers,"3","16"
"236",LAITERIE COLAITAL,Marché Djalmani El Harrach Alger,,pv,GIPLAIT,36.7219444,3.1366667,EL HARRACH,ALGER,Produits laitiers,"3","16"
"378",EAC 2 ALI MOKRANE,EAC 2 ALI MOKRANE,,pv,CNA,36.804897,3.2395322,AIN TAYA,ALGER,Fruits et légumes,"2","16"
"376",EAC 11 SANTOUHI ,EAC 11 SANTOUHI ,,pv,CNA,36.7985227,3.2708925,AIN TAYA,ALGER,Fruits et légumes,"2","16"
"375",EAC 5 BOURAADA (2ème point),EAC 5 BOURAADA (2ème point),,pv,CNA,36.763618,3.368104,REGHAIA,ALGER,Fruits et légumes,"2","16"
"252",LAITERIE FROMAGERIE BOUDOUAOU,Marche de Proximité (BATIMETAL) cité EL Ouancharis,,pv,GIPLAIT,36.7494735,3.34667,REGHAIA,ALGER,Produits laitiers,"3","16"
"227",LAITERIE COLAITAL,Site de la laiterie les vergers Birkhadem Alger,,pv,GIPLAIT,36.72571,3.04972,BIRKHADEM,ALGER,Produits laitiers,"3","16"
"228",LAITERIE COLAITAL,Vieux marché communal Draria Alger,,pv,GIPLAIT,36.7138889,2.9991667,DRARIA,ALGER,Produits laitiers,"3","16"
"251",LAITERIE FROMAGERIE BOUDOUAOU,Zone Industrielle  (usine LFB),,pv,GIPLAIT,36.7209973,3.3078333,ROUIBA,ALGER,Produits laitiers,"3","16"
"250",LAITERIE FROMAGERIE BOUDOUAOU,Place Abdelhamid Ben Badis (Placette centre-ville),,pv,GIPLAIT,36.736616,3.2829934,ROUIBA,ALGER,Produits laitiers,"3","16"
"231",LAITERIE COLAITAL,Boulevard Mustapha Ferroukhi Alger centre,,pv,GIPLAIT,36.7686111,3.0547222,ALGER CENTRE,ALGER,Produits laitiers,"3","16"
"232",LAITERIE COLAITAL,Cité Mesbah Hamidou Saoula Alger,,pv,GIPLAIT,36.7033333,3.0213889,SAOULA,ALGER,Produits laitiers,"3","16"
"367",EAI 20 ALI KHOUDJA,EAI 20 ALI KHOUDJA,,pv,CNA,36.7487008,3.1996762,BORDJ EL KIFFAN,ALGER,Fruits et légumes,"2","16"
"368",EAC 1 OUAZANE,EAC 1 OUAZANE,,pv,CNA,36.7494699,3.2043322,BORDJ EL KIFFAN,ALGER,Fruits et légumes,"2","16"
"369",EAC 4 OUAZANE,EAC 4 OUAZANE,,pv,CNA,36.750089,3.203888,BORDJ EL KIFFAN,ALGER,Fruits et légumes,"2","16"
"370",EAC 5 OUAZANE,EAC 5 OUAZANE,,pv,CNA,36.75095,3.203223,BORDJ EL KIFFAN,ALGER,Fruits et légumes,"2","16"
"371",EAC 6 KAIDI,EAC 6 KAIDI,,pv,CNA,36.7293889,3.2089496,BORDJ EL KIFFAN,ALGER,Fruits et légumes,"2","16"
"372",EAC 4 ABILA ,EAC 4 ABILA ,,pv,CNA,36.7504472,3.199691,BORDJ EL KIFFAN,ALGER,Fruits et légumes,"2","16"
"373",EAC 6 MIMOUNI,EAC 6 MIMOUNI,,pv,CNA,36.7420252,3.2091655,BORDJ EL KIFFAN,ALGER,Fruits et légumes,"2","16"
"377",EAC 04 HAMDANE ALI,EAC 04 HAMDANE ALI,,pv,CNA,36.8011792,3.2658054,AIN TAYA,ALGER,Fruits et légumes,"2","16"
"246",LAITERIE COLAITAL,MOHAMADIA En fa DAR EL IMAM,,pv,GIPLAIT,36.7197222,3.1494444,EL HARRACH,ALGER,Produits laitiers,"3","16"
"242",LAITERIE COLAITAL,148 rue Ali Bouhadja Birtouta Alger,,pv,GIPLAIT,36.6441667,2.9919444,BIRTOUTA,ALGER,Produits laitiers,"3","16"
"20",EL BIAR,157 RUE ALI KHOUDJA EL BIAR ALGER,05 61 99 65 45,pv,AGROLOG,36.768863,3.019841,ALGER CENTRE,ALGER,Viandes,"1","16"
"21",BAB EZZOUAR,BAB EZZOUR,06 61 53 04 41,pv,AGROLOG,36.7163849,3.1923785,SIDI MHAMED,ALGER,Viandes,"1","16"
"60",Foire d'Alger,Foire d'Alger,0661 93 24 21,pv,GVAPRO,36.7338723752833,3.15427564070354,MOHAMMADIA,ALGER,Fruits et légumes,"2","16"
"59",Siège ONILEV,AIN BENIAN ONILEV,0661 93 24 21,pv,GVAPRO,36.7988536262304,2.92351874028075,AIN BENIAN,ALGER,Fruits et légumes,"2","16"
"58",siège EPE Spa SARBO,08 avenue Abderrahman Mira,0550 42 07 47  / 0660 83 99 45,pv,GVAPRO,36.7923158421755,3.05633161270215,BAB EL OUED,ALGER,Fruits et légumes,"2","16"
"38",CALMANT,ROUTE DES DUNES BP 77 CALMANT CHERAGA ,0665 525 727,pv,AGROLOG,36.7579770626045,2.9270245224883,CHERAGA,ALGER,Viandes,"1","16"
"39",H-DEY ,06 RUE IDRISI ARKOUB HUSSEIN DEY ALGER ,0556 757 084,pv,AGROLOG,36.7416667,3.09222222222222,HUSSEIN DEY,ALGER,Viandes,"1","16"
"22",HASSIBA,45 RUE HASSUBA BEN BOUALI,05 61 10 30 64,pv,AGROLOG,36.7642136,3.056211,EL MADANIA,ALGER,Viandes,"1","16"
"41",DOMAINE TOURI HMIDA ,DOMAINE TOURI HMIDA ROUTE DE CHERAGA AIN BENIAN,0559 956 768,pv,AGROLOG,36.7986111,2.92333333333333,AIN BENIAN,ALGER,Viandes,"1","16"
"40",REGHAIA,HAI EL OUANCHARISSE EX DNC MARCHE COUVER REGHAIA ,0561 206 023,pv,AGROLOG,36.7497222,3.34777777777778,REGHAIA,ALGER,Viandes,"1","16"
"416",CCLS DJELFA,Zone industrielle Djelfa-17000 Djelfa-BP-1242,,pv,OAIC,34.6432742184682,3.25410923894996,DJELFA,DJELFA,Légumes secs,"5","17"
"2",Point de vente kaous SPA TAHAGAVIC,cité stade Commune de Kaous,0661 33 60 29,pv,AGROLOG,36.7712145255833,5.81390756495721,KAOUS,JIJEL,Viandes,"1","18"
"481",URCA JIJEL,Marché couvert taher,,pv,OAIC,36.7723829607649,5.89635631107294,TAHER,JIJEL,Légumes secs,"5","18"
"360",LAITERIE NUMIDIA,El Ouana (El. Ouana),,pv,GIPLAIT,36.773594,5.611532,EL AOUANA,JIJEL,Produits laitiers,"3","18"
"361",LAITERIE NUMIDIA,El Ancer (El Ancer),,pv,GIPLAIT,36.80015,6.155311,EL ANCER,JIJEL,Produits laitiers,"3","18"
"482",URCA JIJEL,Jijel,,pv,OAIC,36.8080037608085,5.76345783673859,JIJEL,JIJEL,Légumes secs,"5","18"
"456",ccls setif,rue elaidi abderzak n 587b setif,,pv,OAIC,36.188871,5.417683,SETIF,SETIF,Légumes secs,"5","19"
"258",LAITERIE TELL,RUE BAHRI KHEIR SETIF,,pv,GIPLAIT,36.181372,5.408612,SETIF,SETIF,Produits laitiers,"3","19"
"259",LAITERIE TELL,BP 71  ZONE  D'ACTIVITE   MEZLOUG SETIF,,pv,GIPLAIT,36.10328,5.33705,MEZLOUG,SETIF,Produits laitiers,"3","19"
"457",ccls setif,rue fares amrane n 753 el eulma,,pv,OAIC,36.14932,5.6875,EL EULMA,SETIF,Légumes secs,"5","19"
"260",LAITERIE TELL,SALLE D'EXPOSITION PARC D'ATTRACTION DE SETIF ,,pv,GIPLAIT,36.19451,5.4076,SETIF,SETIF,Produits laitiers,"3","19"
"459",ccls setif,rue ben yacine ahmed bir el arche,,pv,OAIC,36.13011003,5.83998207,BIR EL ARCH,SETIF,Légumes secs,"5","19"
"460",ccls setif,rue du 01 novembre 1954 n 27 beni fouda,,pv,OAIC,36.28332345,5.609400607,BENI FOUDA,SETIF,Légumes secs,"5","19"
"461",ccls setif,rue madani abdelhamid n5 zone industrielle amoucha,,pv,OAIC,36.3729441,5.412728972,AMOUCHA,SETIF,Légumes secs,"5","19"
"3",POINT DE VENTE DAWADJEN SITIFIS,RUE DES ABATTOIRS CITE LAID DHAOUI Sétif,0661 31 60 90,pv,AGROLOG,36.17096,5.40674,SETIF,SETIF,Viandes,"1","19"
"4",POINT DE VENTE DAWADJEN SITIFIS,CITE BIR EN NSA AADL 3000 LOGTS LOCAL Num 124125,0770 80 45 32 ,pv,AGROLOG,36.17687,5.47641,SETIF,SETIF,Viandes,"1","19"
"318",AIN MOUSSE,CITE AIN MOUSSE SETIF,"0770800653",pv,CNA,36.2086557608573,5.44640320865417,SETIF,SETIF,Viandes,"1","19"
"317",AIN MOUSSE,CITE AIN MOUSSE SETIF,"0555037965",pv,CNA,36.2086557608573,5.44640320865417,SETIF,SETIF,Produits laitiers,"3","19"
"313",SIEGE CASSAP,CITE TLIDJANE SETIF,"0555037965",pv,CNA,36.1876445954144,5.41204372287616,SETIF,SETIF,Produits laitiers,"3","19"
"316",ORAVIE (3 POINTS DE VENTE),CITE BIR NSSA SETIF,"0770800653",pv,CNA,36.1768557259006,5.47643167546484,SETIF,SETIF,Viandes,"1","19"
"458",ccls setif,n38 ain oulmene zone industrielle ain oulmene,,pv,OAIC,35.92204484,5.30672069,AIN OULMANE,SETIF,Légumes secs,"5","19"
"315",ORAVIE,CITE DES ABATTOIRES SETIF,"0770800653",pv,CNA,36.170966370036,5.40678100128037,SETIF,SETIF,Viandes,"1","19"
"314",SIEGE CASSAP,CITE TLIDJANE SETIF,"0550732790",pv,CNA,36.1876445954144,5.41204372287616,SETIF,SETIF,Viandes,"1","19"
"483",ccls saida,route N6 SAIDA,,pv,OAIC,34.8362810223409,0.146586137412789,SAIDA,SAIDA,Légumes secs,"5","20"
"261",LAITERIE LA SOURCE,Rue BESSIF AHMED Num 14 SAIDA,,pv,GIPLAIT,34.83071,0.14939,SAIDA,SAIDA,Produits laitiers,"3","20"
"285",said bousbaa ,cite said bousbaa ,,pv,CNA,36.6530762495967,6.82809143415364,EL HARROUCH,SKIKDA,Fruits et légumes,"2","21"
"284",boughamouza ,cite boughamouza ,,pv,CNA,36.6485173028375,6.82290751534413,EL HARROUCH,SKIKDA,Légumes secs,"5","21"
"283",zaouia ,zaouia a cote de la poste ,,pv,CNA,36.7946124660287,6.95068263243182,BENI BACHIR,SKIKDA,Produits du Terroir,"4","21"
"278",20 aout 1955,cite 20 aout 1955 à cote du stade ,,pv,CNA,36.7563960768166,6.89903614843925,RAMDANE DJAMEL,SKIKDA,Fruits et légumes,"2","21"
"282",el hama ,el hama devant la mosque de la rue pricipale ,,pv,CNA,36.8002706852853,6.95938878481871,BENI BACHIR,SKIKDA,Viandes,"1","21"
"281",communale,salle omni-sport et tehatre communal ,,pv,CNA,36.8064558727602,6.96625523924538,BENI BACHIR,SKIKDA,Produits du Terroir,"4","21"
"280",staiha ,zone staiha ,,pv,CNA,36.7522887040258,6.89463883629409,RAMDANE DJAMEL,SKIKDA,Fruits et légumes,"2","21"
"279",guessaba ,zone guessaba ,,pv,CNA,36.7545580842105,6.88742905914608,RAMDANE DJAMEL,SKIKDA,Produits laitiers,"3","21"
"286",les freres kafi ,rue les freres kafi ,,pv,CNA,36.6269054067911,6.81350021849696,EL HARROUCH,SKIKDA,Viandes,"1","21"
"485",ccls skikda,route souk salaha bouchaour,,pv,OAIC,36.7042902304911,6.8563404209412,SALAH BOUCHAOUR,SKIKDA,Légumes secs,"5","21"
"293",bounoghra ,place de l'ancien regroupement centre bounoghra ,,pv,CNA,36.9966233412717,6.3502899185745,OULED ATTIA,SKIKDA,Fruits et légumes,"2","21"
"288",saad hmoud ,rues saad hmoud ,,pv,CNA,36.7044283967894,6.80263455014904,EMDJEZ EDCHICH,SKIKDA,Viandes,"1","21"
"289",saad hmoud ,saad hamoud et debbouz ,,pv,CNA,36.7020142884251,6.80850360135398,EMDJEZ EDCHICH,SKIKDA,Produits laitiers,"3","21"
"290",ouled habeba ,centre ouled habeba,,pv,CNA,36.4985355052682,6.95701481547304,OULED HEBABA,SKIKDA,Fruits et légumes,"2","21"
"291",ain kechera ,centre ain kechera à coté de la garre routiere ,,pv,CNA,36.7491685193305,6.43148924874269,AIN KECHRA,SKIKDA,Produits du Terroir,"4","21"
"292",saouli bachir ,la place à cote du stade saouli bachir ,,pv,CNA,37.0003496249511,6.55479332228873,COLLO,SKIKDA,Légumes secs,"5","21"
"277",SEDHANE HOCINE,La rue principale cite sedhane hocine ,,pv,CNA,36.7922912304734,6.79348596336352,BOUCHTATA,SKIKDA,Légumes secs,"5","21"
"294",bounoghra ,place de la rue principale bounoghra centre ,,pv,CNA,36.9960063844634,6.33312378250782,OULED ATTIA,SKIKDA,Fruits et légumes,"2","21"
"295",el oueldja ,place el oueldja ,,pv,CNA,36.9950493912111,6.32456745064774,OULED ATTIA,SKIKDA,Produits du Terroir,"4","21"
"296",siouane ,village siouane ,,pv,CNA,36.9938148953378,6.3642078119274,OULED ATTIA,SKIKDA,Viandes,"1","21"
"297",drif bouzerda ,cite drif bouzerda ,,pv,CNA,36.8348945881764,6.64541414865809,TAMALOUS,SKIKDA,Viandes,"1","21"
"298",ben azzouz ,centre de ben azzouz souk fermé ,,pv,CNA,36.8626791789505,7.29454040516619,BENAZOUZ,SKIKDA,Fruits et légumes,"2","21"
"299",boumaiza ,ben azzouz ,,pv,CNA,36.8645332744548,7.29574203469086,BENAZOUZ,SKIKDA,Fruits et légumes,"2","21"
"287",bechiri rabah ,cite bechiri rabah djebel meksen ,,pv,CNA,36.7001434116846,6.85383061898037,SALAH BOUCHAOUR,SKIKDA,Légumes secs,"5","21"
"276",SALAH CHEBEL ,CITE SALAH CHEBEL ,,pv,CNA,36.892837255049,7.0636769123117,FIL FILA,SKIKDA,Légumes secs,"5","21"
"274",La place publique ,place publique cite les freres lakehal ,,pv,CNA,36.8870709475287,7.05440719883569,FIL FILA,SKIKDA,Fruits et légumes,"2","21"
"273",ALLAOUA TAGHANE ,Cité ALLAOUA TAGHANE ,,pv,CNA,36.8432193910696,6.93473328186261,HAMADI KROUMA,SKIKDA,Produits du Terroir,"4","21"
"272",HAMMADI KROUMA ,A coté de la voie ferré ,,pv,CNA,36.84771835683,6.92932594900161,HAMADI KROUMA,SKIKDA,Viandes,"1","21"
"271",EL AMEL ,STADE 24 AVRIL CITE EL AMEL ,,pv,CNA,36.8714483021395,6.9060550458555,SKIKDA,SKIKDA,Légumes secs,"5","21"
"270",KITOULI ,STADE 01 MAI PLACE DES MARTYRES ,,pv,CNA,36.8665959797032,6.90483874829925,SKIKDA,SKIKDA,Fruits et légumes,"2","21"
"13",PV 01 ABT SKIKDA,Zone d'activité Hamadi Krouma,0660 36 31 92,pv,AGROLOG,36.846263,6.929475,HAMADI KROUMA,SKIKDA,Viandes,"1","21"
"484",ccls skikda,complexe cerealier hammadi krouma,,pv,OAIC,36.8441110436502,6.92909646328149,SKIKDA,SKIKDA,Légumes secs,"5","21"
"275",les freres ayachi ,cite les freres ayachi a coté de l'arrét de bus ,,pv,CNA,36.8678467769645,7.00908859961968,FIL FILA,SKIKDA,Produits laitiers,"3","21"
"464",CCLS TELAGH,centre ville telagh,,pv,OAIC,34.7823897469643,-0.576151893388099,TELAGH,SIDI BEL ABBES,Légumes secs,"5","22"
"462",ccls sidi bel abbes,ESPLANADE DE LA GARE Sidi Bel Abbes ,,pv,OAIC,35.023566018104,-0.741801566724042,SIDI BEL ABBES,SIDI BEL ABBES,Légumes secs,"5","22"
"136",LAITERIE FROMAGERIE TESSALA,ROUTE TENIRA PROLONGEE BP 157 SBA,,pv,GIPLAIT,35.1897222,-0.6308333,SIDI BEL ABBES,SIDI BEL ABBES,Produits laitiers,"3","22"
"463",ccls sfisef,RUE COLONEL AMIROUCHE Mostefa Ben Brahim,,pv,OAIC,35.1946549399329,-0.355975953475677,SFISSEF,SIDI BEL ABBES,Légumes secs,"5","22"
"138",LAITERIE FROMAGERIE TESSALA,Local E103 Cité HIRECHE AEK 2000 logements,,pv,GIPLAIT,35.1741667,-0.5486111,TILMOUNI,SIDI BEL ABBES,Produits laitiers,"3","22"
"137",LAITERIE FROMAGERIE TESSALA,Rue El-Djamhouria Centre-Ville Sidi-Bel-Abbès,,pv,GIPLAIT,35.1897222,-0.6308333,SIDI BEL ABBES,SIDI BEL ABBES,Produits laitiers,"3","22"
"140",LAITERIE FROMAGERIE TESSALA,Locaux 01 et 02 Marché de proximité  le Defunt Modjahid Si MESSAOUDI AEK,,pv,GIPLAIT,34.4461111,-0.195,MARHOUM,SIDI BEL ABBES,Produits laitiers,"3","22"
"139",LAITERIE FROMAGERIE TESSALA,Local 01 Cité 1000 logements,,pv,GIPLAIT,35.1633333,-0.6958333,SIDI LAHCENE,SIDI BEL ABBES,Produits laitiers,"3","22"
"465",ccls lamtar,tabia ville ,,pv,OAIC,35.023888,-0.74187,TABIA,SIDI BEL ABBES,Légumes secs,"5","22"
"466",ccls lamtar,lamtar ville,,pv,OAIC,35.071608,-0.797478,LAMTAR,SIDI BEL ABBES,Légumes secs,"5","22"
"322",Laiterei Edough,la zone idustrielle  El Bouni,,pv,CNA,36.845278,7.751389,EL BOUNI,ANNABA,Fruits et légumes,"2","23"
"323",le marché de UV 12,UV 12,,pv,CNA,36.820556,7.723333,SIDI AMER,ANNABA,Fruits et légumes,"2","23"
"324",le marché de Merzouk Amar,le marché de Merzouk Amar,,pv,CNA,36.809444,7.712778,SIDI AMER,ANNABA,Fruits et légumes,"2","23"
"325",Complexe Sportif ,Stade Dridi Mokhtar,,pv,CNA,36.808889,7.7375,EL HADJAR,ANNABA,Fruits et légumes,"2","23"
"319",le marché de Oued Forcha ,Devant la mosqué EL Kortobi,,pv,CNA,36.909722,7.735,ANNABA,ANNABA,Fruits et légumes,"2","23"
"15",PV 02 UPC EL KARMA,UPC EL KARMA EL HADJAR ROUTE DE AIN BARDA,0655 27 71 53,pv,AGROLOG,36.742859,7.663806,EL HADJAR,ANNABA,Viandes,"1","23"
"320",le marché de Bihdid,Devant le centre midicale Dr Dheghri,,pv,CNA,36.890556,7.716944,ANNABA,ANNABA,Fruits et légumes,"2","23"
"321",le marché de Sidi Selem,le marché de Sidi Selem,,pv,CNA,36.855833,7.780556,EL BOUNI,ANNABA,Fruits et légumes,"2","23"
"12",PV 03 EL HADJAR,BD colonel Amirouche el Hadjar,0666 27 71 53,pv,AGROLOG,36.80726,7.738762,EL HADJAR,ANNABA,Viandes,"1","23"
"326",Espace ouvert,Devant la BADR,,pv,CNA,36.806111,7.738611,EL HADJAR,ANNABA,Fruits et légumes,"2","23"
"327",le marché de Bachiri Ibrahim,le marché du centre  ville,,pv,CNA,36.836667,7.456389,BERRAHEL ,ANNABA,Fruits et légumes,"2","23"
"328",le marché de centre ville,le marché du centre  ville,,pv,CNA,36.912222,7.678611,SERAIDI,ANNABA,Fruits et légumes,"2","23"
"329",le marché de centre ville,le marché du centre  ville,,pv,CNA,37.065278,7.378611,CHETAIBI,ANNABA,Fruits et légumes,"2","23"
"330",le marché du centre  ville,le marché du centre  ville,,pv,CNA,36.856111,7.518889,OUED EL ANEB,ANNABA,Fruits et légumes,"2","23"
"388",ccls annaba,el hadjar,,pv,OAIC,36.792368,7.738085,EL HADJAR,ANNABA,Légumes secs,"5","23"
"266",LAITERIE EDOUGH,EL BOUNI,,pv,GIPLAIT,36.85277,7.74027,EL BOUNI,ANNABA,Produits laitiers,"3","23"
"267",LAITERIE EDOUGH,BERRAHAL,,pv,GIPLAIT,36.8355556,7.4611111,BERRAHEL ,ANNABA,Produits laitiers,"3","23"
"269",LAITERIE EDOUGH,DRAA ERICH,,pv,GIPLAIT,36.8569444,7.5158333,BERRAHEL ,ANNABA,Produits laitiers,"3","23"
"421",CCLS GUELMA,RUE MOHAMED FILALI,,pv,OAIC,36.2573165232838,7.07499804860818,AIN REGGADA,GUELMA,Légumes secs,"5","24"
"420",CCLS GUELMA,RUE LATRACHE SALAH,,pv,OAIC,36.4436776877388,7.30942466851501,MEDJEZ AMAR,GUELMA,Légumes secs,"5","24"
"419",CCLS GUELMA,ROUTE DE BELKHEIR,,pv,OAIC,36.4656713521531,7.4423368452106,GUELMA,GUELMA,Légumes secs,"5","24"
"423",CCLS GUELMA,OUED FRAGHA,,pv,OAIC,36.5565362138084,7.71421635326676,OUED FRAGHA,GUELMA,Légumes secs,"5","24"
"422",CCLS GUELMA,RUE GUERZIZE LAACHI,,pv,OAIC,36.243016868293,7.25064604416599,AIN MAKHLOUF,GUELMA,Légumes secs,"5","24"
"11",PV 02 UPC BENBOULAID,VSA Mostapha benboulaid Ouad Seguene,0676 64 44 02,pv,AGROLOG,36.4074007240779,8.11217933031874,AIN SMARA,CONSTANTINE,Viandes,"1","25"
"347",LAITERIE NUMIDIA,Cité Chaab . Erssas (laiterie),,pv,GIPLAIT,36.3406896,6.6284647,CONSTANTINE,CONSTANTINE,Produits laitiers,"3","25"
"349",LAITERIE NUMIDIA,Ain .Abid rue gh,,pv,GIPLAIT,36.271656,6.698297,CONSTANTINE,CONSTANTINE,Produits laitiers,"3","25"
"351",LAITERIE NUMIDIA,Marché Cité Bab El Kantra (Constantine),,pv,GIPLAIT,36.37071,6.620958,CONSTANTINE,CONSTANTINE,Produits laitiers,"3","25"
"352",LAITERIE NUMIDIA,Ferme Pilote BARAOUIA KHROUB,,pv,GIPLAIT,36.2716549,6.66698233,CONSTANTINE,CONSTANTINE,Produits laitiers,"3","25"
"353",LAITERIE NUMIDIA,Cité UV 20(Ali Mendjli),,pv,GIPLAIT,36.2396822,6.583614,CONSTANTINE,CONSTANTINE,Produits laitiers,"3","25"
"354",LAITERIE NUMIDIA,Cité Massinissa (Khroub),,pv,GIPLAIT,36.2703272,6.7160596,CONSTANTINE,CONSTANTINE,Produits laitiers,"3","25"
"355",LAITERIE NUMIDIA,Cité Haricha (Ain Smara),,pv,GIPLAIT,36.2621368,6.4856736,CONSTANTINE,CONSTANTINE,Produits laitiers,"3","25"
"415",ccls constantine,ain abid constantine,,pv,OAIC,36.23518,6.941763,AIN ABID,CONSTANTINE,Légumes secs,"5","25"
"414",ccls constantine,zighoud youcef,,pv,OAIC,36.5320247186958,6.71336999772235,ZIGHOUD YOUCEF,CONSTANTINE,Légumes secs,"5","25"
"413",ccls constantine,rue l'arbi ben mhidi,,pv,OAIC,36.455611,6.635661,DIDOUCHE MOURAD,CONSTANTINE,Légumes secs,"5","25"
"412",ccls constantine,bab el kantra,,pv,OAIC,36.370541,6.618752,CONSTANTINE,CONSTANTINE,Légumes secs,"5","25"
"411",ccls constantine,el khroub centre ville,,pv,OAIC,36.259897,6.692494,EL KHROUB,CONSTANTINE,Légumes secs,"5","25"
"348",LAITERIE NUMIDIA,Marché Cité Zouaghi (Constantine),,pv,GIPLAIT,36.300006,6.6180091,CONSTANTINE,CONSTANTINE,Produits laitiers,"3","25"
"339",LAITERIE NUMIDIA,Marché Cité Sidi. Mabrouk (Constantine),,pv,GIPLAIT,36.3655024,6.6405903,CONSTANTINE,CONSTANTINE,Produits laitiers,"3","25"
"350",LAITERIE NUMIDIA,Centre ville (Constantine) BOULEVARD BELOUIZDAD,,pv,GIPLAIT,36.3642716,6.6055204,CONSTANTINE,CONSTANTINE,Produits laitiers,"3","25"
"312",LAITERIE NUMIDIA,Marché Cité Bousouf (Constantine),,pv,GIPLAIT,36.3642919,6.6056116,CONSTANTINE,CONSTANTINE,Produits laitiers,"3","25"
"142",LAITERIE  ARIB ,REU 19 MARS EN FACE LE STADE ECHAHID SI HAMDANE MEDEA,,pv,GIPLAIT,36.26,2.7547222,MEDEA,MEDEA,Produits laitiers,"3","26"
"44",CENTRE VILLE ,Berrouaghia à l'intérieur des boutiques en face du centre culturel,0778 75 96 06,pv,AGROLOG,36.1308333,2.93888888888889,BERROUAGHIA,MEDEA,Viandes,"1","26"
"43",BENZIOUECH,BENZIOUECHE ,0657 109 714,pv,AGROLOG,36.2694444,2.75916666666667,MEDEA,MEDEA,Viandes,"1","26"
"431",Ccls Berrouaghia,Route de la gare -Berrouaghia - wilaya de médéa,,pv,OAIC,36.1417389012986,2.91486115636605,MEDEA,MEDEA,Légumes secs,"5","26"
"432",Ccls Berrouaghia,Ain Dhab Médéa le marché organisé par la Direction de Commerce ,,pv,OAIC,36.2644659702382,2.78987792309251,MEDEA,MEDEA,Légumes secs,"5","26"
"443",uca mostaganem,sidi othmane,,pv,OAIC,35.9427001843784,0.117553903706927,SAYADA,MOSTAGANEM,Légumes secs,"5","27"
"249",LAITERIELE LITTORAL,Marché Ain Sefra Mostaganem Centre,,pv,GIPLAIT,35.95,0.099,MOSTAGANEM,MOSTAGANEM,Produits laitiers,"3","27"
"248",LAITERIELE LITTORAL,Marché couvert cité du 05 juillet Mostaganem,,pv,GIPLAIT,35.92,0.09,MOSTAGANEM,MOSTAGANEM,Produits laitiers,"3","27"
"247",LAITERIELE LITTORAL,Site de la laiterie Salamandre ,,pv,GIPLAIT,35.9136631871746,0.063050927657133,MOSTAGANEM,MOSTAGANEM,Produits laitiers,"3","27"
"442",uca mostaganem,route de relizane Mesra,,pv,OAIC,35.840194,0.166139,MESRA,MOSTAGANEM,Légumes secs,"5","27"
"441",uca mostaganem,marché 5 juillet,,pv,OAIC,35.9191472239734,0.098950214330788,MOSTAGANEM,MOSTAGANEM,Légumes secs,"5","27"
"440",uca mostaganem,Rue Tahlaiti Othmane,,pv,OAIC,35.9181339516617,0.088906633950766,MOSTAGANEM,MOSTAGANEM,Légumes secs,"5","27"
"445",CCLS M'sila,ADM de l'Indépendance  commune Sidi Aissa,,pv,OAIC,35.887721,3.77385,SIDI AISSA,M'SILA,Légumes secs,"5","28"
"446",CCLS M'sila,Zone Industrielle bp 120  M'Sila Siège M'sila,,pv,OAIC,35.692096268887,4.53446739489922,M'SILA,M'SILA,Légumes secs,"5","28"
"444",CCLS M'sila,Num :0109 El Hai Elatik Commune de  Mdjedel,,pv,OAIC,35.146917,3.68321,MEDJEDEL,M'SILA,Légumes secs,"5","28"
"52",POINT de vente abattoir zahana,zehanna Mascara,,pv,AGROLOG,35.5051730613189,-0.402534144248708,ZEHANA,MASCARA,Viandes,"1","29"
"57",Point vente SIG,COMMUNE EL Hachem mascara,,pv,AGROLOG,35.5306801222846,-0.194677430753992,SIG,MASCARA,Viandes,"1","29"
"430",CCLS MASCARA,RUE SLATNA MARCHE COUVERT,,pv,OAIC,35.396594875043,0.152654810471763,MASCARA,MASCARA,Légumes secs,"5","29"
"429",CCLS Mascara,RUE SLATNA MARCHE DES FRUITS ET LEGUMES,,pv,OAIC,35.3982796635277,0.162112110352665,BOU HANIFIA,MASCARA,Légumes secs,"5","29"
"53",point de vente ville zahana,Boulevard Brahimi Abdelkader Zahanna Mascara,,pv,AGROLOG,35.5182913586821,-0.4117543884248,ZEHANA,MASCARA,Viandes,"1","29"
"449",ccls ouargla,Bp 247 route 49de Ghardaia,,pv,OAIC,31.9464702811698,5.32517244604726,OUARGLA,OUARGLA,Légumes secs,"5","30"
"450",ccls ouargla,Zone D'activité N03,,pv,OAIC,33.1210038354416,6.0615240613332,TOUGGOURT,OUARGLA,Légumes secs,"5","30"
"54",point de vente oued tlilat en cours,oued Tlilet Oran,,pv,AGROLOG,35.5552316648932,-0.436410359588719,OUED TLELAT,ORAN,Viandes,"1","31"
"55",PV plateau oran,3rue pierre smard plateau oran,,pv,AGROLOG,35.6989400011548,-0.64077145958557,ORAN,ORAN,Viandes,"1","31"
"56",PV hassi bounif, Hassi Bounif oran,,pv,AGROLOG,35.7128491299916,-0.490681052600019,HASSI BOUNIF,ORAN,Viandes,"1","31"
"447",ccls oran,Hai El Mokrani  Oran,,pv,OAIC,35.6874251683836,-0.654066140972012,ORAN,ORAN,Légumes secs,"5","31"
"448",UCA ORAN,Oued Tlelat,,pv,OAIC,35.550639,-0.452417,OUED TLELAT,ORAN,Légumes secs,"5","31"
"61",Siège EPE Spa SOA,Avenue des Martyres de la Révolution,0667 87 32 62,pv,GVAPRO,35.6635289151919,-0.622175790754857,ES SENIA,ORAN,Fruits et légumes,"2","31"
"262",LAITERIE LA SOURCE,Ex GALLERIE ALGERIENNE -BOUGTOB,,pv,GIPLAIT,34.04212,0.08782,BOUGTOUB,EL BAYADH,Produits laitiers,"3","32"
"7",POINT DE VENTE DAWADJEN SITIFIS,RUE EMIR ABDELKADER COMMUNE ILLIZI,0793 77 10 00,pv,AGROLOG,26.49818,8.47531,ILLIZI,ILLIZI,Viandes,"1","33"
"16",PV 03 TINE KHATMA,MARCHE COUVERT TINE KHATMA DJANET,0697 88 34 08 ,pv,AGROLOG,24.552975,9.487394,DJANET,ILLIZI,Viandes,"1","33"
"143",SOUK RAMADAN,Chambre d'Artisanat route El-Anasser,"035874277",pv,CNA,36.0599539870772,4.7846050094595,BORDJ BOU ARRERIDJ,BORDJ BOU ARRERIDJ,Fruits et légumes,"2","34"
"149",SOUK RAMADAN,Marché Hebdomadaire MEDJANA,"035705062",pv,CNA,36.133525101558,4.66827706432253,MEDJANA,BORDJ BOU ARRERIDJ,Fruits et légumes,"2","34"
"150",ORAVIE EST, ORAVIE Cente (03),"035853016",pv,CNA,36.1203986465586,5.07345849593018,AIN TAGHROUT,BORDJ BOU ARRERIDJ,Viandes,"1","34"
"148",SOUK RAMADAN,Commune Belimour Centre,"035790192",pv,CNA,35.9822564952218,4.87686355969718,BELIMOUR,BORDJ BOU ARRERIDJ,Fruits et légumes,"2","34"
"399",CCLS BOURDJ BOU ARRERIDJ,ROUTE PRINCIPALE El Annasser,,pv,OAIC,36.0571198917183,4.78569506685689,BORDJ BOU ARRERIDJ,BORDJ BOU ARRERIDJ,Légumes secs,"5","34"
"144",SOUK RAMADAN,Ouled KHELIFA commue DJAAFRA,"035759181",pv,CNA,36.2656707971096,4.70067358047486,DJAAFRA,BORDJ BOU ARRERIDJ,Fruits et légumes,"2","34"
"145",SOUK RAMADAN,commue DJAAFRA Centre,"035759181",pv,CNA,36.2928372747946,4.66110135839986,DJAAFRA,BORDJ BOU ARRERIDJ,Fruits et légumes,"2","34"
"400",CCLS BOURDJ BOU ARRERIDJ,rue bagadi cherif,,pv,OAIC,36.0647140803503,4.75496390999722,BORDJ BOU ARRERIDJ,BORDJ BOU ARRERIDJ,Légumes secs,"5","34"
"401",CCLS BOURDJ BOU ARRERIDJ,BIR KASDALI CENTRE VILLE,,pv,OAIC,36.1444235754065,5.0316485103728,BIR KASDALI,BORDJ BOU ARRERIDJ,Légumes secs,"5","34"
"257",LAITERIE FROMAGERIE BOUDOUAOU,Cité Benadjel ,,pv,GIPLAIT,36.7278828,3.397055,BOUDOUAOU,BOUMERDES,Produits laitiers,"3","35"
"406",ccls tizi ouzou,Rue Yahia Boushari Thénia  Boumerdes (Unité Thénia),,pv,OAIC,36.7254933717309,3.55994350071351,THENIA,BOUMERDES,Légumes secs,"5","35"
"253",LAITERIE FROMAGERIE BOUDOUAOU,Cité 392 Logements Avenue de L'ALN (coté d'aira de Boumerdes),,pv,GIPLAIT,36.7558817,3.4753835,BOUMERDES,BOUMERDES,Produits laitiers,"3","35"
"417",ccls annaba,ain assel,,pv,OAIC,36.780939,8.377563,AIN EL ASSEL,EL TARF,Légumes secs,"5","36"
"418",ccls annaba,chbita,,pv,OAIC,36.763999,7.742111,CHEBAITA MOKHTAR,EL TARF,Légumes secs,"5","36"
"268",LAITERIE EDOUGH,ECHATT,,pv,GIPLAIT,36.8047222,7.8236111,BENI AMAR_ECHATT,EL TARF,Produits laitiers,"3","36"
"14",PV 01 ABT ECHATT,ROUTE DE L AIROPORT ECHATT EL TAREF,0655 27 71 53,pv,AGROLOG,36.808441,7.820576,BENI AMAR_ECHATT,EL TARF,Viandes,"1","36"
"311",LAITERIE SIDI KHALED,RUE DES CASTORS,,pv,GIPLAIT,35.602814,1.798147,TISSEMSILT,TISSEMSILT,Produits laitiers,"3","38"
"425",CCLS KHENCHELA,centre ville baghai,,pv,OAIC,35.521511130739,7.11417742598997,BAGHAI,KHENCHELA,Légumes secs,"5","40"
"426",CCLS KHENCHELA,centre ville ouled rechache,,pv,OAIC,35.2928205062149,7.35628118670961,OULED RECHACHE,KHENCHELA,Légumes secs,"5","40"
"424",CCLS KHENCHELA,CITE EL AMIR ABDELKADER ,,pv,OAIC,35.4913564272071,6.92651103989347,KAIS,KHENCHELA,Légumes secs,"5","40"
"470",CCLS SOUK AHRAS,mrahna,,pv,OAIC,36.19844,8.158044,MERAHNA,SOUK AHRAS,Légumes secs,"5","41"
"467",CCLS SOUK AHRAS,Avenue Aisset Idir  01  Souk Ahras,,pv,OAIC,36.2821487315937,7.95386688419464,SOUK AHRAS,SOUK AHRAS,Légumes secs,"5","41"
"162",Marché d'approximité,cité bouras laarbi Merahna,,pv,CNA,36.199635,8.157994,MERAHNA,SOUK AHRAS,Viandes,"1","41"
"161",Marché d'approximité,cité bouras laarbi Merahna,,pv,CNA,36.199635,8.157994,MERAHNA,SOUK AHRAS,Fruits et légumes,"2","41"
"160",Marché d'approximité,centre ville Bir Bou Haouch,,pv,CNA,36.014847,7.430266,BIR BOUHOUCHE,SOUK AHRAS,Viandes,"1","41"
"159",Marché d'approximité,centre ville Bir Bou Haouch,,pv,CNA,36.014847,7.430266,BIR BOUHOUCHE,SOUK AHRAS,Fruits et légumes,"2","41"
"158",Marché,amiria sedrata,,pv,CNA,36.13512,7.530102,SEDRATA,SOUK AHRAS,Viandes,"1","41"
"165",Marché d'approximité,cité aataitia amor heddada,,pv,CNA,36.234033,8.335586,HADDADA,SOUK AHRAS,Viandes,"1","41"
"166",Marché d'approximité,centre ville Ouled Driss,,pv,CNA,36.357258,8.026797,OULED DRISS,SOUK AHRAS,Fruits et légumes,"2","41"
"171",Marché d'approximité,el fidh Ouled Moumene,,pv,CNA,36.424057,8.356881,OULED MOUMEN,SOUK AHRAS,Viandes,"1","41"
"163",Marché,centre ville merahna,,pv,CNA,36.194861,8.154443,MERAHNA,SOUK AHRAS,Fruits et légumes,"2","41"
"151",Marché,cité hama loulou souk-ahras,,pv,CNA,36.28894,7.97789,SOUK AHRAS,SOUK AHRAS,Fruits et légumes,"2","41"
"167",Marché,centre ville Ouled Driss,,pv,CNA,36.357258,8.026797,OULED DRISS,SOUK AHRAS,Viandes,"1","41"
"152",Marché,centre ville souk-ahras,,pv,CNA,36.28375,7.955663,SOUK AHRAS,SOUK AHRAS,Fruits et légumes,"2","41"
"153",Marché d'approximité,cité camp d'avion souk-ahras,,pv,CNA,36.27031,7.942471,SOUK AHRAS,SOUK AHRAS,Viandes,"1","41"
"154",Marché,cité 26 avril souk-ahras,,pv,CNA,36.29115,7.943294,SOUK AHRAS,SOUK AHRAS,Fruits et légumes,"2","41"
"155",Marché Num 02,cité omar ibn elkhattab souk-ahras,,pv,CNA,36.284824,7.950835,SOUK AHRAS,SOUK AHRAS,Fruits et légumes,"2","41"
"169",Marché,centre ville Mechroha,,pv,CNA,36.357931,7.837695,MECHROHA,SOUK AHRAS,Viandes,"1","41"
"168",Marché,centre ville Mechroha,,pv,CNA,36.357931,7.837695,MECHROHA,SOUK AHRAS,Fruits et légumes,"2","41"
"157",Marché,amiria sedrata,,pv,CNA,36.13512,7.530102,SEDRATA,SOUK AHRAS,Fruits et légumes,"2","41"
"156",Marché Num 02,cité omar ibn elkhattab souk-ahras,,pv,CNA,36.284824,7.950835,SOUK AHRAS,SOUK AHRAS,Viandes,"1","41"
"468",CCLS SOUK AHRAS,SDRATA,,pv,OAIC,36.1224805004291,7.53142353760302,SEDRATA,SOUK AHRAS,Légumes secs,"5","41"
"469",CCLS SOUK AHRAS,m'daourouch,,pv,OAIC,36.0751025165042,7.82304363924519,MDAOUROUCH,SOUK AHRAS,Légumes secs,"5","41"
"170",Marché d'approximité,el fidh Ouled Moumene,,pv,CNA,36.424057,8.356881,OULED MOUMEN,SOUK AHRAS,Fruits et légumes,"2","41"
"164",Marché d'approximité,cité aataitia amor heddada,,pv,CNA,36.234033,8.335586,HADDADA,SOUK AHRAS,Fruits et légumes,"2","41"
"230",LAITERIE COLAITAL,cité 1600 logements APC CNEP Karkouba Koléa Tipaza,,pv,GIPLAIT,36.6475,2.7613889,KOLEA,TIPAZA,Produits laitiers,"3","42"
"23",Ferme Ibrahim,Sidi Rached,,pv,CNA,36.56868738,2.562233082,SIDI RACHED,TIPAZA,Produits laitiers,"3","42"
"25",TIPAZA,Etage sous terrain ex centre commercial Djawhara,,pv,CNA,36.5914882,2.4463527,TIPAZA,TIPAZA,Fruits et légumes,"2","42"
"79",Chaik,Quartier Chaik près de la mosquée,,pv,CNA,36.637566,2.738408,CHAIBA,TIPAZA,Fruits et légumes,"2","42"
"78",Haloula,cité Haloula,,pv,CNA,36.569752,2.666477,ATTATBA,TIPAZA,Fruits et légumes,"2","42"
"77",OFLA,Ex CCLS OFLA,,pv,CNA,36.661188,2.739692,FOUKA,TIPAZA,Fruits et légumes,"2","42"
"76",AIN TAGOURAIT,Place du marché hebdomadaire,,pv,CNA,36.600615,2.600611,AIN TAGOURAIT,TIPAZA,Fruits et légumes,"2","42"
"75",BOU ISMAIL,Marché couvert,,pv,CNA,36.6424865,2.6905312,BOU ISMAIL,TIPAZA,Fruits et légumes,"2","42"
"74",BOU ISMAIL,Place près de l'UDES,,pv,CNA,36.657264,2.714216,BOU ISMAIL,TIPAZA,Fruits et légumes,"2","42"
"73",BOU ISMAIL,Marché de proximité ex quartier Bailili,,pv,CNA,36.634126,2.6886466,BOU ISMAIL,TIPAZA,Fruits et légumes,"2","42"
"72",SIDI RACHED,à proximité du stade communal,,pv,CNA,36.559911,2.532394,SIDI RACHED,TIPAZA,Fruits et légumes,"2","42"
"71",Bourkika,près du centre commercial entrée ouest de la ville,,pv,CNA,36.495566,2.472909,BOURKIKA,TIPAZA,Fruits et légumes,"2","42"
"70",Ahmer El Ain,Rue Belarbi Amer près de la mosquée,,pv,CNA,36.47515,2.564814,AHMAR EL AIN,TIPAZA,Fruits et légumes,"2","42"
"24",TIPAZA,Ex marché Rabta à proximité de la direction de la formation professionnelle,,pv,CNA,36.5900321,2.4585078,TIPAZA,TIPAZA,Fruits et légumes,"2","42"
"69",MERAD,Place derrière siège APC,,pv,CNA,36.47268,2.427586,MERAD,TIPAZA,Fruits et légumes,"2","42"
"68",HADJOUT,entrée est près de l'OAIC,,pv,CNA,36.512405,2.419583,HADJOUT,TIPAZA,Fruits et légumes,"2","42"
"67",HADJOUT,Rue fetaka Ali,,pv,CNA,36.51252,2.4171,HADJOUT,TIPAZA,Fruits et légumes,"2","42"
"66",LARHAT,à proximité du bureau de poste,,pv,CNA,36.557425,1.805912,LARHAT,TIPAZA,Fruits et légumes,"2","42"
"30",Hadjret Ennous,Place du marché hebdomadaire à proximité du stade communal,,pv,CNA,36.5751224,2.0549479,HADJERAT ENNOUS,TIPAZA,Fruits et légumes,"2","42"
"64",Messelmoun ,Route nationale Num 11 cité des 200 logements,,pv,CNA,36.565108,1.992555,MESSELMOUN,TIPAZA,Fruits et légumes,"2","42"
"63",Messelmoun ,route nationale Num 11 à proximité de la place,,pv,CNA,36.564799,2.000565,MESSELMOUN,TIPAZA,Fruits et légumes,"2","42"
"62",Gouraya ,Parling quartier oued sebt,,pv,CNA,36.564628,1.966848,GOURAYA,TIPAZA,Fruits et légumes,"2","42"
"26",CHERCHEL,Zone industrielle oued Belaa,,pv,CNA,36.5976582,2.2457459,CHERCHEL,TIPAZA,Fruits et légumes,"2","42"
"27",CHERCHEL,Cité 450 logements region ouest,,pv,CNA,36.59597,2.164108,CHERCHEL,TIPAZA,Fruits et légumes,"2","42"
"28",CHERCHEL,Route nationale ferme boumaza,,pv,CNA,36.5767494,2.286144,CHERCHEL,TIPAZA,Fruits et légumes,"2","42"
"29",Hadjret Ennous,Entrée ouest de la ville,,pv,CNA,36.5733999,2.0497002,HADJERAT ENNOUS,TIPAZA,Fruits et légumes,"2","42"
"37",Gouraya ,marché couvert,,pv,CNA,36.568314,1.900669,GOURAYA,TIPAZA,Fruits et légumes,"2","42"
"31",MENACEUR,Ex souk el fellah,,pv,CNA,36.492378,2.242126,MENACEUR,TIPAZA,Fruits et légumes,"2","42"
"32",NADOR,Place coté ouest,,pv,CNA,36.568337,2.3888426,NADOR,TIPAZA,Fruits et légumes,"2","42"
"36",Gouraya ,à proximité du marché couvert,,pv,CNA,36.568183,1.900355,GOURAYA,TIPAZA,Fruits et légumes,"2","42"
"33",Gouraya ,Quartier ,,pv,CNA,36.568933,1.891308,GOURAYA,TIPAZA,Fruits et légumes,"2","42"
"34",Gouraya ,à proximité de la mosquée,,pv,CNA,36.569185,1.892661,GOURAYA,TIPAZA,Fruits et légumes,"2","42"
"35",Gouraya ,à proximité de la route saadouna,,pv,CNA,36.567215,1.894452,GOURAYA,TIPAZA,Fruits et légumes,"2","42"
"65",DAMOUS,route de Hamadia,,pv,CNA,36.547928,1.70398,DAMOUS,TIPAZA,Fruits et légumes,"2","42"
"17",PV 04 DJANET,ROUTE DE LA GAR TADJENANET,0669 24 80 46,pv,AGROLOG,36.107077,5.974846,TADJENANET,MILA,Viandes,"1","43"
"437",CCLS MILA,Cité La GareZone Industrielle Tadjenanet ,,pv,OAIC,36.111642,5.986684,TADJENANET,MILA,Légumes secs,"5","43"
"8",POINT DE VENTE DAWADJEN SITIFIS,CITE 1ER NOVEMEBRE Num  14 COMMUNE TADJENANT,0778 74 83 26,pv,AGROLOG,36.12143,5.97721,TADJENANET,MILA,Viandes,"1","43"
"356",LAITERIE NUMIDIA,Oued. Atmania Chelghoum .Laid reu Palastine,,pv,GIPLAIT,36.245773,6.286581,CHELGHOUM LAID,MILA,Produits laitiers,"3","43"
"357",LAITERIE NUMIDIA,Oued Atmania,,pv,GIPLAIT,36.244821,6.285848,OUED ATHMENIA,MILA,Produits laitiers,"3","43"
"358",LAITERIE NUMIDIA,GRAREM,,pv,GIPLAIT,36.51414,6.32991,GRAREM GOUGA,MILA,Produits laitiers,"3","43"
"439",CCLS MILA,Cité Abdelhamid Ibne Badis M'chira,,pv,OAIC,36.012434,6.232721,EL MECHIRA,MILA,Légumes secs,"5","43"
"438",CCLS MILA,Zone D'activité Industrielle Telaghma,,pv,OAIC,36.112438,6.381268,TELERGHEMA,MILA,Légumes secs,"5","43"
"436",CCLS MILA,Zone Industrielle Ferdjioua,,pv,OAIC,36.405292,5.935588,FERDJIOUA,MILA,Légumes secs,"5","43"
"435",CCLS MILA,Rue PalestineNum  10 Oued Endja,,pv,OAIC,36.430868,6.123383,OUED ENDJA,MILA,Légumes secs,"5","43"
"434",CCLS MILA,Cité Sedrati Ammar Ch Laid ,,pv,OAIC,36.160726,6.167228,CHELGHOUM LAID,MILA,Légumes secs,"5","43"
"433",CCLS MILA, Rue 20 Aout Oued Athmenia,,pv,OAIC,36.248675,6.284864,MILA,MILA,Légumes secs,"5","43"
"211",LAITERIE  ARIB ,MAAS RAFIK : CITE 30 LOGEMENTS BOUTANE KHEMIS MILIANA ,,pv,GIPLAIT,36.2536111,2.2227778,KHEMIS MILIANA,AIN DEFLA,Produits laitiers,"3","44"
"212",LAITERIE  ARIB ,RAHMOUN RAFIK : HAY SOUFAY KHEMIS MILIANA,,pv,GIPLAIT,36.2630556,2.2361111,KHEMIS MILIANA,AIN DEFLA,Produits laitiers,"3","44"
"213",LAITERIE  ARIB ,DJAADI MAAMAR : RUE GOUASMI MOHAMMED DJENDEL,,pv,GIPLAIT,36.2197222,2.41,DJENDEL,AIN DEFLA,Produits laitiers,"3","44"
"214",LAITERIE  ARIB ,HASSANI RABAH : RUE FRERES DELLOUSSI  MILIANA,,pv,GIPLAIT,36.3041667,2.2252778,MILIANA,AIN DEFLA,Produits laitiers,"3","44"
"209",LAITERIE  ARIB ,TAHARI BELHADJ : Arib centre,,pv,GIPLAIT,36.2902778,2.0683333,ARIB,AIN DEFLA,Produits laitiers,"3","44"
"210",LAITERIE  ARIB ,KHELOUF FETHI : LOT Num 06 DIVISION 18 COLLECTION EXCLUSIVE Num 28 SIDI LAKHDAR,,pv,GIPLAIT,36.2658333,2.1688889,SIDI LAKHDAR,AIN DEFLA,Produits laitiers,"3","44"
"216",LAITERIE  ARIB ,AKOUCHI AHMED : CITE 50 LOGEMENTS BAT A Num 04 EL AMRA,,pv,GIPLAIT,36.3058333,1.8477778,EL AMRA,AIN DEFLA,Produits laitiers,"3","44"
"146",LAITERIE  ARIB ,HAY EMIR ABDELKADER -ARIB-,,pv,GIPLAIT,36.2838889,2.0733333,ARIB,AIN DEFLA,Produits laitiers,"3","44"
"381",CCLS EL KHEMIS,126 RUE COLONEL BOUGARA khemis miliana,,pv,OAIC,36.2620081695131,2.21087678977584,KHEMIS MILIANA,AIN DEFLA,Légumes secs,"5","44"
"215",LAITERIE  ARIB ,TAKHRIST AEK : CITE 05 JUILLET 1962 MILIANA,,pv,GIPLAIT,36.3069444,2.2186111,MILIANA,AIN DEFLA,Produits laitiers,"3","44"
"383",CCLS Hammam Bouhadjar,13 RUE BELHOCINE SAID Hammam Bouhadjar,,pv,OAIC,35.3777039634078,-0.969125120463625,HAMMAM BOUHADJAR,AIN TEMOUCHENT,Légumes secs,"5","46"
"382",CCLS AIN TEMOUCHENT,rue raho kada ex khemisti ain temouchent,,pv,OAIC,35.2972688390215,-1.14000516517403,AIN TEMOUCHENT,AIN TEMOUCHENT,Légumes secs,"5","46"
"90",SOUK EL KHEMIS,Daira de Guerrara  El Guerrara,,pv,CNA,32.7956840257031,4.50139783849859,EL GUERRARA,GHARDAIA,Fruits et légumes,"2","47"
"81",Ighoza,W147 Ghardaia,,pv,CNA,32.4932771414547,3.64814307049609,GHARDAIA,GHARDAIA,Fruits et légumes,"2","47"
"80",marché de gros des fruits et légumes,Dhayet Bendhahoua,,pv,CNA,32.5309902169623,3.60725915822791,DHAYET BENDHAHOUA,GHARDAIA,Fruits et légumes,"2","47"
"84",Merakchi,Avenue du 1er Novembre Ghardaia,,pv,CNA,32.4776527051608,3.68800751126857,GHARDAIA,GHARDAIA,Fruits et légumes,"2","47"
"85",Porte Occidentale Beni Isguen,Porte Occidentale  Ghardaia,,pv,CNA,32.4721623097803,3.6935372704405,BOUNOURA,GHARDAIA,Fruits et légumes,"2","47"
"86", Ksar de BOUNOURA,Bounoura Ghardaia,,pv,CNA,32.4836446223787,3.70242371095525,BOUNOURA,GHARDAIA,Fruits et légumes,"2","47"
"87",centre ville,El Atteuf,,pv,CNA,32.476528578944,3.74691753476008,EL ATTEUF,GHARDAIA,Fruits et légumes,"2","47"
"82",Karkoura,Ghardaia,,pv,CNA,32.4960621807002,3.64611938956484,GHARDAIA,GHARDAIA,Fruits et légumes,"2","47"
"89",école primaire Lahreche Moubarak,Zelfana,,pv,CNA,32.3974601199494,4.22468185490435,ZELFANA,GHARDAIA,Fruits et légumes,"2","47"
"91",centre ville,Berriane,,pv,CNA,32.8257183290102,3.76384252407845,BERRIANE,GHARDAIA,Fruits et légumes,"2","47"
"92",centre ville,El Menia,,pv,CNA,30.580451963516,2.88175427211853,EL MENIAA,GHARDAIA,Fruits et légumes,"2","47"
"93",Arret Meftah,Route de l'Unité Africaine Hassi el Gara,,pv,CNA,30.5596541686878,2.89733463291243,HASSI GARA,GHARDAIA,Fruits et légumes,"2","47"
"83",mermed,Ghardaia,,pv,CNA,32.4967842961678,3.6728593939749,GHARDAIA,GHARDAIA,Fruits et légumes,"2","47"
"88",oued Metlili,Metlili,,pv,CNA,32.2697917342146,3.63324489070247,METLILI,GHARDAIA,Fruits et légumes,"2","47"
"455",CCLS OUED RHIOU,rue belkhenchir mohamed marché couvert,,pv,OAIC,35.9626880179441,0.919034454890165,OUED RHIOU,RELIZANE,Légumes secs,"5","48"
"453",CCLS RELIZANE,ROUTE BELACEL,,pv,OAIC,35.746389,0.549444,RELIZANE,RELIZANE,Légumes secs,"5","48"
"454",CCLS RELIZANE,Rue mohamed lekhal locale num 18  Mendasse  Relizane,,pv,OAIC,35.65,0.865833,RELIZANE,RELIZANE,Légumes secs,"5","48"
