num,name,address,tel,fax,website,lon,lat,acronym,code_wil
0,"Ministère de l’Agriculture, du Développement Rural et de la Pêche","12 Boulevard Colonel Amirouche, Alger",023 50 32 38 ,023 50 31 17,madrp.gov.dz,3.058677,36.770581,MADR,16
1,Direction Générale des Forêts,"Chemin Doudou Mokhtar, BP N° 232, Ben Aknoun, Alger",023 78 58 96,023 78 54 56,madrp.gov.dz/dgf,3.012842,36.75064,DGF,16
2,Direction des Services Agricole ADRAR,RUE TALEB MOHAMED,049 36 48 28,049364811,,-0.28185,27.87745,DSA ADRAR,1
3,Direction des Services Agricole Chlef,CITE BELHAMRI DJILALI  CHLEF,027 77 59 00,027 79 05 75,,1.329005,36.161627,DSA Chlef,2
4, Direction des Services Agricole Laghouat,MHAFIR,029 14 54 12,029 14 64 84,,2.854042,33.79567,DSA Laghouat,3
5,Direction des Services Agricole Oum el Bouaghi,CITE LAARBI BEN MHIDI  OUM EL BOUAGHI,032 56 32 72/ 032 56 31 10,032 56 32 62,,7.09506,35.87881,DSA Oum el Bouaghi,4
6,Direction des Services Agricole Batna,CITE KECHIDA,033 80 72 86/ 033 85 25 68,033 80 70 44,,6.156314,35.560048,DSA Batna,5
7,Direction des Services Agricole BEJAIA,"NOUVELLE CITE ADMINISTRATIVE, RUE DES FRERES TABET  BEJAIA",034 10 26 05/ 034 10 26 06,034 10 26 12,,5.062498,36.739011,DSA BEJAIA,6
8,Direction des Services Agricole Biskra,BD EMIR ABDELKADER LA GARE,033 55 83 72,033 55 83 71,,5.7246758,34.8561983,DSA Biskra,7
9, Direction des Services Agricole BECHAR,5 COL CHABOU BARGA,049 21 03 62,049 21 03 64,,-2.225899,31.602642, DSA BECHAR,8
10,Direction des Services Agricole Blida,CITE AZZI ALI SIDI AEK,025 39 13 47/ 025 39 14 57,025 24 65 31,,2.815244,36.490729,DSA Blida,9
11,Direction des Services Agricole Bouira,RUE BOUKAROU MAKHLOUF,026 73 02 10,026 73 01 77,,3.151952,36.564227,DSA Bouira,10
12,Direction des Services Agricole TAMENGHASSET,ILOT 3048 HAI ESSALEM,029 31 02 10,029 31 02 06/029 31 02 11,,5.521134,22.775952,DSA TAMENGHASSET,11
13,Direction des Services Agricole Tébéssa,RTE CONSTANTINE,037 59 27 00,037 59 28 37,,8.108234,35.408822,DSA Tébéssa,12
14,Direction des Services Agricole Tlemcen,BD DES 24 METRES  TLEMCEN,043 42 21 96/043 42 23 47,043 42 20 31,,-1.321337,34.874794,DSA Tlemcen,13
15,Direction des Services Agricole Tiaret,CITE BOLLIS AMAR TEFFAH ROUTE BOUCHEKIF TIARET,046 24 44 08, 046 25 50 20/ 046 24 44 07,,1.327127,35.371482,DSA Tiaret,14
16,Direction des Services Agricole Tizi Ouzou,AXE NOUVEAU LYCEE GARE FERROVIAIRE L'EX SOUK EL FELLAH BELLOUA,026 21 41 90/ 026 20 90 36,026 20 05 08,,4.050023,36.712361,DSA Tizi Ouzou,15
17,Direction des Services Agricole Alger,RTE NLE N°5 CINQ MAISON EN FACE CIMETIERE EL ALLIA,021 52 27 45,021 52 36 06,,3.178766,36.73168,DSA Alger,16
18,Direction des Services Agricole Djelfa,Cité RAS EL AYOUN Route Laghouat djelfa,027 92 18 57 ,027 92 18 59,,3.255901,34.64864,DSA Djelfa,17
19,Direction des Services Agricole JIJEL ,CITE ADM OULED AISSA  JIJEL,034 47 15 80,034 49 59 80,,5.749744,36.807268,DSA JIJEL ,18
20,Direction des Services Agricole Sétif,CITE  AIN TEBINET  Sétif19000,036 62 10 19 / 20,036 62 10 17,,5.432294,36.188198,DSA Sétif,19
21,Direction des Services Agricole Saida,Cité Riade  saida,048 37 41 23,048 37 41 21,,0.160177,34.843835,DSA Saida,20
22,Direction des Services Agricole Skikda,CITE FRERES CHBEL EX SKI AUTO DIDOUCHE MOURAD 21000,038 75 15 10,038 75 39 16,,6.909854,36.87984,DSA Skikda,21
23,Direction des Services Agricole Sidi bel Abbes,RTE BOUKHANEFIS MOUSTACHFA 22000,048 76 95 07/08/09,048 76 95 12,,-0.650069,35.178232,Sidi bel Abbes,22
24,Direction des Services Agricole Annaba,7  COURS DE LA REVOLUTION 23000,038 45 00 84,038 45 00 79,,7.759729,36.900972,DSA Annaba,23
25,Direction des Services Agricole Guelma,CITE BARA LAKHDAR AGABI 24000 guelma ,037 11 12 91/037 11 12 92,037 11 12 93,,7.439997,36.455379,DSA Guelma,24
26,Direction des Services Agricole Constantine,PLACE DES MARTYRS CENTRE VILLE 25800 ,031 87 28 04 / 05 / 06,031 87 46 74/031 87 32 19,,6.609297,36.363949,DSA Constantine,25
27,Direction des Services Agricole Médéa,BD SALVADOR ALLENDEE M'SALLAH 26000,025 79 36 85,025 79 36 86,,2.765699,36.260921,DSA Médéa,26
28,Direction des Services Agricole Mostaganem,LOT VALLEE DES JARDINS 27000 MOSTAGHANEM,045 41 51 11,045 41 51 13,,0.110753,35.913246,DSA Mostaganem,27
29,Direction des Services Agricole M'sila,CITE ADM 28000,035 35 06 69,035 55 00 14,,4.536575,35.703837,DSA M'sila,28
30,Direction des Services Agricole Mascara,Rue SIDI SAHNOUN RACHIDIA ROUTE DE TIARET 29000  Mascara,045 71 18 50,045 71 18 53,,0.149572,35.394157,DSA Mascara,29
31,Direction des Services Agricole Ouargla,AVENU d'EL QODS CODE POSTAL 30000  OUARGLA,029 71 22 74/ 78,029 71 37 30,,5.324527,31.950914,DSA Ouargla,30
32,Direction des Services Agricole Oran,"02  Maitre Abed M'hamed - Plateau a ,ORAN ",041 30 10 11 / 12,041 30 10 31,,-0.656722,35.688379,DSA Oran,31
33,Direction des Services Agricole El Bayadh,CENTRE VILLE 32000 EL BAYADH,496113950,049 61 14 19,,1.01387,33.68154,DSA El Bayadh,32
34,Direction des Services Agricole Illizi,RUE MUSTAPHA BEN BOULAID CENTRE VILLE 33000 ILLIZI,29402861,029 40 28 60,,8.475074,26.503022,DSA Illizi,33
35,Direction des Services Agricole Bordj Bou Arreridj,BD  HAOUARI BOUMEDIENE  BORDJ BOU ARRERIDJ,035 73 31 34,035 73 31 30,,4.770908,36.074055,DSA Bordj Bou Arreridj,34
36,Direction des Services Agricole Boumerdes,NOUVEAU SIEGE SIS AUX ORANGERS 35000 BOUMERDES,024 79 50 14,024 79 50 14,,3.486425,36.763604,DSA Boumerdes,35
37,Direction des Services Agricole EL Tarf,CITE bouhdjar EL TAREF,038 60 16 14  ,038 60 16 13,,8.310108,36.758056,DSA EL Tarf,36
38,Direction des Services Agricole Tindouf,RUE DE LA REVOLUTION AGRAIRE - CITE KSABI  - TINDOUF 37000,049 92 20 29,049 37 67 56,,-0.973435,29.096644,DSA Tindouf,37
39,Direction des Services Agricole Tissemssilt,"Cité Ain El Bordj, TISSEMSILT",046 47 79 70,046 56 72 09,,1.8170497,35.6093465,DSATissemssilt,38
40,Direction des Services Agricole EL OUED,Rue Mohamed  KHEMISTI El OUED,032 14 00 83,03214 00 80/82,,6.858382,33.362822,DSA EL OUED,39
41,Direction des Services Agricole Khenchela,KHENCHELA 40000,032 74 67 13,032 74 69 91/032 74 68 53,,7.1336994,35.2940393,DSA Khenchela,40
42,Direction des Services Agricole Souk Ahras,CITE 80 BUREAUX CENTRE VILLE 41000,037 75 40 90,037 75 40 92,,7.953117,36.286804,DSA Souk Ahras,41
43,Direction des Services Agricole Tipaza,CITE 50LOGTS 42038 NADOR,024 47 69 33,024 37 69 81,,2.46049,36.586377,DSA Tipaza,42
44,Direction des Services Agricole Mila ,RUE BEN KERBA LAKHEDAR 43000 MILA,031 48 02 33/34,031 48 02 35,,6.266537,36.449476,DSA Mila ,43
45,Direction des Services Agricole Ain Defla,BOULEVARD 19 MARS  AIN DEFLA,027 50 45 32/027 50 45 33/39,027 50 45 34,,1.956543,36.26068,DSA Ain Defla,44
46,Direction des Services Agricole Naâma ,CITE 164 LOGTS 45000 NAAMA,049 59 52 94,049 59 53 27,,-0.311129,33.266959,DSA Naâma ,45
47,Direction des Services Agricole Ain témouchent,HAI ZEITOUN 46000 AIN TEMOUCHENT,043 77 97 96 /043 77 98 01,043 77 97 99,,-1.146897,35.30731,DSA Ain témouchent,46
48,Direction des Services Agricole Ghardaia,40 RUE EMIR ABDELKADER,029 28 50 99,029 29 54 11,,3.675671,32.486046,DSA Ghardaia,47
49,Direction des Services Agricole Rélizane,Cité des 24 Logts Dallas Tob Relizane,046 71 63 88,046 71 63 79,,0.561703,35.73353,DSA Rélizane,48
50,Conservation des Forêts ADRAR,CITE OULED OUNGAL A ADRAR (ANCIEN SIEGE DE LA WILAYA) BP 389,049 36 12 32 ,049 36 12 34,,-0.287901,27.899426,CF ADRAR,1
51,Conservation des Forêts CHLEF,RUE EMIR ABDELKADER BP 232,027 77 10 46 / 027 77 18 08,027 77 16 16,,1.336333,36.163843,CF CHLEF,2
52,Conservation des Forêts LAGHOUAT,CITE ADMINISTRATIVE EL M'HAFIR  LAGHOUAT,029 14 54 00 ,029 14 54 01,,2.853161,33.794214,CF LAGHOUAT,3
53,Conservation des Forêts OUM EL BOUAGHI,CITE 18 FEVRIER BP N°41  OUM EL BOUAGHI 04000,032 56 36 14,032 54 57 17,,7.113224,35.87018,CF OUM EL BOUAGHI,4
54,Conservation des Forêts BATNA,NOUVELLE CITE ADMINISTRATIVE (Ex-La Verdure)  BATNA 03,033 80 70 31 ,033 85 39 02,,6.169608,35.552893,CF BATNA,5
55,Conservation des Forêts BEJAIA,RUE FATEH MAHFOUDI ZONE INDU BEJAIA,034 18 70 90,034 18 71 28,,5.053945,36.745705,CF BEJAIA,6
56,Conservation des Forêts BISKRA,HARET EL OUED  BISKRA,033 53 04 50 / 033 53 04 54,033 53 04 53,,5.73282,34.857699,CF BISKRA,7
57,Conservation des Forêts BECHAR,"BOITE POSTAL 193, ROUTE DE L'AEROPORT  BECHAR",049 26 21 83 / 82,049 26 21 82,,-2.220973,31.624377,CF BECHAR,8
58,Conservation des Forêts BLIDA,RTE OUED ALLEUG -13 ZABANA (09000 BLIDA),025 23 58 15 /16,025 23 58 17,,2.83508,36.468434,CF BLIDA,9
59,Conservation des Forêts BOUIRA,"ZONE DES PARCS, WILAYA DE BOUIRA",026 73 28 39 /026 73 28 38,026 93 01 31,,3.882153,36.380332,CF BOUIRA,10
60,Conservation des Forêts TAMENGHASSET,HAY ECHOUMOUA B.P.126  TAMENGHASSET,029 32 01 47 /48,029 32 01 47,,5.516616,22.80151,CF TAMENGHASSET,11
61,Conservation des Forêts TEBESSA,CITE BEL AIR TEBESSA Centre,037 55 59 48,037 55 56 54,,8.112883,35.404883,CF TEBESSA,12
62,Conservation des Forêts TLEMCEN,BP N°369  TLEMCEN ,043 27 85 62,043 27 14 79,,-1.305207,34.871707,CF TLEMCEN,13
63,Conservation des Forêts TIARET,CITE ARBAOUI AEK EN FACE CITE DUABI B.P 118  TIARET,046 25 42 12,046 20 78 16,,1.30797,35.351536,CF TIARET,14
64,Conservation des Forêts TIZI OUZOU,"12, RUE LAMALI AHMED   TIZI OUZOU ",026 12 12 35 /026 12 29 27,026 12 25 57,,4.053498,36.709705,CF TIZI OUZOU,15
65,Conservation des Forêts ALGER,FERME PILOTE l'ALGEROISE EL MOHAMMADIA  ALGER,021 51 44 98,021 51 44 97,,3.162689,36.724332,CF ALGER,16
66,Conservation des Forêts DJELFA,CITE 05 JUILLET (BNET BELAKEHAL)  DJELFA,027 92 34 19,027 87 38 98,,3.263064,34.658098,CF DJELFA,17
67,Conservation des Forêts JIJEL,ROUTE DE CONSTANTINE  JIJEL 18000,034 47 17 36,034 47 46 27,,5.771968,36.812201,CF JIJEL,18
68,Conservation des Forêts SETIF,CITE AIN TBINET  SETIF,036 62 10 03/04,036 62 10 06,,5.432774,36.188236,CF SETIF,19
69,Conservation des Forêts SAIDA,RTE DE TIARET 20000 WILAYA DE SAIDA,048 51 65 84,048 41 03 13,,0.14806,34.83445,CF SAIDA,20
70,Conservation des Forêts SKIKDA,CITE BOUABAZ  SKIKDA,038 75 43 78,038 75 43 78,,6.915203,36.881544,CF SKIKDA,21
71,Conservation des Forêts SIDI BEL ABBES,N°55 RUE KAISSAR BOUZIANE CITE ADIME FATIHA  SIDI BEL ABBAS,048 68 47 38/048 68 47 27,048 65 23 58,,-0.645893,35.200838,CF SIDI BEL ABBES,22
72,Conservation des Forêts ANNABA,CITE 05 JUILLET 1962 LES HANGROIS ANNABA,038 42 30 03 ,038 42 26 32/33,,7.712227,36.885004,CF ANNABA,23
73,Conservation des Forêts GUELMA,CITE MEKHANCHA ABDELATIF  GUELMA ,037 16 99 31 ,037 14 55 57,,7.436931,36.472706,CF GUELMA,24
74,Conservation des Forêts CONSTANTINE,CITE BOUSSOUF  1er  Tranche  CONSTANTINE ,031 60 08 08 / 031 60 08 63,031 60 48 64,,6.581437,36.327659,CF CONSTANTINE,25
75,Conservation des Forêts MEDEA, RUE SAVADOR ALEND QUATIER  M'SALAH   MEDEA,025 79 36 76,025 58 14 63,,2.760548,36.260704,CF MEDEA,26
76,Conservation des Forêts MOSTAGANEM,01 RUE MEZIANE MOKHTAR 27000  MOSTAGANEM,045 41 74 68 /64,045 41 74 65,,0.066769,35.917974,CF MOSTAGANEM,27
77,Conservation des Forêts M'SILA,ROUTE DE M'SILA 28000,035 33 61 92 ,,,4.545297,35.705166,CF M'SILA,28
78,Conservation des Forêts MASCARA,RUE EL MOUDJAHID EL MOUTAWAFI KHATIR HMED BEL MOKHTAR 29000  MASCARA,045 71 88 34,045 71 92 38,,0.147403,35.400197,CF MASCARA,29
79,Conservation des Forêts OURGLA,ZONE D'ACTIVITEES 30000  WILAYA DE OUARGLA,029 71 39 42,029 71 30 05,,5.319623,31.940372,CF OURGLA,30
80,Conservation des Forêts ORAN,"RUE FRANGE MARTINS,CANASTEL  ORAN",041 62 20 62,041 62 20 63,,-0.582208,35.73215,CF ORAN,31
81,Conservation des Forêts El Bayadh,cite admin BP N°127 Rp-EL-Bayadh, 049 613 981,"49,613,982",,1.01374,33.68112,CF El Bayadh,32
82,Conservation des Forêts ILLIZI,CITE ADMINISTRATIVE  ILLIZI,029 42 18 19/ 029 42 20 87,029 40 40 24/28,,8.47012,26.509331,CF ILLIZI,33
83,Conservation des Forêts Bordj Bou Arreridj,"17 Rue Rameche Aisa, fg des jardins, Bordj Bou Aréridj",35733098,35733100,,4.771682,36.075455,CF Bordj Bou Arreridj,34
84,Conservation des Forêts BOUMERDES,CITE IBN KHELDOUNE (1200 logts)  BOUMERDES,024 79 13 42,024 81 15 70,,3.465371,36.750364,CF BOUMERDES,35
85,Conservation des Forêts EL TARF,Nouvelle cité administrative route de zitouna - El Tarf,046 55 11 19 ,046 55 11 19,,8.311596,36.758118,CF EL TARF,36
86,Conservation des Forêts TISSEMSILT,Route de Sidi Khelifa-Tissemsilt,038 60 10 23,038 60 18 73,,1.820421,35.611014,CF TISSEMSILT,38
87,Conservation des Forêts Khenchela,Allées Abdellah Ben Ahmed Khellaf-Khenchela,32746858, 032 746 745,,7.138362,35.432671,CF Khenchela,40
88,Conservation des Forêts SOUK AHRAS,CITE GUETTAR EL ZAIDI BAOULOU 01  SOUK AHRAS,037 75 11 89 ,037 75 11 85,,7.93939,36.291309,CF SOUK AHRAS,41
89,Conservation des Forêts TIPAZA,NOUVELLE CITE ADMINISTRATIVE   TIPAZA  ,024 37 62 86,024 37 62 85,,2.45757,36.589421,CF TIPAZA,42
90,Conservation des Forêts MILA,ROUTE DE LA GARE LOT 500 LOGTS MILA 43000,031 47 39 44,031 47 39 45,,6.25939,36.452659,CF MILA,43
91,Conservation des Forêts AIN DEFLA, RUE 18 FEVRIER   AIN DEFLA,027 50 53 38,028 50 53 39,,1.950493,36.260917,CF AIN DEFLA,44
92,Conservation des Forêts NAAMA,NOUVEAU SIEGE A COTE DE L'HOPITAL BP 65 NAAMA ,049 59 34 86 / 049 59 33 69 ,049 59 33 10,,-0.305024,33.2765587,CF NAAMA,45
93,Conservation des Forêts RELIZANE,CITE EL OUAFI ROUTE DE L'UNIVERSITE RELIZANE 48000,046 72 50 14 /046 72 50 15 ,046 72 50 16,,0.544492,35.740021,CF RELIZANE,48
94,Institut National De La Recherche Agronomique D’Algerie,"02 rue des frères Ouaddek Hacen Badi, BP 200, EL-HARRACH, Alger.",023 82 85 64 / 67 ,023 82 85 63,www.inraa.dz,3.152733333,36.72231111,INRAA,16
95,Institut National de la Recherche Forestière,"Forêt BAINEM, Alger",021 90 12 23/32,021 90 10 26,www.inrf.dz,2.957135,36.804431,INRF,16
96,Haut Commissariat au Développement de la Steppe ,"Rue de l'Emir Abdelkader, 17000, Djelfa",027 87 53 04,,,3.255766,34.668012,HCDS,17
97,Commissariat au Développement de l'Agriculture des Régions Sahariennes ,"Ave 1er Novembre 1954, Ouargla",029 71 30 39,029 71 36 89,,5.324003,31.946472,CDARS,30
98,Centre National de Contrôle et de Certification des Semences et Plants,B.P 119 Hassan Badi 16200 – El Harrach – Alger,021 52 12 13 / 51 64 19 ,021 52 99 00,www.cncc.dz,3.153277778,36.72207222,CNCC,16
99,Centre National de l'Insémination Artificielle et de l'Amélioration Génétique,"Haouche Erroussi, Baba Ali, BP N°10- Birtouta, 16045, Alger",023 40 00 12,023 40 00 12,www.cniaag.dz,3.024425,36.65580556,CNIAAG,16
100,Institut National de la Médecine Vétérinaire,Route Ouled Sidi Cheikh Mohammadia Alger.,021 53 67 60 /  85, 021 53 67 20,,3.15315,36.725015,INMV,16
101,Institut national de la protection des végétaux,"12, Avenue des Frères Ouadek Hacen Badi EL HARRACH - ALGER.",023 82 88 85,023 82 88 96,www.inpv.edu.dz,3.155418,36.722882,INPV,16
102,Institut National des Sols de L'Irrigation et du Drainage,BP 148 OUED SMAR EL HARRACH .ALGER,021 82 54 57,021 82 57 39,www.insid.dz,3.155297,36.718986,INSID,16
103,Institut National de la Vulgarisation Agricole,"BP 42- Said Hamdine   BIR-MOURAD-RAIS, ALGER.",021 54 34 17,,www.inva.dz,3.028686,36.733714,INVA,16
104,Institut Technique de L'Arboriculture Fruitière et de la Vigne,"Tessala El Merdja - Birtouta , Alger.",023 58 38 60 / 61 / 66,023 58 38 64 / 65,www.itafv.dz,2.949945,36.63317,ITAFV,16
105,Institut Technique des Cultures Maraichères et Industrielles,BP 50 Route de Morétti Staouéli . Alger.,021 39 36 90 / 91 ,021 39 36 92  ,www.itcmidz.org,2.86565,36.75578333,ITCMI,16
106,Institut Technique de Développement de  L’Agronomie Saharienne,BP 27 RP AIN BENNOUI BISKRA,033 62 42 91 / 94,0 33 62 42 78,www.itdas.dz,5.654527778,34.80673056,ITDAS,7
107,Institut Technique de L'Elevage,"BABA ALI, Alger.",023 57 01 78,(0) 23 57 01 81,www.itelv.dz,3.051497222,36.65361667,ITELV,16
108,Institut Technique  des Grandes Cultures,"01, Rue Hacene Badi Ex Avenue Pasteur. BP 16 El Harrach. Alger.", 023 82 85 53 / 54,0 23 82 85 53 / 54,www.itgc.dz,3.152086111,36.72100556,ITGC,16
109,Ecole Nationale des Forêts ,,033 85 71 43/033 85 74 54,,,6.191768,35.529791,ENAF ,5
110,Centre de Formation des Agents Techniques Spécialisés des Forêts Jijel,oued kissir bordj blida 18005 el aouana,034 58 43 17/(034) 58 43 19,,,5.673153,36.793331,CFATSF Jijel,18
111,Centre de Formation des Agents Techniques Spécialisés des Forêts Medea,centre ville beni slimane,025 71 58 19/(025) 71 5712,,,3.30408,36.22865,CFATSF Medea,26
112,Centre de Formation et de Vulgarisation Agricole Medea,hai takbou 26800 medea,025 58 89 26/025 58 91 61,,,2.771924,36.26258,CFVA Medea,26
113,Centre de Formation et de Vulgarisation Agricole-Touggourt,sidi mahdi bp 04 30001 nezla,029 69 31 74/(029) 69 32 79,,,0.236256,29.253941,CFVA Touggourt,30
114,Institut deTechnologie Moyen Agricole Spécialisé Tizi Ouzou,,026 20 70 51/026 20 70 52,,,4.017942,36.746463,ITMAS Tizi Ouzou,15
115,Institut deTechnologie Moyen Agricole Spécialisé Adrar,,049 90 49 50/049 90-49-51,,,0.236256,29.253941,ITMAS Adrar,1
116,Institut deTechnologie Moyen Agricole Spécialisé Guelma,,037 11-16-97/037) 11-13-87,,,7.440161,36.458509,ITMAS Guelma,24
117,Institut deTechnologie Moyen Agricole Spécialisé Djelfa,,027 92 18 42/027) 92 1843,,,3.255977,34.647519,ITMAS Djelfa,17
118,Institut deTechnologie Moyen Agricole Spécialisé Alger,,021 86 82 36/021 86 72 04,,,3.311358,36.77996,ITMAS Alger,16
119,Institut deTechnologie Moyen Agricole Spécialisé Ain Temouchent,,043 79 83 66/043) 79 83 68,,,-1.116214,35.283269,ITMAS Ain Temouchent,46
120,Institut deTechnologie Moyen Agricole Spécialisé Setif,,030 61 92 51/027 92 18 43,,,5.372216,36.163866,ITMAS Setif,19
121,Haut Commissariat au Développement de la Steppe Siège Central,"Rue de l'emir Abdelkader, Djelfa,17000",027 87 53 04,027.87.42.38/027.87.51.12,,3.256916667,34.66916944,HCDS Siège Central Djelfa,17
122,Haut Commissariat au Développement de la Steppe Centre régional Djelfa, , ,,,3.255165556,34.66790694,HCDS CR Djelfa,17
123,Haut Commissariat au Développement de la Steppe Centre régional M'sila, , , ,,4.536939167,35.7077725,HCDS CR M'sila,28
124,Haut Commissariat au Développement de la Steppe Centre régional Naama, , , ,,-0.3124419444,33.26851,HCDS CR Naama,45
125,Haut Commissariat au Développement de la Steppe Centre régional Saida, , , ,,0.1505083333,34.84028333,HCDS CR Saida,20
126,Haut Commissariat au Développement de la Steppe Centre régional Tébessa, , , ,,8.132172778,35.40958556,HCDS CR Tébessa,12
127,Haut Commissariat au Développement de la Steppe Centre régional El Bayadh, , , ,,1.013066667,33.67884444,HCDS CR El Bayadh,32
128,Stations d’expérimentation du HCDS Tebessa - Ain Zarga , , , ,,8.196111111,35.64694444,Station HCDS Tebessa - Ain Zarga,12
129,Stations d’expérimentation du HCDS Tebessa - Thlidjane, , , ,,7.748027778,35.07619444,Station HCDS Tebessa - Thlidjane,12
130,Stations d’expérimentation du HCDS Khenchela - El Mahmal, , , ,,7.254166667,35.28638889,Station HCDS Khenchela - El Mahmal,40
131,Stations d’expérimentation du HCDS Batna – Barika, , , ,,5.344111111,35.35991667,Station HCDS Batna – Barika,5
132,Stations d’expérimentation du HCDS Biskra - Ouled Djellal, , , ,,5.099025,34.45745278,Station HCDS Biskra - Ouled Djellal,7
133,Stations d’expérimentation du HCDS Djelfa - Taadmit, , , ,,3.037627778,34.26854444,Station HCDS Djelfa - Taadmit,17
134,Commissariat au Développement de l'Agriculture des Régions Sahariennes,Ave 1 er November 1954,029 71 30 39,029.71.30.39/029.71.29.24,,5.324002778,31.94647222,CDARS Siège Central Ouargla,30
135,Commissariat au Développement de l'Agriculture des Régions Sahariennes, , , ,,5.978102778,33.54041111,CDARS  Antenne Djamaa,39
136,Commissariat au Développement de l'Agriculture des Régions Sahariennes, , , ,,0.2760638889,27.87338611,CDARS Antenne Adrar,1
137,OFFICE ALGÉRIEN INTERPROFESSIONNEL DES CÉRÉALES,05 RUE FERHAT BOUSSAD /Alger centre,021 23 73 04/05/06/07,021 23 73 13,www.oaic.dz,3.051741,36.765843,OAIC,16
138,OFFICE NATIONAL INTERPROFESSIONNEL DU LAIT ET DES PRODUITS LAITIERS,"Zone industrielle, route nationale N° 01 Boufarik, Blida",025 28 37 87/ 025 28 37 88,021 28 36 32,www.onab.dz,2.915039,36.58804,ONIL,16
139,OFFICE NATIONAL INTERPROFFESIONNEL DES LÉGUMES ET DE LA VIANDE,"Domaine TOURI H’Mida, route de Chéraga, Ain Benian, Alger.",023 21 02 96/93 ,023 21 02 94,www.onilev.dz,2.923407,36.798957,ONILEV,16
140,OFFICE NATIONAL DES TERRES AGRICOLES,Déménagement vers Birtouta en mars 2018,021 73 21 62,021 74 73 97,www.onta.dz/,3.002914,36.64943,ONTA,16
141,OFFICE NATIONAL DE DÉVELOPPEMENT DES ELEVAGES ÉQUINS ET CAMELINS,Haras national chaouchaoua de Tiaret,,,,1.365658,35.399953,ONDEEC,14
142,Groupe de Valorisation des PRoduits Agricoles ,22 Rue des fousillés du 17 mai 1957 El Anasser,021-68-54-17/021-67-64-44,021-67-44-53,www.gvapro-dz.com,3.083797,36.744275,GVAPRO,16
143,Groupe Agro-Logistique,22 rue des fusillés du 17 mai 1957 - El Anasser ,021 67 88 09,021 67 40 14,www.agrolog.dz,3.083979,36.744429,AGROLOG,16
144,Groupe Génie Rural,"Route BenSari Chebli,W de Blida",025-48-68-47,025-48-68-52,,3.038572,36.5838813,GGR,9
145,Groupe Lait,"1, Place Slimane HAMMADOUCHI Hussein-Dey- ALGER",023 77 12 41 / 47 / 58,023 77 12 43/44,www.giplait.dz,3.098033,36.743205,GIPLAIT,16
146,GVAPRO,Route Bensari Commune de Chebli,025486844/46-025215829,025486842,,3.055611,36.578378,Filiale AGRAL/AM,9
147,GVAPRO,BP 13 Guelal Daiar  d'Ain Oulmane ,036589246-036589248,036589246-036589248,,5.331164,36.0363,Filiale SAGRODEV,19
148,GVAPRO,"8,Avenue Abderhmane Mira Bab El Oued",0 21 96 67 99,0 21 96 76 67,,3.055642,36.792653,Filiale SARBO,16
149,GVAPRO,Avenue des Martyres de la Révolution-Zone Industrielle ESSANIA ,0 41 51 37 83,0 41 51 37 83,,-0.624792,35.671308,Filiale SAO,31
150,GVAPRO,"112,Quai Sud ",021737275/79,0 21 73 72 97,,3.060539,36.777503,Filiale SOTRAVIT,16
151,GVAPRO,Rue de la gare BP64 ,033627019/18-033627021,0 33 62 70 20,,5.725425,34.859656,Filiale SUDACO,7
152,GGR,,,,,3.277,36.717323,ERGR ZACCAR,16
153,GGR,,,,,-0.60931,35.6966,ERGR DHAHRA,31
154,GGR,,,,,4.047333,36.716124,ERGR DJURDJURA ,15
155,GGR,,,,,3.224828,34.663076,ERGR ATLAS,17
156,GGR,,,,,2.866187,36.75586,EHEV,42
157,AGROLOG,,,,,3.094447,36.710291,ONAB,16
158,AGROLOG,,,,,3.277366,36.740779,FRIGOMEDIT,16
159,AGROLOG,,,,,3.004555,36.64721,ALVIAR,16
160,AGROLOG,,,,,3.060635,36.774689,ENACT,16
161,Chambre Nationale de l'Agriculture,Pins Maritimes Palais des Expositions16058,021 21 00 52/021 21 93 96,021 21 00 39,,3.156887,36.732714,C N A,16
162,Chambre d'Agriculture de Wilaya Chlef,hai bensouna face casnos02000,027 77 46 63,027 79 08 57,,1.318618,36.1611,CAW Chlef,2
163,Chambre d'Agriculture de Wilaya Laghouat,Cité 5 juillet maamourah jardin 03000 laghouat,029 13 43 01,029 13 43 00,,2.864975,33.802371,CAW Laghouat,3
164,Chambre d'Agriculture de Wilaya OEB,Rue medfoun oeb,032 56 07 26 ,032 56 06 51,,7.118158,35.871407,CAW OEB,4
165,Chambre d'Agriculture de Wilaya Batna,Cité adm la verdure 05000 batna,033 81 46 56 ,033 80 38 79,,6.169133,35.552637,CAW Batna,5
166,Chambre d'Agriculture de Wilaya Bejaia,50 logts cite rabea naceria 06000 bejaia,034 16 41 85,034 16 41 86,,5.069771,36.752493,CAW Bejaia,6
167,Chambre d'Agriculture de Wilaya Biskra,635 rue des freres djezzar centre ville 07000 biskra,033 53 74 70,033 53 74 69,,5.730454,34.855396,CAW Biskra,7
168,Chambre d'Agriculture de Wilaya Bechar,lotissement gharassa08000 bechar,049 21 57 15,049 21 57 15,,-2.225499,31.584725,CAW Bechar,8
169,Chambre d'Agriculture de Wilaya Blida,10 avenue ben boulaid 09000 blida,025 23 44 17,026 23 44 16,,2.834045,36.484276,CAW Blida,9
170,Chambre d'Agriculture de Wilaya Bouira,rue boukarou makhlouf 10000 bouira,026 73 01 71 / 026 73 01 72,026 73 01 01,,3.902333,36.381349,CAW Bouira,10
171,Chambre d'Agriculture de Wilaya TAMENGHASSET,Rue said mokrani centre ville TAMENGHASSET,029 31 40 01 ,029 31 40 01 ,,5.524206,22.793218,CAW TAMENGHASSET,11
172,Chambre d'Agriculture de Wilaya Tébessa,Cité chahla BT2 12000 tebessa,037 56 20 41,037 48 30 42/037 59 28 37,,8.100224,35.403947,CAW Tébessa,12
173,Chambre d'Agriculture de Wilaya Tlemcen,35 bd med 5 bel air 13000 tlemcen,043 42 20 31,043 59 28 37,,-1.272977,34.912808,CAW Tlemcen,13
174,Chambre d'Agriculture de Wilaya Tiaret,cite 1575 logts mohamed djahlane 14000 tiaret,046 22 18 29,046 42 68 30 / 046 42 64  30 ,,1.320805,35.356677,CAW Tiaret,14
175,Chambre d'Agriculture de Wilaya Tizi Ouzou,Cité 500logts geni sider krim belkacem résidence kahina,026 20 05 08,026 20 54 69,,4.061132,36.701018,CAW Tizi Ouzou,15
176,Chambre d'Agriculture de Wilaya Alger,pins maritimes mohammadia,/,021 21 04 83,,3.156887,36.732714,CAW Alger,16
177,Chambre d'Agriculture de Wilaya Djelfa,place med boudiaf centre ville 17000 djelfa,027 92 34 19,027 92 31 55,,3.250894,34.676158,CAW Djelfa,17
178,Chambre d'Agriculture de Wilaya Jijel,avenue 1er novembre centre ville 18000 jijel,034 47 12 35,034 49 75 76,,5.767788,36.824437,CAW Jijel,18
179,Chambre d'Agriculture de Wilaya Sétif,Cité les tours ain tebinet 19000setif,036 62 16 10  ,036 62 16 29,,5.432802,36.188168,CAW Sétif,19
180,Chambre d'Agriculture de Wilaya Saïda,Route de tiaret sersour saida,048 41 04 24,048 41 04 17,,0.149464,34.841109,CAW Saïda,20
181,Chambre d'Agriculture de Wilaya Skikda,03 rue medaghi didouche mourad 21000 skikda,038 75 23 10,038 75 18 39/038 57 39 16,,6.910776,36.88267,CAW Skikda,21
182,Chambre d'Agriculture de Wilaya SBA,Bd emir abdelkader centre ville SBA,048 68 85 67,048 68 85 68,,-0.635564,35.193364,CAW SBA,22
183,Chambre d'Agriculture de Wilaya Annaba,Place Belouizdad MES Vieille Ville,038 45 00 00,038 45 01 01,,7.761298,36.898051,CAW Annaba,23
184,Chambre d'Agriculture de Wilaya Guelma,Cité Bara Lakhdar Agabi,037 16 14 21,037 16 14 22,,7.441156,36.455599,CAW Guelma,24
185,Chambre d'Agriculture de Wilaya Constantine,PlaceE DES Martyrs S Centre Ville,031 87 24 67,031 87 21 83 / 031 87 42 59,,6.609235,36.364,CAW Constantine,25
186,Chambre d'Agriculture de Wilaya Médéa,Rue Medjechkir,025 73 46 15,025 73 46 13,,2.762001,36.280234,CAW Médéa,26
187,Chambre d'Agriculture de Wilaya Mostaganem,Route de Relizane.Vallée des Jardins.Bp 93,045 41 51 05,045 41 51 06,,0.110886,35.913353,CAW Mostaganem,27
188,Chambre d'Agriculture de Wilaya M’sila,Cité Administrative,035 33 83 90,035 55 15 75,,4.54215,35.713453,CAW M’sila,28
189,Chambre d'Agriculture de Wilaya Mascara,Rue  Merzoug Omar Place de La Palestine ,045 71 59 91 ,045 71 59 33,,0.136887,35.394171,CAW Mascara,29
190,Chambre d'Agriculture de Wilaya Ouargla,,,029 71 29 06,,5.324481,31.950995,CAW Ouargla,30
191,Chambre d'Agriculture de Wilaya Oran,Rue de la  Gare Messeghrine ,040 23 82 83,040 91 45 41,,-0.734557,35.610772,CAW Oran,31
192,Chambre d'Agriculture de Wilaya El Bayadh,B atoire Ancien  Siège,049 60 98 24,049 60 98 23,,1.003696,33.688358,CAW El Bayadh,32
193,Chambre d'Agriculture de Wilaya Illizi,62 Rue Mustapha Ben Boulaid BEN BOULAID Centre Ville,029 41 15 37,029 41 15 37,,8.474414,26.496902,CAW Illizi,33
194,Chambre d'Agriculture de Wilaya BBA,Rue Mebarkia  Smail,035 74 81 20,035 74 83 45,,4.762996,36.078071,CAW BBA,34
195,Chambre d'Agriculture de Wilaya Boumerdès,Bt 11 DEC Bt AGF Bloc ANDI 1ere Etage  BMR,024 91 47 58,024 79 98 26,,3.456217,36.754554,CAW Boumerdès,35
196,Chambre d'Agriculture de Wilaya El Tarf,Place 20 Aout 56,/,038 30 01 82,,8.316977,36.767242,CAW El Tarf,36
197,Chambre d'Agriculture de Wilaya Tissemsilt,Rue 1 ER Novembre  Tissemsilt ,046 47 69 18,046 57 45 58,,1.807483,35.605127,CAW Tissemsilt,38
198,Chambre d'Agriculture de Wilaya El Oued,Cité Taouba EL Asnam Près Palais de  Justice,032 11 56 20,032 11 56 36,,6.855609,33.362393,CAW El Oued,39
199,Chambre d'Agriculture de Wilaya Souk Ahras,Cité 100 Bureaux Centre  Ville,037 31 09 01 ,037 71 00 13 / 037 71 00 15,,7.953117,36.286804,CAW Souk Ahras,41
200,Chambre d'Agriculture de Wilaya Tipaza,"RN 11, Aïn Tagourait, Daïra Bou Ismaïl, Tipaza",024 40 92 92,024 47 93 58,,2.520825,36.587854,CAW Tipaza,42
201,Chambre d'Agriculture de Wilaya Mila,Route de  Zeghia Zone  d'Activité,031 47 32 20 / 031 47 32 21,031 47 32 22,,6.25994,36.45203,CAW Mila,43
202,Chambre d'Agriculture de Wilaya Aïn Defla,Cité 160 Logts Menad Hadj Kaddour N65,027 50 30 67,027 50 30 76,,1.957211,36.256265,CAW Aïn Defla,44
203,Chambre d'Agriculture de Wilaya Naâma,ZI Mecheria BP 270 45100 Mecheria Algérie.,049 78 75 33,049 58 74 08,,-0.276014,33.544059,CAW Naâma,45
204,Chambre d'Agriculture de Wilaya Ain Témouchent,Cité Akid  Othmane CASTORS Ain Témouchent ,043 79 68 00,043 79 18 52,,-1.140093,35.303438,CAW Ain Témouchent,46
205,Chambre d'Agriculture de Wilaya Ghardaia,Bp 117 sidi abaz. Ghardaia Algerie ,029 25 50 59,029 25 55 99,,3.698006,32.486291,CAW Ghardaia,47
206,Chambre d'Agriculture de Wilaya Relizane,07 Cité Feghoul  Allem,046 76 60 03,046 76 60 04,,0.546984,35.746907,CAW Relizane,48
